station,valid,lon,lat,elevation,tmpf,dwpf,relh,drct,sknt,p01i,alti,mslp,vsby,gust,skyc1,skyc2,skyc3,skyc4,skyl1,skyl2,skyl3,skyl4,wxcodes,ice_accretion_1hr,ice_accretion_3hr,ice_accretion_6hr,peak_wind_gust,peak_wind_drct,peak_wind_time,feel,metar,snowdepth
SBA,2025-06-10 00:53,-119.8436,34.4261,3.00,59.00,57.00,93.07,80.00,8.00,0.00,29.92,1013.20,8.00,null,OVC,null,null,null,600.00,null,null,null,null,null,null,null,null,null,null,59.00,KSBA 100753Z AUTO 08008KT 8SM OVC006 15/14 A2992 RMK AO2 SLP132 T01500139 401940150 $,null
SBA,2025-06-10 01:11,-119.8436,34.4261,3.00,59.00,57.00,93.07,80.00,7.00,0.00,29.92,null,8.00,null,SCT,null,null,null,500.00,null,null,null,null,null,null,null,null,null,null,59.00,KSBA 100811Z AUTO 08007KT 8SM SCT005 15/14 A2992 RMK AO2 T01500139 $,null
SBA,2025-06-10 01:53,-119.8436,34.4261,3.00,58.00,56.00,93.04,0.00,0.00,0.00,29.92,1013.00,8.00,null,CLR,null,null,null,null,null,null,null,null,null,null,null,null,null,null,58.00,KSBA 100853Z AUTO 00000KT 8SM CLR 14/13 A2992 RMK AO2 SLP130 T01440133 50001 $,null
SBA,2025-06-10 02:08,-119.8436,34.4261,3.00,57.00,55.00,93.01,300.00,3.00,0.00,29.92,null,7.00,null,SCT,null,null,null,900.00,null,null,null,null,null,null,null,null,null,null,57.00,KSBA 100908Z AUTO 30003KT 7SM SCT009 14/13 A2992 RMK AO2 T01390128 $,null
SBA,2025-06-10 02:16,-119.8436,34.4261,3.00,57.00,55.00,93.01,0.00,0.00,0.00,29.91,null,8.00,null,BKN,null,null,null,900.00,null,null,null,null,null,null,null,null,null,null,57.00,KSBA 100916Z AUTO 00000KT 8SM BKN009 14/13 A2991 RMK AO2 T01390128 $,null
SBA,2025-06-10 02:53,-119.8436,34.4261,3.00,59.00,57.00,93.07,0.00,0.00,0.00,29.91,1012.90,9.00,null,OVC,null,null,null,600.00,null,null,null,null,null,null,null,null,null,null,59.00,KSBA 100953Z AUTO 00000KT 9SM OVC006 15/14 A2991 RMK AO2 SLP129 T01500139 $,null
SBA,2025-06-10 03:53,-119.8436,34.4261,3.00,59.00,57.00,93.07,0.00,0.00,0.00,29.92,1013.10,9.00,null,OVC,null,null,null,600.00,null,null,null,null,null,null,null,null,null,null,59.00,KSBA 101053Z AUTO 00000KT 9SM OVC006 15/14 A2992 RMK AO2 SLP131 T01500139 $,null
SBA,2025-06-10 04:53,-119.8436,34.4261,3.00,59.00,57.00,93.07,0.00,0.00,0.00,29.91,1013.00,8.00,null,OVC,null,null,null,600.00,null,null,null,null,null,null,null,null,null,null,59.00,KSBA 101153Z AUTO 00000KT 8SM OVC006 15/14 A2991 RMK AO2 SLP130 T01500139 10156 20139 56001 $,null
SBA,2025-06-10 05:53,-119.8436,34.4261,3.00,59.00,57.00,93.07,0.00,0.00,0.00,29.93,1013.40,7.00,null,OVC,null,null,null,500.00,null,null,null,null,null,null,null,null,null,null,59.00,KSBA 101253Z AUTO 00000KT 7SM OVC005 15/14 A2993 RMK AO2 SLP134 T01500139 $,null
SBA,2025-06-10 06:53,-119.8436,34.4261,3.00,58.00,56.00,93.04,10.00,5.00,0.00,29.95,1014.10,4.00,null,OVC,null,null,null,200.00,null,null,null,BR,null,null,null,null,null,null,58.00,KSBA 101353Z 01005KT 4SM BR OVC002 14/13 A2995 RMK AO2 SLP141 T01440133 $,null
SBA,2025-06-10 07:53,-119.8436,34.4261,3.00,59.00,57.00,93.07,80.00,4.00,0.00,29.96,1014.60,4.00,null,OVC,null,null,null,200.00,null,null,null,BR,null,null,null,null,null,null,59.00,KSBA 101453Z 08004KT 4SM BR OVC002 15/14 A2996 RMK AO2 SLP146 T01500139 53017 $,null
SBA,2025-06-10 08:53,-119.8436,34.4261,3.00,59.00,57.00,93.07,0.00,0.00,0.00,29.97,1014.90,4.00,null,OVC,null,null,null,400.00,null,null,null,BR,null,null,null,null,null,null,59.00,KSBA 101553Z 00000KT 4SM BR OVC004 15/14 A2997 RMK AO2 SLP149 T01500139 $,null
SBA,2025-06-10 09:53,-119.8436,34.4261,3.00,61.00,57.00,86.68,120.00,4.00,0.00,29.97,1014.80,6.00,null,OVC,null,null,null,700.00,null,null,null,BR,null,null,null,null,null,null,61.00,KSBA 101653Z 12004KT 6SM BR OVC007 16/14 A2997 RMK AO2 SLP148 T01610139 $,null
SBA,2025-06-10 10:53,-119.8436,34.4261,3.00,62.00,57.00,83.67,160.00,5.00,0.00,29.98,1015.20,10.00,null,OVC,null,null,null,800.00,null,null,null,null,null,null,null,null,null,null,62.00,KSBA 101753Z 16005KT 10SM OVC008 17/14 A2998 RMK AO2 SLP152 T01670139 10167 20144 53006 $,null
SBA,2025-06-10 11:53,-119.8436,34.4261,3.00,64.00,57.00,77.99,190.00,5.00,0.00,29.98,1015.20,10.00,null,OVC,null,null,null,1100.00,null,null,null,null,null,null,null,null,null,null,64.00,KSBA 101853Z 19005KT 10SM OVC011 18/14 A2998 RMK AO2 SLP152 T01780139 $,null
SBA,2025-06-10 12:53,-119.8436,34.4261,3.00,66.00,58.00,75.41,230.00,7.00,0.00,29.97,1014.70,10.00,null,OVC,null,null,null,1000.00,null,null,null,null,null,null,null,null,null,null,66.00,KSBA 101953Z 23007KT 10SM OVC010 19/14 A2997 RMK AO2 SLP147 T01890144 $,null
SBA,2025-06-10 13:53,-119.8436,34.4261,3.00,67.00,58.00,72.85,260.00,10.00,0.00,29.94,1014.00,10.00,null,FEW,null,null,null,1100.00,null,null,null,null,null,null,null,null,null,null,67.00,KSBA 102053Z 26010KT 10SM FEW011 19/14 A2994 RMK AO2 SLP140 T01940144 58012 $,null
SBA,2025-06-10 14:53,-119.8436,34.4261,3.00,67.00,58.00,72.85,250.00,12.00,0.00,29.93,1013.50,9.00,null,SCT,null,null,null,1200.00,null,null,null,null,null,null,null,null,null,null,67.00,KSBA 102153Z 25012KT 9SM SCT012 19/14 A2993 RMK AO2 SLP135 T01940144 $,null
SBA,2025-06-10 15:53,-119.8436,34.4261,3.00,67.00,58.00,72.85,240.00,8.00,0.00,29.92,1013.00,8.00,null,SCT,null,null,null,1200.00,null,null,null,HZ,null,null,null,null,null,null,67.00,KSBA 102253Z 24008KT 8SM HZ SCT012 19/14 A2992 RMK AO2 SLP130 T01940144 $,null
SBA,2025-06-10 16:53,-119.8436,34.4261,3.00,66.00,56.00,70.16,250.00,5.00,0.00,29.90,1012.60,8.00,null,FEW,null,null,null,800.00,null,null,null,null,null,null,null,null,null,null,66.00,KSBA 102353Z 25005KT 8SM FEW008 19/13 A2990 RMK AO2 SLP126 T01890133 10200 20161 57014 $,null
SBA,2025-06-10 17:53,-119.8436,34.4261,3.00,68.00,57.00,67.89,190.00,5.00,0.00,29.89,1012.10,10.00,null,CLR,null,null,null,null,null,null,null,null,null,null,null,null,null,null,68.00,KSBA 110053Z 19005KT 10SM CLR 20/14 A2989 RMK AO2 SLP121 T02000139 $,null
SBA,2025-06-10 18:53,-119.8436,34.4261,3.00,64.00,58.00,80.85,140.00,7.00,0.00,29.88,1011.80,10.00,null,CLR,null,null,null,null,null,null,null,null,null,null,null,null,null,null,64.00,KSBA 110153Z 14007KT 10SM CLR 18/14 A2988 RMK AO2 SLP118 T01780144 $,null
SBA,2025-06-10 19:53,-119.8436,34.4261,3.00,63.00,57.00,80.77,110.00,7.00,0.00,29.89,1012.10,10.00,null,CLR,null,null,null,null,null,null,null,null,null,null,null,null,null,null,63.00,KSBA 110253Z 11007KT 10SM CLR 17/14 A2989 RMK AO2 SLP121 T01720139 55005 $,null
SBA,2025-06-10 20:53,-119.8436,34.4261,3.00,62.00,58.00,86.73,110.00,6.00,0.00,29.89,1012.10,10.00,null,CLR,null,null,null,null,null,null,null,null,null,null,null,null,null,null,62.00,KSBA 110353Z COR 11006KT 10SM CLR 17/14 A2989 RMK AO2 SLP121 T01670144 $,null
SBA,2025-06-10 21:53,-119.8436,34.4261,3.00,62.00,58.00,86.73,110.00,6.00,0.00,29.91,1012.80,10.00,null,CLR,null,null,null,null,null,null,null,null,null,null,null,null,null,null,62.00,KSBA 110453Z 11006KT 10SM CLR 17/14 A2991 RMK AO2 SLP128 T01670144 $,null
SBA,2025-06-10 22:53,-119.8436,34.4261,3.00,61.00,57.00,86.68,90.00,3.00,0.00,29.91,1012.90,10.00,null,CLR,null,null,null,null,null,null,null,null,null,null,null,null,null,null,61.00,KSBA 110553Z AUTO 09003KT 10SM CLR 16/14 A2991 RMK AO2 SLP129 T01610139 10200 20161 53008 $,null
SBA,2025-06-10 23:53,-119.8436,34.4261,3.00,59.00,57.00,93.07,60.00,5.00,0.00,29.92,1013.10,10.00,null,CLR,null,null,null,null,null,null,null,null,null,null,null,null,null,null,59.00,KSBA 110653Z AUTO 06005KT 10SM CLR 15/14 A2992 RMK AO2 SLP131 T01500139 $,null
SBA,2025-06-11 00:53,-119.8436,34.4261,3.00,59.00,57.00,93.07,0.00,0.00,0.00,29.92,1013.10,6.00,null,CLR,null,null,null,null,null,null,null,BR,null,null,null,null,null,null,59.00,KSBA 110753Z AUTO 00000KT 6SM BR CLR 15/14 A2992 RMK AO2 SLP131 T01500139 402000139 $,null
SBA,2025-06-11 01:53,-119.8436,34.4261,3.00,57.00,54.00,89.68,0.00,0.00,0.00,29.92,1013.00,10.00,null,CLR,null,null,null,null,null,null,null,null,null,null,null,null,null,null,57.00,KSBA 110853Z AUTO 00000KT 10SM CLR 14/12 A2992 RMK AO2 SLP130 T01390122 50001 $,null
SBA,2025-06-11 02:00,-119.8436,34.4261,3.00,57.00,55.00,93.01,0.00,0.00,0.00,29.91,null,10.00,null,FEW,null,null,null,700.00,null,null,null,null,null,null,null,null,null,null,57.00,KSBA 110900Z AUTO 00000KT 10SM FEW007 14/13 A2991 RMK AO2 T01390128 $,null
SBA,2025-06-11 02:43,-119.8436,34.4261,3.00,59.00,57.00,93.07,0.00,0.00,0.00,29.91,null,8.00,null,BKN,null,null,null,700.00,null,null,null,null,null,null,null,null,null,null,59.00,KSBA 110943Z AUTO 00000KT 8SM BKN007 15/14 A2991 RMK AO2 T01500139 $,null
SBA,2025-06-11 02:53,-119.8436,34.4261,3.00,59.00,57.00,93.07,80.00,3.00,0.00,29.91,1012.70,8.00,null,SCT,null,null,null,700.00,null,null,null,null,null,null,null,null,null,null,59.00,KSBA 110953Z AUTO 08003KT 8SM SCT007 15/14 A2991 RMK AO2 SLP127 T01500139 $,null
SBA,2025-06-11 03:53,-119.8436,34.4261,3.00,57.00,55.00,93.01,0.00,0.00,0.00,29.90,1012.50,9.00,null,CLR,null,null,null,null,null,null,null,null,null,null,null,null,null,null,57.00,KSBA 111053Z AUTO 00000KT 9SM CLR 14/13 A2990 RMK AO2 SLP125 T01390128 $,null
SBA,2025-06-11 04:36,-119.8436,34.4261,3.00,56.00,54.00,92.98,0.00,0.00,0.00,29.90,null,9.00,null,SCT,null,null,null,800.00,null,null,null,null,null,null,null,null,null,null,56.00,KSBA 111136Z AUTO 00000KT 9SM SCT008 13/12 A2990 RMK AO2 T01330122 $,null
SBA,2025-06-11 04:45,-119.8436,34.4261,3.00,56.00,54.00,92.98,0.00,0.00,0.00,29.91,null,8.00,null,BKN,null,null,null,800.00,null,null,null,null,null,null,null,null,null,null,56.00,KSBA 111145Z AUTO 00000KT 8SM BKN008 13/12 A2991 RMK AO2 T01330122 $,null
SBA,2025-06-11 04:53,-119.8436,34.4261,3.00,57.00,55.00,93.01,0.00,0.00,0.00,29.91,1012.70,9.00,null,BKN,null,null,null,800.00,null,null,null,null,null,null,null,null,null,null,57.00,KSBA 111153Z AUTO 00000KT 9SM BKN008 14/13 A2991 RMK AO2 SLP127 T01390128 10161 20128 55003 $,null
SBA,2025-06-11 05:53,-119.8436,34.4261,3.00,58.00,56.00,93.04,0.00,0.00,0.00,29.90,1012.50,8.00,null,OVC,null,null,null,600.00,null,null,null,null,null,null,null,null,null,null,58.00,KSBA 111253Z AUTO 00000KT 8SM OVC006 14/13 A2990 RMK AO2 SLP125 T01440133 $,null
SBA,2025-06-11 06:53,-119.8436,34.4261,3.00,60.00,57.00,89.81,30.00,4.00,0.00,29.91,1012.80,7.00,null,OVC,null,null,null,600.00,null,null,null,null,null,null,null,null,null,null,60.00,KSBA 111353Z 03004KT 7SM OVC006 16/14 A2991 RMK AO2 SLP128 T01560139 $,null
SBA,2025-06-11 07:53,-119.8436,34.4261,3.00,60.00,58.00,93.10,100.00,5.00,0.00,29.92,1013.20,5.00,null,OVC,null,null,null,600.00,null,null,null,BR,null,null,null,null,null,null,60.00,KSBA 111453Z 10005KT 5SM BR OVC006 16/14 A2992 RMK AO2 SLP132 T01560144 53005 $,null
SBA,2025-06-11 08:53,-119.8436,34.4261,3.00,61.00,58.00,89.85,130.00,6.00,0.00,29.94,1013.80,6.00,null,OVC,null,null,null,600.00,null,null,null,BR,null,null,null,null,null,null,61.00,KSBA 111553Z 13006KT 6SM BR OVC006 16/14 A2994 RMK AO2 SLP138 T01610144 $,null
SBA,2025-06-11 09:53,-119.8436,34.4261,3.00,61.00,58.00,89.85,130.00,6.00,0.00,29.94,1013.80,8.00,null,OVC,null,null,null,600.00,null,null,null,null,null,null,null,null,null,null,61.00,KSBA 111653Z 13006KT 8SM OVC006 16/14 A2994 RMK AO2 SLP138 T01610144 $,null
SBA,2025-06-11 10:53,-119.8436,34.4261,3.00,65.00,58.00,78.08,130.00,9.00,0.00,29.94,1013.70,8.00,null,OVC,null,null,null,900.00,null,null,null,null,null,null,null,null,null,null,65.00,KSBA 111753Z 13009KT 8SM OVC009 18/14 A2994 RMK AO2 SLP137 6//// T01830144 10183 20139 50005 $,null
SBA,2025-06-11 11:53,-119.8436,34.4261,3.00,66.00,57.00,72.74,150.00,9.00,0.00,29.94,1013.70,10.00,null,FEW,BKN,null,null,900.00,1600.00,null,null,null,null,null,null,null,null,null,66.00,KSBA 111853Z 15009KT 10SM FEW009 BKN016 19/14 A2994 RMK AO2 SLP137 T01890139,null
SBA,2025-06-11 12:53,-119.8436,34.4261,3.00,65.00,58.00,78.08,160.00,7.00,0.00,29.92,1013.20,10.00,null,FEW,BKN,null,null,900.00,1600.00,null,null,null,null,null,null,null,null,null,65.00,KSBA 111953Z 16007KT 10SM FEW009 BKN016 18/14 A2992 RMK AO2 SLP132 FG BANK ALONG SHORE LINE E-W T01830144,null
SBA,2025-06-11 13:53,-119.8436,34.4261,3.00,66.00,58.00,75.41,150.00,8.00,0.00,29.92,1013.00,6.00,null,SCT,SCT,null,null,900.00,1600.00,null,null,HZ,null,null,null,null,null,null,66.00,KSBA 112053Z COR 15008KT 6SM HZ SCT009 SCT016 19/14 A2992 RMK AO2 SLP130 T01890144 58007,null
SBA,2025-06-11 14:53,-119.8436,34.4261,3.00,65.00,58.00,78.08,190.00,8.00,0.00,29.90,1012.60,6.00,null,SCT,SCT,null,null,900.00,1600.00,null,null,HZ,null,null,null,null,null,null,65.00,KSBA 112153Z 19008KT 6SM HZ SCT009 SCT016 18/14 A2990 RMK AO2 SLP126 FG BNK ALNG SHR E-W T01830144,null
SBA,2025-06-11 15:53,-119.8436,34.4261,3.00,66.00,58.00,75.41,160.00,7.00,0.00,29.88,1011.90,6.00,null,CLR,null,null,null,null,null,null,null,HZ,null,null,null,null,null,null,66.00,KSBA 112253Z 16007KT 6SM HZ CLR 19/14 A2988 RMK AO2 SLP119 FG BNK ALNG SHRLN E-W T01890144,null
SBA,2025-06-11 16:53,-119.8436,34.4261,3.00,66.00,57.00,72.74,150.00,7.00,0.00,29.87,1011.30,6.00,null,CLR,null,null,null,null,null,null,null,HZ,null,null,null,null,null,null,66.00,KSBA 112353Z 15007KT 6SM HZ CLR 19/14 A2987 RMK AO2 SLP113 T01890139 10194 20178 58017 $,null
SBA,2025-06-11 17:53,-119.8436,34.4261,3.00,65.00,57.00,75.32,150.00,7.00,0.00,29.85,1010.60,9.00,null,CLR,null,null,null,null,null,null,null,null,null,null,null,null,null,null,65.00,KSBA 120053Z 15007KT 9SM CLR 18/14 A2985 RMK AO2 SLP106 T01830139 $,null
SBA,2025-06-11 18:53,-119.8436,34.4261,3.00,64.00,58.00,80.85,140.00,7.00,0.00,29.84,1010.60,7.00,null,CLR,null,null,null,null,null,null,null,null,null,null,null,null,null,null,64.00,KSBA 120153Z 14007KT 7SM CLR 18/14 A2984 RMK AO2 SLP106 T01780144 $,null
SBA,2025-06-11 19:53,-119.8436,34.4261,3.00,62.00,58.00,86.73,150.00,10.00,0.00,29.84,1010.40,6.00,null,CLR,null,null,null,null,null,null,null,BR,null,null,null,null,null,null,62.00,KSBA 120253Z 15010KT 6SM BR CLR 17/14 A2984 RMK AO2 SLP104 T01670144 56009 $,null
SBA,2025-06-11 20:53,-119.8436,34.4261,3.00,61.00,58.00,89.85,120.00,5.00,0.00,29.85,1010.80,7.00,null,CLR,null,null,null,null,null,null,null,null,null,null,null,null,null,null,61.00,KSBA 120353Z 12005KT 7SM CLR 16/14 A2985 RMK AO2 SLP108 T01610144 $,null
SBA,2025-06-11 21:53,-119.8436,34.4261,3.00,60.00,56.00,86.62,60.00,3.00,0.00,29.86,1011.10,7.00,null,CLR,null,null,null,null,null,null,null,null,null,null,null,null,null,null,60.00,KSBA 120453Z 06003KT 7SM CLR 16/13 A2986 RMK AO2 SLP111 T01560133 $,null
SBA,2025-06-11 22:53,-119.8436,34.4261,3.00,61.00,57.00,86.68,100.00,3.00,0.00,29.86,1011.10,7.00,null,CLR,null,null,null,null,null,null,null,null,null,null,null,null,null,null,61.00,KSBA 120553Z 10003KT 7SM CLR 16/14 A2986 RMK AO2 SLP111 T01610139 10194 20156 51007 $,null
SBA,2025-06-11 23:53,-119.8436,34.4261,3.00,58.00,55.00,89.73,20.00,3.00,0.00,29.86,1011.00,7.00,null,CLR,null,null,null,null,null,null,null,null,null,null,null,null,null,null,58.00,KSBA 120653Z AUTO 02003KT 7SM CLR 14/13 A2986 RMK AO2 SLP110 T01440128 $,null
SBA,2025-06-12 00:53,-119.8436,34.4261,3.00,56.00,54.00,92.98,300.00,3.00,0.00,29.85,1010.90,7.00,null,CLR,null,null,null,null,null,null,null,null,null,null,null,null,null,null,56.00,KSBA 120753Z AUTO 30003KT 7SM CLR 13/12 A2985 RMK AO2 SLP109 T01330122 401940128 $,null
SBA,2025-06-12 01:53,-119.8436,34.4261,3.00,54.00,53.00,96.40,300.00,5.00,0.00,29.85,1010.60,7.00,null,CLR,null,null,null,null,null,null,null,null,null,null,null,null,null,null,54.00,KSBA 120853Z AUTO 30005KT 7SM CLR 12/12 A2985 RMK AO2 SLP106 T01220117 58005 $,null
SBA,2025-06-12 02:53,-119.8436,34.4261,3.00,54.00,52.00,92.92,330.00,3.00,0.00,29.84,1010.40,7.00,null,CLR,null,null,null,null,null,null,null,null,null,null,null,null,null,null,54.00,KSBA 120953Z AUTO 33003KT 7SM CLR 12/11 A2984 RMK AO2 SLP104 T01220111 $,null
SBA,2025-06-12 03:53,-119.8436,34.4261,3.00,53.00,52.00,96.39,0.00,0.00,0.00,29.85,1010.60,8.00,null,CLR,null,null,null,null,null,null,null,null,null,null,null,null,null,null,53.00,KSBA 121053Z AUTO 00000KT 8SM CLR 12/11 A2985 RMK AO2 SLP106 T01170111 $,null
SBA,2025-06-12 04:53,-119.8436,34.4261,3.00,54.00,53.00,96.40,0.00,0.00,0.00,29.84,1010.40,7.00,null,CLR,null,null,null,null,null,null,null,null,null,null,null,null,null,null,54.00,KSBA 121153Z AUTO 00000KT 7SM CLR 12/12 A2984 RMK AO2 SLP104 7//// T01220117 10161 20117 56002 $,null
SBA,2025-06-12 05:09,-119.8436,34.4261,3.00,54.00,52.00,92.92,70.00,3.00,0.00,29.84,null,8.00,null,SCT,null,null,null,700.00,null,null,null,null,null,null,null,null,null,null,54.00,KSBA 121209Z AUTO 07003KT 8SM SCT007 12/11 A2984 RMK AO2 T01220111 $,null
SBA,2025-06-12 05:20,-119.8436,34.4261,3.00,56.00,54.00,92.98,60.00,4.00,0.00,29.85,null,8.00,null,BKN,null,null,null,700.00,null,null,null,null,null,null,null,null,null,null,56.00,KSBA 121220Z AUTO 06004KT 8SM BKN007 13/12 A2985 RMK AO2 T01330122 $,null
SBA,2025-06-12 05:53,-119.8436,34.4261,3.00,59.00,56.00,89.77,80.00,5.00,0.00,29.85,1010.90,5.00,null,OVC,null,null,null,700.00,null,null,null,BR,null,null,null,null,null,null,59.00,KSBA 121253Z 08005KT 5SM BR OVC007 15/13 A2985 RMK AO2 SLP109 T01500133 $,null
SBA,2025-06-12 06:53,-119.8436,34.4261,3.00,59.00,56.00,89.77,80.00,4.00,0.00,29.86,1011.10,6.00,null,BKN,null,null,null,700.00,null,null,null,BR,null,null,null,null,null,null,59.00,KSBA 121353Z 08004KT 6SM BR BKN007 15/13 A2986 RMK AO2 SLP111 T01500133 $,null
SBA,2025-06-12 07:53,-119.8436,34.4261,3.00,61.00,57.00,86.68,110.00,7.00,0.00,29.88,1011.80,6.00,null,OVC,null,null,null,900.00,null,null,null,BR,null,null,null,null,null,null,61.00,KSBA 121453Z 11007KT 6SM BR OVC009 16/14 A2988 RMK AO2 SLP118 T01610139 53013 $,null
SBA,2025-06-12 08:53,-119.8436,34.4261,3.00,62.00,56.00,80.70,120.00,8.00,0.00,29.89,1012.10,6.00,null,OVC,null,null,null,900.00,null,null,null,BR,null,null,null,null,null,null,62.00,KSBA 121553Z 12008KT 6SM BR OVC009 17/13 A2989 RMK AO2 SLP121 T01670133 $,null
SBA,2025-06-12 09:53,-119.8436,34.4261,3.00,64.00,56.00,75.22,130.00,8.00,0.00,29.88,1011.80,6.00,null,BKN,null,null,null,900.00,null,null,null,BR,null,null,null,null,null,null,64.00,KSBA 121653Z 13008KT 6SM BR BKN009 18/13 A2988 RMK AO2 SLP118 T01780133 $,null
SBA,2025-06-12 10:53,-119.8436,34.4261,3.00,64.00,57.00,77.99,160.00,8.00,0.00,29.89,1012.10,6.00,null,BKN,null,null,null,900.00,null,null,null,BR,null,null,null,null,null,null,64.00,KSBA 121753Z 16008KT 6SM BR BKN009 18/14 A2989 RMK AO2 SLP121 T01780139 10183 20117 51003 $,null
SBA,2025-06-12 11:53,-119.8436,34.4261,3.00,65.00,57.00,75.32,150.00,8.00,0.00,29.89,1012.20,9.00,null,BKN,null,null,null,900.00,null,null,null,BR,null,null,null,null,null,null,65.00,KSBA 121853Z 15008KT 9SM BR BKN009 18/14 A2989 RMK AO2 SLP122 T01830139 $,null
SBA,2025-06-12 12:53,-119.8436,34.4261,3.00,67.00,57.00,70.27,140.00,8.00,0.00,29.88,1011.80,9.00,null,SCT,null,null,null,1700.00,null,null,null,null,null,null,null,null,null,null,67.00,KSBA 121953Z 14008KT 9SM SCT017 19/14 A2988 RMK AO2 SLP118 T01940139 $,null
SBA,2025-06-12 13:53,-119.8436,34.4261,3.00,67.00,57.00,70.27,160.00,9.00,0.00,29.86,1011.20,10.00,null,SCT,null,null,null,1200.00,null,null,null,null,null,null,null,null,null,null,67.00,KSBA 122053Z 16009KT 10SM SCT012 19/14 A2986 RMK AO2 SLP112 FOG BANK ALONG SHORE E-W T01940139 58008 $,null
SBA,2025-06-12 14:53,-119.8436,34.4261,3.00,66.00,58.00,75.41,160.00,7.00,0.00,29.87,1011.30,8.00,null,SCT,null,null,null,2000.00,null,null,null,null,null,null,null,null,null,null,66.00,KSBA 122153Z 16007KT 8SM SCT020 19/14 A2987 RMK AO2 SLP113 FG BNK ALNG SHRLN E-W T01890144 $,null
SBA,2025-06-12 15:53,-119.8436,34.4261,3.00,67.00,58.00,72.85,140.00,7.00,0.00,29.85,1010.80,7.00,null,CLR,null,null,null,null,null,null,null,null,null,null,null,null,null,null,67.00,KSBA 122253Z 14007KT 7SM CLR 19/14 A2985 RMK AO2 SLP108 FG BANK ALONG SHORE E-W T01940144 $,null
SBA,2025-06-12 16:53,-119.8436,34.4261,3.00,67.00,58.00,72.85,160.00,6.00,0.00,29.84,1010.40,8.00,null,CLR,null,null,null,null,null,null,null,null,null,null,null,null,null,null,67.00,KSBA 122353Z 16006KT 8SM CLR 19/14 A2984 RMK AO2 SLP104 T01940144 10200 20178 58008 $,null
SBA,2025-06-12 17:53,-119.8436,34.4261,3.00,66.00,57.00,72.74,170.00,6.00,0.00,29.83,1010.10,8.00,null,CLR,null,null,null,null,null,null,null,null,null,null,null,null,null,null,66.00,KSBA 130053Z 17006KT 8SM CLR 19/14 A2983 RMK AO2 SLP101 T01890139 $,null
SBA,2025-06-12 18:53,-119.8436,34.4261,3.00,65.00,57.00,75.32,140.00,5.00,0.00,29.83,1009.90,8.00,null,CLR,null,null,null,null,null,null,null,null,null,null,null,null,null,null,65.00,KSBA 130153Z 14005KT 8SM CLR 18/14 A2983 RMK AO2 SLP099 T01830139 $,null
SBA,2025-06-12 19:53,-119.8436,34.4261,3.00,63.00,57.00,80.77,140.00,5.00,0.00,29.83,1010.20,7.00,null,CLR,null,null,null,null,null,null,null,null,null,null,null,null,null,null,63.00,KSBA 130253Z 14005KT 7SM CLR 17/14 A2983 RMK AO2 SLP102 T01720139 55002 $,null
SBA,2025-06-12 20:53,-119.8436,34.4261,3.00,62.00,58.00,86.73,120.00,4.00,0.00,29.83,1010.10,7.00,null,CLR,null,null,null,null,null,null,null,null,null,null,null,null,null,null,62.00,KSBA 130353Z 12004KT 7SM CLR 17/14 A2983 RMK AO2 SLP101 T01670144 $,null
SBA,2025-06-12 21:53,-119.8436,34.4261,3.00,61.00,57.00,86.68,110.00,5.00,0.00,29.85,1010.60,7.00,null,CLR,null,null,null,null,null,null,null,null,null,null,null,null,null,null,61.00,KSBA 130453Z 11005KT 7SM CLR 16/14 A2985 RMK AO2 SLP106 T01610139 $,null
SBA,2025-06-12 22:53,-119.8436,34.4261,3.00,60.00,57.00,89.81,90.00,3.00,0.00,29.85,1010.90,7.00,null,CLR,null,null,null,null,null,null,null,null,null,null,null,null,null,null,60.00,KSBA 130553Z AUTO 09003KT 7SM CLR 16/14 A2985 RMK AO2 SLP109 T01560139 10194 20156 53007 $,null
SBA,2025-06-12 23:53,-119.8436,34.4261,3.00,59.00,56.00,89.77,90.00,3.00,0.00,29.85,1010.90,7.00,null,CLR,null,null,null,null,null,null,null,null,null,null,null,null,null,null,59.00,KSBA 130653Z AUTO 09003KT 7SM CLR 15/13 A2985 RMK AO2 SLP109 T01500133 $,null
SBA,2025-06-13 00:49,-119.8436,34.4261,3.00,60.80,55.40,82.38,70.00,5.00,0.00,29.85,null,6.00,null,SCT,null,null,null,700.00,null,null,null,BR,null,null,null,null,null,null,60.80,KSBA 130749Z AUTO 07005KT 6SM BR SCT007 16/13 A2985 RMK AO2 $,null
SBA,2025-06-13 00:53,-119.8436,34.4261,3.00,59.00,56.00,89.77,60.00,5.00,0.00,29.85,1010.80,6.00,null,BKN,null,null,null,700.00,null,null,null,BR,null,null,null,null,null,null,59.00,KSBA 130753Z AUTO 06005KT 6SM BR BKN007 15/13 A2985 RMK AO2 SLP108 T01500133 402000117 $,null
SBA,2025-06-13 01:53,-119.8436,34.4261,3.00,60.00,57.00,89.81,80.00,6.00,0.00,29.85,1010.70,6.00,null,OVC,null,null,null,700.00,null,null,null,BR,null,null,null,null,null,null,60.00,KSBA 130853Z AUTO 08006KT 6SM BR OVC007 16/14 A2985 RMK AO2 SLP107 T01560139 56002 $,null
SBA,2025-06-13 02:53,-119.8436,34.4261,3.00,60.00,57.00,89.81,90.00,6.00,0.00,29.84,1010.50,6.00,null,OVC,null,null,null,800.00,null,null,null,BR,null,null,null,null,null,null,60.00,KSBA 130953Z AUTO 09006KT 6SM BR OVC008 16/14 A2984 RMK AO2 SLP105 T01560139 $,null
SBA,2025-06-13 03:29,-119.8436,34.4261,3.00,61.00,57.00,86.68,60.00,5.00,0.00,29.84,null,7.00,null,OVC,null,null,null,1000.00,null,null,null,null,null,null,null,null,null,null,61.00,KSBA 131029Z AUTO 06005KT 7SM OVC010 16/14 A2984 RMK AO2 CIG 008V013 T01610139 $,null
SBA,2025-06-13 03:53,-119.8436,34.4261,3.00,60.00,56.00,86.62,60.00,4.00,0.00,29.84,1010.40,7.00,null,OVC,null,null,null,1000.00,null,null,null,null,null,null,null,null,null,null,60.00,KSBA 131053Z AUTO 06004KT 7SM OVC010 16/13 A2984 RMK AO2 SLP104 T01560133 $,null
SBA,2025-06-13 04:53,-119.8436,34.4261,3.00,60.00,56.00,86.62,40.00,4.00,0.00,29.85,1010.70,7.00,null,OVC,null,null,null,1000.00,null,null,null,null,null,null,null,null,null,null,60.00,KSBA 131153Z AUTO 04004KT 7SM OVC010 16/13 A2985 RMK AO2 SLP107 T01560133 10161 20150 55000 $,null
SBA,2025-06-13 05:53,-119.8436,34.4261,3.00,60.00,56.00,86.62,40.00,5.00,0.00,29.86,1011.00,7.00,null,OVC,null,null,null,900.00,null,null,null,null,null,null,null,null,null,null,60.00,KSBA 131253Z 04005KT 7SM OVC009 16/13 A2986 RMK AO2 SLP110 T01560133 $,null
SBA,2025-06-13 06:53,-119.8436,34.4261,3.00,60.00,56.00,86.62,50.00,5.00,0.00,29.87,1011.40,6.00,null,OVC,null,null,null,900.00,null,null,null,BR,null,null,null,null,null,null,60.00,KSBA 131353Z 05005KT 6SM BR OVC009 16/13 A2987 RMK AO2 SLP114 T01560133 $,null
SBA,2025-06-13 07:53,-119.8436,34.4261,3.00,60.00,56.00,86.62,50.00,5.00,0.00,29.88,1011.60,6.00,null,OVC,null,null,null,900.00,null,null,null,BR,null,null,null,null,null,null,60.00,KSBA 131453Z 05005KT 6SM BR OVC009 16/13 A2988 RMK AO2 SLP116 T01560133 51009 $,null
SBA,2025-06-13 08:53,-119.8436,34.4261,3.00,61.00,57.00,86.68,140.00,3.00,0.00,29.90,1012.40,5.00,null,OVC,null,null,null,900.00,null,null,null,BR,null,null,null,null,null,null,61.00,KSBA 131553Z 14003KT 5SM BR OVC009 16/14 A2990 RMK AO2 SLP124 T01610139 $,null
SBA,2025-06-13 09:53,-119.8436,34.4261,3.00,62.00,56.00,80.70,150.00,3.00,0.00,29.90,1012.40,5.00,null,OVC,null,null,null,900.00,null,null,null,BR,null,null,null,null,null,null,62.00,KSBA 131653Z 15003KT 5SM BR OVC009 17/13 A2990 RMK AO2 SLP124 T01670133 $,null
SBA,2025-06-13 10:53,-119.8436,34.4261,3.00,63.00,56.00,77.91,180.00,7.00,0.00,29.90,1012.50,5.00,null,OVC,null,null,null,900.00,null,null,null,BR,null,null,null,null,null,null,63.00,KSBA 131753Z 18007KT 5SM BR OVC009 17/13 A2990 RMK AO2 SLP125 T01720133 10178 20156 51009 $,null
SBA,2025-06-13 11:53,-119.8436,34.4261,3.00,63.00,57.00,80.77,210.00,6.00,0.00,29.90,1012.50,7.00,null,BKN,OVC,null,null,600.00,900.00,null,null,BR,null,null,null,null,null,null,63.00,KSBA 131853Z 21006KT 7SM BR BKN006 OVC009 17/14 A2990 RMK AO2 SLP125 T01720139 $,null
SBA,2025-06-13 12:53,-119.8436,34.4261,3.00,65.00,57.00,75.32,220.00,8.00,0.00,29.89,1012.10,8.00,null,BKN,OVC,null,null,600.00,900.00,null,null,BR,null,null,null,null,null,null,65.00,KSBA 131953Z 22008KT 8SM BR BKN006 OVC009 18/14 A2989 RMK AO2 SLP121 T01830139 $,null
SBA,2025-06-13 13:53,-119.8436,34.4261,3.00,67.00,57.00,70.27,210.00,8.00,0.00,29.88,1011.90,10.00,null,BKN,OVC,null,null,900.00,1300.00,null,null,BR,null,null,null,null,null,null,67.00,KSBA 132053Z 21008KT 10SM BR BKN009 OVC013 19/14 A2988 RMK AO2 SLP119 T01940139 58006 $,null
SBA,2025-06-13 14:32,-119.8436,34.4261,3.00,66.00,57.00,72.74,220.00,8.00,0.00,29.88,null,9.00,null,BKN,null,null,null,1600.00,null,null,null,null,null,null,null,null,null,null,66.00,KSBA 132132Z 22008KT 9SM BKN016 19/14 A2988 RMK AO2 T01890139 $,null
SBA,2025-06-13 14:53,-119.8436,34.4261,3.00,66.00,57.00,72.74,230.00,9.00,0.00,29.87,1011.60,8.00,16.00,BKN,null,null,null,1600.00,null,null,null,null,null,null,null,null,null,null,66.00,KSBA 132153Z 23009G16KT 8SM BKN016 19/14 A2987 RMK AO2 SLP116 T01890139 $,null
SBA,2025-06-13 15:53,-119.8436,34.4261,3.00,66.00,57.00,72.74,210.00,9.00,0.00,29.86,1011.10,8.00,null,SCT,null,null,null,1700.00,null,null,null,null,null,null,null,null,null,null,66.00,KSBA 132253Z 21009KT 8SM SCT017 19/14 A2986 RMK AO2 SLP111 T01890139 $,null
SBA,2025-06-13 16:53,-119.8436,34.4261,3.00,65.00,56.00,72.64,190.00,6.00,0.00,29.86,1011.00,8.00,null,CLR,null,null,null,null,null,null,null,null,null,null,null,null,null,null,65.00,KSBA 132353Z 19006KT 8SM CLR 18/13 A2986 RMK AO2 SLP110 T01830133 10200 20172 56009 $,null
SBA,2025-06-13 17:53,-119.8436,34.4261,3.00,64.00,56.00,75.22,170.00,6.00,0.00,29.85,1010.60,7.00,null,CLR,null,null,null,null,null,null,null,null,null,null,null,null,null,null,64.00,KSBA 140053Z 17006KT 7SM CLR 18/13 A2985 RMK AO2 SLP106 T01780133 $,null
SBA,2025-06-13 18:53,-119.8436,34.4261,3.00,63.00,56.00,77.91,140.00,6.00,0.00,29.84,1010.30,7.00,null,CLR,null,null,null,null,null,null,null,null,null,null,null,null,null,null,63.00,KSBA 140153Z 14006KT 7SM CLR 17/13 A2984 RMK AO2 SLP103 T01720133 $,null
SBA,2025-06-13 19:53,-119.8436,34.4261,3.00,62.00,57.00,83.67,120.00,6.00,0.00,29.84,1010.50,7.00,null,CLR,null,null,null,null,null,null,null,null,null,null,null,null,null,null,62.00,KSBA 140253Z 12006KT 7SM CLR 17/14 A2984 RMK AO2 SLP105 T01670139 55005 $,null
SBA,2025-06-13 20:53,-119.8436,34.4261,3.00,61.00,57.00,86.68,120.00,6.00,0.00,29.85,1010.60,7.00,null,CLR,null,null,null,null,null,null,null,null,null,null,null,null,null,null,61.00,KSBA 140353Z 12006KT 7SM CLR 16/14 A2985 RMK AO2 SLP106 T01610139 $,null
SBA,2025-06-13 21:12,-119.8436,34.4261,3.00,61.00,58.00,89.85,100.00,6.00,0.00,29.85,null,7.00,null,SCT,null,null,null,800.00,null,null,null,null,null,null,null,null,null,null,61.00,KSBA 140412Z 10006KT 7SM SCT008 16/14 A2985 RMK AO2 T01610144 $,null
SBA,2025-06-13 21:53,-119.8436,34.4261,3.00,60.00,57.00,89.81,90.00,4.00,0.00,29.86,1011.00,7.00,null,BKN,null,null,null,800.00,null,null,null,null,null,null,null,null,null,null,60.00,KSBA 140453Z 09004KT 7SM BKN008 16/14 A2986 RMK AO2 SLP110 T01560139 $,null
SBA,2025-06-13 22:53,-119.8436,34.4261,3.00,60.00,57.00,89.81,90.00,5.00,0.00,29.87,1011.50,6.00,null,OVC,null,null,null,600.00,null,null,null,BR,null,null,null,null,null,null,60.00,KSBA 140553Z 09005KT 6SM BR OVC006 16/14 A2987 RMK AO2 SLP115 T01560139 10189 20156 53011 $,null
SBA,2025-06-13 23:53,-119.8436,34.4261,3.00,60.00,57.00,89.81,110.00,5.00,0.00,29.87,1011.50,6.00,null,OVC,null,null,null,500.00,null,null,null,BR,null,null,null,null,null,null,60.00,KSBA 140653Z AUTO 11005KT 6SM BR OVC005 16/14 A2987 RMK AO2 SLP115 T01560139 $,null
SBA,2025-06-14 00:53,-119.8436,34.4261,3.00,60.00,58.00,93.10,80.00,4.00,0.00,29.87,1011.50,5.00,null,OVC,null,null,null,500.00,null,null,null,BR,null,null,null,null,null,null,60.00,KSBA 140753Z AUTO 08004KT 5SM BR OVC005 16/14 A2987 RMK AO2 SLP115 T01560144 402000150 $,null
SBA,2025-06-14 01:53,-119.8436,34.4261,3.00,59.00,57.00,93.07,120.00,4.00,0.00,29.87,1011.40,5.00,null,OVC,null,null,null,500.00,null,null,null,BR,null,null,null,null,null,null,59.00,KSBA 140853Z AUTO 12004KT 5SM BR OVC005 15/14 A2987 RMK AO2 SLP114 T01500139 58002 $,null
SBA,2025-06-14 02:53,-119.8436,34.4261,3.00,59.00,57.00,93.07,0.00,0.00,0.00,29.85,1010.90,6.00,null,OVC,null,null,null,600.00,null,null,null,BR,null,null,null,null,null,null,59.00,KSBA 140953Z AUTO 00000KT 6SM BR OVC006 15/14 A2985 RMK AO2 SLP109 T01500139 $,null
SBA,2025-06-14 03:53,-119.8436,34.4261,3.00,58.00,56.00,93.04,50.00,8.00,0.00,29.86,1011.00,6.00,null,OVC,null,null,null,600.00,null,null,null,BR,null,null,null,null,null,null,58.00,KSBA 141053Z AUTO 05008KT 6SM BR OVC006 14/13 A2986 RMK AO2 SLP110 T01440133 $,null
SBA,2025-06-14 04:53,-119.8436,34.4261,3.00,58.00,56.00,93.04,20.00,5.00,0.00,29.87,1011.50,6.00,null,OVC,null,null,null,700.00,null,null,null,BR,null,null,null,null,null,null,58.00,KSBA 141153Z AUTO 02005KT 6SM BR OVC007 14/13 A2987 RMK AO2 SLP115 T01440133 10156 20144 53001 $,null
SBA,2025-06-14 05:53,-119.8436,34.4261,3.00,59.00,56.00,89.77,30.00,6.00,0.00,29.89,1012.10,7.00,null,OVC,null,null,null,700.00,null,null,null,null,null,null,null,null,null,null,59.00,KSBA 141253Z 03006KT 7SM OVC007 15/13 A2989 RMK AO2 SLP121 T01500133 $,null
SBA,2025-06-14 06:53,-119.8436,34.4261,3.00,59.00,57.00,93.07,40.00,5.00,0.00,29.91,1012.90,5.00,null,OVC,null,null,null,700.00,null,null,null,BR,null,null,null,null,null,null,59.00,KSBA 141353Z 04005KT 5SM BR OVC007 15/14 A2991 RMK AO2 SLP129 T01500139 $,null
SBA,2025-06-14 07:53,-119.8436,34.4261,3.00,60.00,57.00,89.81,50.00,6.00,0.00,29.93,1013.60,6.00,null,OVC,null,null,null,600.00,null,null,null,BR,null,null,null,null,null,null,60.00,KSBA 141453Z 05006KT 6SM BR OVC006 16/14 A2993 RMK AO2 SLP136 T01560139 53021 $,null
SBA,2025-06-14 08:53,-119.8436,34.4261,3.00,61.00,57.00,86.68,150.00,4.00,0.00,29.94,1013.90,5.00,null,OVC,null,null,null,700.00,null,null,null,BR,null,null,null,null,null,null,61.00,KSBA 141553Z 15004KT 5SM BR OVC007 16/14 A2994 RMK AO2 SLP139 T01610139 $,null
SBA,2025-06-14 09:53,-119.8436,34.4261,3.00,61.00,57.00,86.68,110.00,4.00,0.00,29.96,1014.30,7.00,null,OVC,null,null,null,700.00,null,null,null,null,null,null,null,null,null,null,61.00,KSBA 141653Z 11004KT 7SM OVC007 16/14 A2996 RMK AO2 SLP143 T01610139 $,null
SBA,2025-06-14 10:53,-119.8436,34.4261,3.00,63.00,58.00,83.73,150.00,3.00,0.00,29.95,1014.30,10.00,null,OVC,null,null,null,900.00,null,null,null,null,null,null,null,null,null,null,63.00,KSBA 141753Z 15003KT 10SM OVC009 17/14 A2995 RMK AO2 SLP143 T01720144 10172 20144 50006 $,null
SBA,2025-06-14 11:53,-119.8436,34.4261,3.00,64.00,58.00,80.85,160.00,4.00,0.00,29.96,1014.50,10.00,null,OVC,null,null,null,900.00,null,null,null,null,null,null,null,null,null,null,64.00,KSBA 141853Z 16004KT 10SM OVC009 18/14 A2996 RMK AO2 SLP145 T01780144 $,null
SBA,2025-06-14 12:53,-119.8436,34.4261,3.00,66.00,59.00,78.16,190.00,6.00,0.00,29.96,1014.50,10.00,null,BKN,null,null,null,1100.00,null,null,null,null,null,null,null,null,null,null,66.00,KSBA 141953Z 19006KT 10SM BKN011 19/15 A2996 RMK AO2 SLP145 T01890150 $,null
SBA,2025-06-14 13:53,-119.8436,34.4261,3.00,67.00,59.00,75.50,210.00,9.00,0.00,29.95,1014.20,9.00,null,OVC,null,null,null,1200.00,null,null,null,null,null,null,null,null,null,null,67.00,KSBA 142053Z 21009KT 9SM OVC012 19/15 A2995 RMK AO2 SLP142 T01940150 58001 $,null
SBA,2025-06-14 14:23,-119.8436,34.4261,3.00,67.00,59.00,75.50,240.00,9.00,0.00,29.94,null,10.00,null,SCT,null,null,null,1200.00,null,null,null,null,null,null,null,null,null,null,67.00,KSBA 142123Z 24009KT 10SM SCT012 19/15 A2994 RMK AO2 T01940150 $,null
SBA,2025-06-14 14:53,-119.8436,34.4261,3.00,68.00,59.00,72.95,240.00,10.00,0.00,29.93,1013.30,10.00,null,CLR,null,null,null,null,null,null,null,null,null,null,null,null,null,null,68.00,KSBA 142153Z 24010KT 10SM CLR 20/15 A2993 RMK AO2 SLP133 T02000150 $,null
SBA,2025-06-14 15:53,-119.8436,34.4261,3.00,67.00,58.00,72.85,260.00,8.00,0.00,29.91,1013.00,9.00,null,FEW,null,null,null,600.00,null,null,null,null,null,null,null,null,null,null,67.00,KSBA 142253Z 26008KT 9SM FEW006 19/14 A2991 RMK AO2 SLP130 CLOUDS ALONG SHORELINE T01940144 $,null
SBA,2025-06-14 16:53,-119.8436,34.4261,3.00,66.00,57.00,72.74,230.00,5.00,0.00,29.90,1012.30,8.00,null,FEW,null,null,null,12000.00,null,null,null,null,null,null,null,null,null,null,66.00,KSBA 142353Z 23005KT 8SM FEW120 19/14 A2990 RMK AO2 SLP123 T01890139 10206 20167 56019 $,null
SBA,2025-06-14 17:53,-119.8436,34.4261,3.00,64.00,56.00,75.22,150.00,5.00,0.00,29.87,1011.60,7.00,null,CLR,null,null,null,null,null,null,null,null,null,null,null,null,null,null,64.00,KSBA 150053Z 15005KT 7SM CLR 18/13 A2987 RMK AO2 SLP116 T01780133 $,null
SBA,2025-06-14 18:53,-119.8436,34.4261,3.00,63.00,56.00,77.91,150.00,6.00,0.00,29.86,1011.20,7.00,null,CLR,null,null,null,null,null,null,null,null,null,null,null,null,null,null,63.00,KSBA 150153Z 15006KT 7SM CLR 17/13 A2986 RMK AO2 SLP112 T01720133 $,null
SBA,2025-06-14 19:53,-119.8436,34.4261,3.00,61.00,56.00,83.60,130.00,4.00,0.00,29.86,1011.20,7.00,null,CLR,null,null,null,null,null,null,null,null,null,null,null,null,null,null,61.00,KSBA 150253Z 13004KT 7SM CLR 16/13 A2986 RMK AO2 SLP112 T01610133 55011 $,null
SBA,2025-06-14 20:53,-119.8436,34.4261,3.00,61.00,57.00,86.68,130.00,3.00,0.00,29.86,1011.20,7.00,null,CLR,null,null,null,null,null,null,null,null,null,null,null,null,null,null,61.00,KSBA 150353Z 13003KT 7SM CLR 16/14 A2986 RMK AO2 SLP112 T01610139 $,null
SBA,2025-06-14 21:53,-119.8436,34.4261,3.00,61.00,58.00,89.85,0.00,0.00,0.00,29.88,1011.90,7.00,null,CLR,null,null,null,null,null,null,null,null,null,null,null,null,null,null,61.00,KSBA 150453Z 00000KT 7SM CLR 16/14 A2988 RMK AO2 SLP119 T01610144 $,null
SBA,2025-06-14 22:53,-119.8436,34.4261,3.00,60.00,56.00,86.62,0.00,0.00,0.00,29.87,1011.50,7.00,null,CLR,null,null,null,null,null,null,null,null,null,null,null,null,null,null,60.00,KSBA 150553Z AUTO 00000KT 7SM CLR 16/13 A2987 RMK AO2 SLP115 T01560133 10194 20150 50003 $,null
SBA,2025-06-14 23:53,-119.8436,34.4261,3.00,58.00,55.00,89.73,20.00,4.00,0.00,29.87,1011.40,8.00,null,CLR,null,null,null,null,null,null,null,null,null,null,null,null,null,null,58.00,KSBA 150653Z AUTO 02004KT 8SM CLR 14/13 A2987 RMK AO2 SLP114 T01440128 $,null
SBA,2025-06-15 00:53,-119.8436,34.4261,3.00,56.00,54.00,92.98,0.00,0.00,0.00,29.86,1011.20,8.00,null,CLR,null,null,null,null,null,null,null,null,null,null,null,null,null,null,56.00,KSBA 150753Z AUTO 00000KT 8SM CLR 13/12 A2986 RMK AO2 SLP112 T01330122 402060133 $,null
SBA,2025-06-15 01:53,-119.8436,34.4261,3.00,56.00,54.00,92.98,0.00,0.00,0.00,29.85,1010.70,7.00,null,CLR,null,null,null,null,null,null,null,null,null,null,null,null,null,null,56.00,KSBA 150853Z AUTO 00000KT 7SM CLR 13/12 A2985 RMK AO2 SLP107 T01330122 58008 $,null
SBA,2025-06-15 02:53,-119.8436,34.4261,3.00,54.00,52.00,92.92,0.00,0.00,0.00,29.85,1010.80,8.00,null,CLR,null,null,null,null,null,null,null,null,null,null,null,null,null,null,54.00,KSBA 150953Z AUTO 00000KT 8SM CLR 12/11 A2985 RMK AO2 SLP108 T01220111 $,null
SBA,2025-06-15 03:53,-119.8436,34.4261,3.00,55.00,54.00,96.42,0.00,0.00,0.00,29.85,1010.80,8.00,null,CLR,null,null,null,null,null,null,null,null,null,null,null,null,null,null,55.00,KSBA 151053Z AUTO 00000KT 8SM CLR 13/12 A2985 RMK AO2 SLP108 T01280122 $,null
SBA,2025-06-15 04:53,-119.8436,34.4261,3.00,55.00,54.00,96.42,0.00,0.00,0.00,29.87,1011.40,9.00,null,CLR,null,null,null,null,null,null,null,null,null,null,null,null,null,null,55.00,KSBA 151153Z AUTO 00000KT 9SM CLR 13/12 A2987 RMK AO2 SLP114 T01280122 10156 20111 53007 $,null
SBA,2025-06-15 05:53,-119.8436,34.4261,3.00,53.00,52.00,96.39,0.00,0.00,0.00,29.88,1011.70,6.00,null,CLR,null,null,null,null,null,null,null,BR,null,null,null,null,null,null,53.00,KSBA 151253Z 00000KT 6SM BR CLR 12/11 A2988 RMK AO2 SLP117 T01170111 $,null
SBA,2025-06-15 06:53,-119.8436,34.4261,3.00,60.00,58.00,93.10,70.00,6.00,0.00,29.91,1012.60,6.00,null,CLR,null,null,null,null,null,null,null,BR,null,null,null,null,null,null,60.00,KSBA 151353Z 07006KT 6SM BR CLR 16/14 A2991 RMK AO2 SLP126 T01560144 $,null
SBA,2025-06-15 07:53,-119.8436,34.4261,3.00,65.00,57.00,75.32,70.00,4.00,0.00,29.91,1012.90,7.00,null,CLR,null,null,null,null,null,null,null,null,null,null,null,null,null,null,65.00,KSBA 151453Z 07004KT 7SM CLR 18/14 A2991 RMK AO2 SLP129 T01830139 52015 $,null
SBA,2025-06-15 08:53,-119.8436,34.4261,3.00,66.00,58.00,75.41,130.00,10.00,0.00,29.93,1013.40,7.00,null,CLR,null,null,null,null,null,null,null,null,null,null,null,null,null,null,66.00,KSBA 151553Z 13010KT 7SM CLR 19/14 A2993 RMK AO2 SLP134 T01890144 $,null
SBA,2025-06-15 09:53,-119.8436,34.4261,3.00,66.00,57.00,72.74,140.00,10.00,0.00,29.93,1013.60,7.00,null,CLR,null,null,null,null,null,null,null,null,null,null,null,null,null,null,66.00,KSBA 151653Z 14010KT 7SM CLR 19/14 A2993 RMK AO2 SLP136 T01890139 $,null
SBA,2025-06-15 10:53,-119.8436,34.4261,3.00,67.00,59.00,75.50,150.00,7.00,0.00,29.93,1013.50,7.00,null,CLR,null,null,null,null,null,null,null,null,null,null,null,null,null,null,67.00,KSBA 151753Z 15007KT 7SM CLR 19/15 A2993 RMK AO2 SLP135 T01940150 10200 20117 50006 $,null
SBA,2025-06-15 11:53,-119.8436,34.4261,3.00,71.00,57.00,61.28,190.00,4.00,0.00,29.92,1013.20,9.00,null,CLR,null,null,null,null,null,null,null,null,null,null,null,null,null,null,71.00,KSBA 151853Z 19004KT 9SM CLR 22/14 A2992 RMK AO2 SLP132 T02170139 $,null
SBA,2025-06-15 12:53,-119.8436,34.4261,3.00,74.00,57.00,55.39,250.00,6.00,0.00,29.90,1012.50,10.00,null,CLR,null,null,null,null,null,null,null,null,null,null,null,null,null,null,74.00,KSBA 151953Z 25006KT 10SM CLR 23/14 A2990 RMK AO2 SLP125 T02330139 $,null
SBA,2025-06-15 13:53,-119.8436,34.4261,3.00,73.00,54.00,51.37,250.00,7.00,0.00,29.90,1012.50,10.00,null,CLR,null,null,null,null,null,null,null,null,null,null,null,null,null,null,73.00,KSBA 152053Z 25007KT 210V280 10SM CLR 23/12 A2990 RMK AO2 SLP125 T02280122 55009 $,null
SBA,2025-06-15 14:53,-119.8436,34.4261,3.00,70.00,57.00,63.40,160.00,9.00,0.00,29.87,1011.50,8.00,null,CLR,null,null,null,null,null,null,null,null,null,null,null,null,null,null,70.00,KSBA 152153Z 16009KT 8SM CLR 21/14 A2987 RMK AO2 SLP115 T02110139 $,null
SBA,2025-06-15 15:53,-119.8436,34.4261,3.00,72.00,55.00,55.10,null,3.00,0.00,29.85,1010.80,9.00,null,CLR,null,null,null,null,null,null,null,null,null,null,null,null,null,null,72.00,KSBA 152253Z VRB03KT 9SM CLR 22/13 A2985 RMK AO2 SLP108 T02220128 $,null
SBA,2025-06-15 16:53,-119.8436,34.4261,3.00,70.00,54.00,56.86,150.00,7.00,0.00,29.82,1009.90,9.00,null,CLR,null,null,null,null,null,null,null,null,null,null,null,null,null,null,70.00,KSBA 152353Z 15007KT 9SM CLR 21/12 A2982 RMK AO2 SLP099 T02110122 10250 20194 56026 $,null
SBA,2025-06-15 17:53,-119.8436,34.4261,3.00,69.00,58.00,68.01,140.00,9.00,0.00,29.81,1009.40,8.00,null,CLR,null,null,null,null,null,null,null,null,null,null,null,null,null,null,69.00,KSBA 160053Z 14009KT 8SM CLR 21/14 A2981 RMK AO2 SLP094 T02060144 $,null
SBA,2025-06-15 18:53,-119.8436,34.4261,3.00,69.00,58.00,68.01,140.00,9.00,0.00,29.80,1009.00,8.00,null,CLR,null,null,null,null,null,null,null,null,null,null,null,null,null,null,69.00,KSBA 160153Z 14009KT 8SM CLR 21/14 A2980 RMK AO2 SLP090 T02060144 $,null
SBA,2025-06-15 19:53,-119.8436,34.4261,3.00,67.00,59.00,75.50,140.00,8.00,0.00,29.81,1009.40,7.00,null,CLR,null,null,null,null,null,null,null,null,null,null,null,null,null,null,67.00,KSBA 160253Z 14008KT 7SM CLR 19/15 A2981 RMK AO2 SLP094 T01940150 55005 $,null
SBA,2025-06-15 20:53,-119.8436,34.4261,3.00,66.00,58.00,75.41,0.00,0.00,0.00,29.83,1009.90,7.00,null,CLR,null,null,null,null,null,null,null,null,null,null,null,null,null,null,66.00,KSBA 160353Z 00000KT 7SM CLR 19/14 A2983 RMK AO2 SLP099 T01890144 $,null
SBA,2025-06-15 21:53,-119.8436,34.4261,3.00,65.00,58.00,78.08,150.00,4.00,0.00,29.85,1010.60,7.00,null,CLR,null,null,null,null,null,null,null,null,null,null,null,null,null,null,65.00,KSBA 160453Z 15004KT 7SM CLR 18/14 A2985 RMK AO2 SLP106 T01830144 $,null
SBA,2025-06-15 22:53,-119.8436,34.4261,3.00,63.00,57.00,80.77,270.00,3.00,0.00,29.86,1011.20,8.00,null,CLR,null,null,null,null,null,null,null,null,null,null,null,null,null,null,63.00,KSBA 160553Z AUTO 27003KT 8SM CLR 17/14 A2986 RMK AO2 SLP112 T01720139 10217 20167 53019 $,null
SBA,2025-06-15 23:53,-119.8436,34.4261,3.00,63.00,56.00,77.91,130.00,5.00,0.00,29.87,1011.40,8.00,null,CLR,null,null,null,null,null,null,null,null,null,null,null,null,null,null,63.00,KSBA 160653Z AUTO 13005KT 8SM CLR 17/13 A2987 RMK AO2 SLP114 T01720133 $,null
SBA,2025-06-16 00:53,-119.8436,34.4261,3.00,60.00,55.00,83.54,0.00,0.00,0.00,29.87,1011.30,8.00,null,CLR,null,null,null,null,null,null,null,null,null,null,null,null,null,null,60.00,KSBA 160753Z AUTO 00000KT 8SM CLR 16/13 A2987 RMK AO2 SLP113 T01560128 402500111 $,null
SBA,2025-06-16 01:53,-119.8436,34.4261,3.00,59.00,55.00,86.57,0.00,0.00,0.00,29.86,1011.00,8.00,null,CLR,null,null,null,null,null,null,null,null,null,null,null,null,null,null,59.00,KSBA 160853Z AUTO 00000KT 8SM CLR 15/13 A2986 RMK AO2 SLP110 T01500128 58002 $,null
SBA,2025-06-16 02:53,-119.8436,34.4261,3.00,57.00,54.00,89.68,0.00,0.00,0.00,29.86,1011.00,8.00,null,CLR,null,null,null,null,null,null,null,null,null,null,null,null,null,null,57.00,KSBA 160953Z AUTO 00000KT 8SM CLR 14/12 A2986 RMK AO2 SLP110 T01390122 $,null
SBA,2025-06-16 03:53,-119.8436,34.4261,3.00,57.00,54.00,89.68,0.00,0.00,0.00,29.87,1011.30,8.00,null,CLR,null,null,null,null,null,null,null,null,null,null,null,null,null,null,57.00,KSBA 161053Z AUTO 00000KT 8SM CLR 14/12 A2987 RMK AO2 SLP113 T01390122 $,null
SBA,2025-06-16 04:53,-119.8436,34.4261,3.00,56.00,53.00,89.64,30.00,3.00,0.00,29.87,1011.60,7.00,null,CLR,null,null,null,null,null,null,null,null,null,null,null,null,null,null,56.00,KSBA 161153Z AUTO 03003KT 7SM CLR 13/12 A2987 RMK AO2 SLP116 T01330117 10178 20133 53006 $,null
SBA,2025-06-16 05:53,-119.8436,34.4261,3.00,54.00,52.00,92.92,0.00,0.00,0.00,29.88,1011.90,6.00,null,CLR,null,null,null,null,null,null,null,BR,null,null,null,null,null,null,54.00,KSBA 161253Z 00000KT 6SM BR CLR 12/11 A2988 RMK AO2 SLP119 T01220111 $,null
SBA,2025-06-16 06:53,-119.8436,34.4261,3.00,57.00,54.00,89.68,290.00,5.00,0.00,29.91,1012.70,7.00,null,CLR,null,null,null,null,null,null,null,null,null,null,null,null,null,null,57.00,KSBA 161353Z 29005KT 7SM CLR 14/12 A2991 RMK AO2 SLP127 T01390122 $,null
SBA,2025-06-16 07:53,-119.8436,34.4261,3.00,65.00,56.00,72.64,0.00,0.00,0.00,29.90,1012.50,7.00,null,CLR,null,null,null,null,null,null,null,null,null,null,null,null,null,null,65.00,KSBA 161453Z 00000KT 7SM CLR 18/13 A2990 RMK AO2 SLP125 T01830133 50009,null
SBA,2025-06-16 08:53,-119.8436,34.4261,3.00,67.00,57.00,70.27,200.00,5.00,0.00,29.92,1013.00,10.00,null,CLR,null,null,null,null,null,null,null,null,null,null,null,null,null,null,67.00,KSBA 161553Z 20005KT 10SM CLR 19/14 A2992 RMK AO2 SLP130 T01940139,null
SBA,2025-06-16 09:53,-119.8436,34.4261,3.00,67.00,58.00,72.85,150.00,6.00,0.00,29.92,1013.20,8.00,null,CLR,null,null,null,null,null,null,null,null,null,null,null,null,null,null,67.00,KSBA 161653Z 15006KT 8SM CLR 19/14 A2992 RMK AO2 SLP132 T01940144,null
SBA,2025-06-16 10:53,-119.8436,34.4261,3.00,68.00,57.00,67.89,150.00,6.00,0.00,29.91,1013.00,7.00,null,CLR,null,null,null,null,null,null,null,null,null,null,null,null,null,null,68.00,KSBA 161753Z 15006KT 7SM CLR 20/14 A2991 RMK AO2 SLP130 T02000139 10206 20122 50005,null
SBA,2025-06-16 11:53,-119.8436,34.4261,3.00,69.00,57.00,65.60,190.00,5.00,0.00,29.92,1013.20,6.00,null,CLR,null,null,null,null,null,null,null,HZ,null,null,null,null,null,null,69.00,KSBA 161853Z 19005KT 6SM HZ CLR 21/14 A2992 RMK AO2 SLP132 T02060139,null
SBA,2025-06-16 12:53,-119.8436,34.4261,3.00,72.00,58.00,61.41,200.00,6.00,0.00,29.90,1012.60,6.00,null,CLR,null,null,null,null,null,null,null,HZ,null,null,null,null,null,null,72.00,KSBA 161953Z 20006KT 6SM HZ CLR 22/14 A2990 RMK AO2 SLP126 T02220144,null
SBA,2025-06-16 13:53,-119.8436,34.4261,3.00,70.00,58.00,65.72,160.00,8.00,0.00,29.90,1012.30,6.00,null,CLR,null,null,null,null,null,null,null,HZ,null,null,null,null,null,null,70.00,KSBA 162053Z 16008KT 6SM HZ CLR 21/14 A2990 RMK AO2 SLP123 T02110144 58006 $,null
SBA,2025-06-16 14:53,-119.8436,34.4261,3.00,69.00,57.00,65.60,140.00,9.00,0.00,29.87,1011.60,8.00,null,CLR,null,null,null,null,null,null,null,HZ,null,null,null,null,null,null,69.00,KSBA 162153Z 14009KT 8SM HZ CLR 21/14 A2987 RMK AO2 SLP116 T02060139 $,null
SBA,2025-06-16 15:53,-119.8436,34.4261,3.00,69.00,57.00,65.60,140.00,8.00,0.00,29.86,1011.10,6.00,null,CLR,null,null,null,null,null,null,null,HZ,null,null,null,null,null,null,69.00,KSBA 162253Z 14008KT 6SM HZ CLR 21/14 A2986 RMK AO2 SLP111 T02060139 $,null
SBA,2025-06-16 16:53,-119.8436,34.4261,3.00,71.00,56.00,59.11,150.00,6.00,0.00,29.84,1010.40,9.00,null,CLR,null,null,null,null,null,null,null,null,null,null,null,null,null,null,71.00,KSBA 162353Z 15006KT 9SM CLR 22/13 A2984 RMK AO2 SLP104 T02170133 10233 20200 56019 $,null
SBA,2025-06-16 17:53,-119.8436,34.4261,3.00,69.00,56.00,63.27,130.00,8.00,0.00,29.83,1010.00,8.00,null,CLR,null,null,null,null,null,null,null,HZ,null,null,null,null,null,null,69.00,KSBA 170053Z 13008KT 8SM HZ CLR 21/13 A2983 RMK AO2 SLP100 T02060133 $,null
SBA,2025-06-16 18:53,-119.8436,34.4261,3.00,69.00,58.00,68.01,130.00,7.00,0.00,29.82,1009.80,7.00,null,CLR,null,null,null,null,null,null,null,null,null,null,null,null,null,null,69.00,KSBA 170153Z 13007KT 7SM CLR 21/14 A2982 RMK AO2 SLP098 T02060144 $,null
SBA,2025-06-16 19:53,-119.8436,34.4261,3.00,66.00,58.00,75.41,120.00,5.00,0.00,29.82,1009.80,7.00,null,CLR,null,null,null,null,null,null,null,null,null,null,null,null,null,null,66.00,KSBA 170253Z 12005KT 7SM CLR 19/14 A2982 RMK AO2 SLP098 T01890144 56006 $,null
SBA,2025-06-16 20:53,-119.8436,34.4261,3.00,63.00,59.00,86.79,170.00,6.00,0.00,29.82,1009.80,7.00,null,CLR,null,null,null,null,null,null,null,null,null,null,null,null,null,null,63.00,KSBA 170353Z 17006KT 7SM CLR 17/15 A2982 RMK AO2 SLP098 T01720150 $,null
SBA,2025-06-16 21:53,-119.8436,34.4261,3.00,62.00,58.00,86.73,170.00,6.00,0.00,29.83,1010.20,7.00,null,CLR,null,null,null,null,null,null,null,null,null,null,null,null,null,null,62.00,KSBA 170453Z 17006KT 7SM CLR 17/14 A2983 RMK AO2 SLP102 T01670144 $,null
SBA,2025-06-16 22:53,-119.8436,34.4261,3.00,63.00,59.00,86.79,170.00,4.00,0.00,29.83,1010.10,6.00,null,CLR,null,null,null,null,null,null,null,BR,null,null,null,null,null,null,63.00,KSBA 170553Z 17004KT 6SM BR CLR 17/15 A2983 RMK AO2 SLP101 T01720150 10217 20167 50003 $,null
SBA,2025-06-16 23:53,-119.8436,34.4261,3.00,63.00,58.00,83.73,130.00,5.00,0.00,29.83,1010.00,6.00,null,CLR,null,null,null,null,null,null,null,HZ,null,null,null,null,null,null,63.00,KSBA 170653Z AUTO 13005KT 6SM HZ CLR 17/14 A2983 RMK AO2 SLP100 T01720144 $,null
SBA,2025-06-17 00:53,-119.8436,34.4261,3.00,62.00,55.00,77.82,100.00,4.00,0.00,29.83,1010.10,8.00,null,CLR,null,null,null,null,null,null,null,null,null,null,null,null,null,null,62.00,KSBA 170753Z AUTO 10004KT 8SM CLR 17/13 A2983 RMK AO2 SLP101 T01670128 402330122 $,null
SBA,2025-06-17 01:53,-119.8436,34.4261,3.00,60.00,55.00,83.54,0.00,0.00,0.00,29.83,1010.10,8.00,null,CLR,null,null,null,null,null,null,null,null,null,null,null,null,null,null,60.00,KSBA 170853Z AUTO 00000KT 8SM CLR 16/13 A2983 RMK AO2 SLP101 T01560128 55000 $,null
SBA,2025-06-17 02:53,-119.8436,34.4261,3.00,58.00,54.00,86.51,0.00,0.00,0.00,29.83,1010.20,8.00,null,CLR,null,null,null,null,null,null,null,null,null,null,null,null,null,null,58.00,KSBA 170953Z AUTO 00000KT 8SM CLR 14/12 A2983 RMK AO2 SLP102 T01440122 $,null
SBA,2025-06-17 03:53,-119.8436,34.4261,3.00,55.00,52.00,89.60,310.00,5.00,0.00,29.83,1010.00,8.00,null,CLR,null,null,null,null,null,null,null,null,null,null,null,null,null,null,55.00,KSBA 171053Z AUTO 31005KT 8SM CLR 13/11 A2983 RMK AO2 SLP100 T01280111 $,null
SBA,2025-06-17 04:53,-119.8436,34.4261,3.00,55.00,52.00,89.60,0.00,0.00,0.00,29.83,1010.10,8.00,null,CLR,null,null,null,null,null,null,null,null,null,null,null,null,null,null,55.00,KSBA 171153Z AUTO 00000KT 8SM CLR 13/11 A2983 RMK AO2 SLP101 T01280111 10178 20122 54000 $,null
SBA,2025-06-17 05:53,-119.8436,34.4261,3.00,55.00,52.00,89.60,0.00,0.00,0.00,29.84,1010.50,7.00,null,CLR,null,null,null,null,null,null,null,null,null,null,null,null,null,null,55.00,KSBA 171253Z AUTO 00000KT 7SM CLR 13/11 A2984 RMK AO2 SLP105 T01280111 $,null
SBA,2025-06-17 06:53,-119.8436,34.4261,3.00,57.00,53.00,86.46,0.00,0.00,0.00,29.85,1010.70,7.00,null,CLR,null,null,null,null,null,null,null,null,null,null,null,null,null,null,57.00,KSBA 171353Z AUTO 00000KT 7SM CLR 14/12 A2985 RMK AO2 SLP107 T01390117 $,null
SBA,2025-06-17 07:53,-119.8436,34.4261,3.00,65.00,56.00,72.64,0.00,0.00,0.00,29.86,1011.00,6.00,null,CLR,null,null,null,null,null,null,null,HZ,null,null,null,null,null,null,65.00,KSBA 171453Z AUTO 00000KT 6SM HZ CLR 18/13 A2986 RMK AO2 SLP110 T01830133 51008 $,null
SBA,2025-06-17 08:53,-119.8436,34.4261,3.00,67.00,59.00,75.50,180.00,5.00,0.00,29.86,1011.30,6.00,null,CLR,null,null,null,null,null,null,null,HZ,null,null,null,null,null,null,67.00,KSBA 171553Z 18005KT 6SM HZ CLR 19/15 A2986 RMK AO2 SLP113 T01940150 $,null
SBA,2025-06-17 09:53,-119.8436,34.4261,3.00,69.00,58.00,68.01,160.00,8.00,0.00,29.86,1010.90,6.00,null,CLR,null,null,null,null,null,null,null,HZ,null,null,null,null,null,null,69.00,KSBA 171653Z 16008KT 6SM HZ CLR 21/14 A2986 RMK AO2 SLP109 T02060144 $,null
SBA,2025-06-17 10:53,-119.8436,34.4261,3.00,70.00,57.00,63.40,null,6.00,0.00,29.85,1010.90,7.00,null,CLR,null,null,null,null,null,null,null,null,null,null,null,null,null,null,70.00,KSBA 171753Z VRB06KT 7SM CLR 21/14 A2985 RMK AO2 SLP109 T02110139 10211 20117 58000 $,null
SBA,2025-06-17 11:53,-119.8436,34.4261,3.00,69.00,58.00,68.01,150.00,7.00,0.00,29.84,1010.60,8.00,null,CLR,null,null,null,null,null,null,null,null,null,null,null,null,null,null,69.00,KSBA 171853Z 15007KT 8SM CLR 21/14 A2984 RMK AO2 SLP106 T02060144 $,null
SBA,2025-06-17 12:53,-119.8436,34.4261,3.00,70.00,58.00,65.72,160.00,8.00,0.00,29.83,1009.90,8.00,null,CLR,null,null,null,null,null,null,null,null,null,null,null,null,null,null,70.00,KSBA 171953Z 16008KT 8SM CLR 21/14 A2983 RMK AO2 SLP099 T02110144 $,null
SBA,2025-06-17 13:53,-119.8436,34.4261,3.00,72.00,57.00,59.24,140.00,10.00,0.00,29.81,1009.30,9.00,null,CLR,null,null,null,null,null,null,null,null,null,null,null,null,null,null,72.00,KSBA 172053Z 14010KT 9SM CLR 22/14 A2981 RMK AO2 SLP093 T02220139 58016 $,null
SBA,2025-06-17 14:53,-119.8436,34.4261,3.00,73.00,59.00,61.54,150.00,8.00,0.00,29.79,1008.60,9.00,null,CLR,null,null,null,null,null,null,null,null,null,null,null,null,null,null,73.00,KSBA 172153Z 15008KT 9SM CLR 23/15 A2979 RMK AO2 SLP086 T02280150 $,null
SBA,2025-06-17 15:53,-119.8436,34.4261,3.00,74.00,57.00,55.39,140.00,10.00,0.00,29.77,1008.00,10.00,null,CLR,null,null,null,null,null,null,null,null,null,null,null,null,null,null,74.00,KSBA 172253Z 14010KT 10SM CLR 23/14 A2977 RMK AO2 SLP080 T02330139 $,null
SBA,2025-06-17 16:53,-119.8436,34.4261,3.00,74.00,56.00,53.42,140.00,8.00,0.00,29.75,1007.40,10.00,null,CLR,null,null,null,null,null,null,null,null,null,null,null,null,null,null,74.00,KSBA 172353Z 14008KT 10SM CLR 23/13 A2975 RMK AO2 SLP074 T02330133 10244 20206 56020 $,null
SBA,2025-06-17 17:53,-119.8436,34.4261,3.00,73.00,58.00,59.38,150.00,6.00,0.00,29.74,1006.90,10.00,null,CLR,null,null,null,null,null,null,null,null,null,null,null,null,null,null,73.00,KSBA 180053Z 15006KT 10SM CLR 23/14 A2974 RMK AO2 SLP069 T02280144 $,null
SBA,2025-06-17 18:53,-119.8436,34.4261,3.00,70.00,61.00,73.15,160.00,7.00,0.00,29.73,1006.60,8.00,null,CLR,null,null,null,null,null,null,null,null,null,null,null,null,null,null,70.00,KSBA 180153Z 16007KT 8SM CLR 21/16 A2973 RMK AO2 SLP066 T02110161 $,null
SBA,2025-06-17 19:53,-119.8436,34.4261,3.00,69.00,58.00,68.01,170.00,6.00,0.00,29.73,1006.60,9.00,null,CLR,null,null,null,null,null,null,null,null,null,null,null,null,null,null,69.00,KSBA 180253Z 17006KT 9SM CLR 21/14 A2973 RMK AO2 SLP066 T02060144 55007 $,null
SBA,2025-06-17 20:53,-119.8436,34.4261,3.00,68.00,57.00,67.89,0.00,0.00,0.00,29.74,1007.00,10.00,null,CLR,null,null,null,null,null,null,null,null,null,null,null,null,null,null,68.00,KSBA 180353Z 00000KT 10SM CLR 20/14 A2974 RMK AO2 SLP070 T02000139 $,null
SBA,2025-06-17 21:53,-119.8436,34.4261,3.00,68.00,55.00,63.15,100.00,8.00,0.00,29.76,1007.80,10.00,null,CLR,null,null,null,null,null,null,null,null,null,null,null,null,null,null,68.00,KSBA 180453Z 10008KT 10SM CLR 20/13 A2976 RMK AO2 SLP078 T02000128 $,null
SBA,2025-06-17 22:53,-119.8436,34.4261,3.00,66.00,54.00,65.24,80.00,8.00,0.00,29.78,1008.50,10.00,null,CLR,null,null,null,null,null,null,null,null,null,null,null,null,null,null,66.00,KSBA 180553Z 08008KT 10SM CLR 19/12 A2978 RMK AO2 SLP085 T01890122 10239 20189 53018 $,null
SBA,2025-06-17 23:53,-119.8436,34.4261,3.00,64.00,55.00,72.54,70.00,7.00,0.00,29.78,1008.50,9.00,null,CLR,null,null,null,null,null,null,null,null,null,null,null,null,null,null,64.00,KSBA 180653Z AUTO 07007KT 9SM CLR 18/13 A2978 RMK AO2 SLP085 T01780128 $,null
SBA,2025-06-18 00:53,-119.8436,34.4261,3.00,62.00,55.00,77.82,90.00,5.00,0.00,29.79,1008.70,8.00,null,CLR,null,null,null,null,null,null,null,null,null,null,null,null,null,null,62.00,KSBA 180753Z AUTO 09005KT 8SM CLR 17/13 A2979 RMK AO2 SLP087 T01670128 402440117 $,null
SBA,2025-06-18 01:53,-119.8436,34.4261,3.00,60.00,55.00,83.54,20.00,4.00,0.00,29.79,1008.70,8.00,null,CLR,null,null,null,null,null,null,null,null,null,null,null,null,null,null,60.00,KSBA 180853Z AUTO 02004KT 8SM CLR 16/13 A2979 RMK AO2 SLP087 T01560128 53003 $,null
SBA,2025-06-18 02:53,-119.8436,34.4261,3.00,58.00,54.00,86.51,0.00,0.00,0.00,29.79,1008.80,9.00,null,CLR,null,null,null,null,null,null,null,null,null,null,null,null,null,null,58.00,KSBA 180953Z AUTO 00000KT 9SM CLR 14/12 A2979 RMK AO2 SLP088 T01440122 $,null
SBA,2025-06-18 03:53,-119.8436,34.4261,3.00,58.00,52.00,80.39,0.00,0.00,0.00,29.80,1009.00,10.00,null,CLR,null,null,null,null,null,null,null,null,null,null,null,null,null,null,58.00,KSBA 181053Z AUTO 00000KT 10SM CLR 14/11 A2980 RMK AO2 SLP090 T01440111 $,null
SBA,2025-06-18 04:53,-119.8436,34.4261,3.00,58.00,52.00,80.39,0.00,0.00,0.00,29.80,1009.20,10.00,null,CLR,null,null,null,null,null,null,null,null,null,null,null,null,null,null,58.00,KSBA 181153Z AUTO 00000KT 10SM CLR 14/11 A2980 RMK AO2 SLP092 T01440111 10189 20133 53004 $,null
SBA,2025-06-18 05:53,-119.8436,34.4261,3.00,55.00,52.00,89.60,20.00,4.00,0.00,29.81,1009.50,8.00,null,CLR,null,null,null,null,null,null,null,null,null,null,null,null,null,null,55.00,KSBA 181253Z 02004KT 8SM CLR 13/11 A2981 RMK AO2 SLP095 T01280111 $,null
SBA,2025-06-18 06:53,-119.8436,34.4261,3.00,59.00,53.00,80.47,50.00,4.00,0.00,29.82,1009.70,8.00,null,CLR,null,null,null,null,null,null,null,null,null,null,null,null,null,null,59.00,KSBA 181353Z 05004KT 8SM CLR 15/12 A2982 RMK AO2 SLP097 T01500117 $,null
SBA,2025-06-18 07:53,-119.8436,34.4261,3.00,64.00,57.00,77.99,60.00,4.00,0.00,29.83,1010.00,7.00,null,CLR,null,null,null,null,null,null,null,null,null,null,null,null,null,null,64.00,KSBA 181453Z 06004KT 7SM CLR 18/14 A2983 RMK AO2 SLP100 T01780139 51008 $,null
SBA,2025-06-18 08:53,-119.8436,34.4261,3.00,66.00,58.00,75.41,160.00,7.00,0.00,29.83,1010.20,8.00,null,CLR,null,null,null,null,null,null,null,null,null,null,null,null,null,null,66.00,KSBA 181553Z 16007KT 8SM CLR 19/14 A2983 RMK AO2 SLP102 T01890144 $,null
SBA,2025-06-18 09:53,-119.8436,34.4261,3.00,66.00,58.00,75.41,160.00,7.00,0.00,29.83,1010.10,8.00,null,CLR,null,null,null,null,null,null,null,null,null,null,null,null,null,null,66.00,KSBA 181653Z 16007KT 8SM CLR 19/14 A2983 RMK AO2 SLP101 T01890144 $,null
SBA,2025-06-18 10:53,-119.8436,34.4261,3.00,69.00,59.00,70.49,210.00,7.00,0.00,29.83,1010.20,8.00,null,CLR,null,null,null,null,null,null,null,null,null,null,null,null,null,null,69.00,KSBA 181753Z 21007KT 8SM CLR 21/15 A2983 RMK AO2 SLP102 T02060150 10206 20128 51002 $,null
SBA,2025-06-18 11:53,-119.8436,34.4261,3.00,70.00,56.00,61.15,220.00,6.00,0.00,29.83,1009.90,10.00,null,CLR,null,null,null,null,null,null,null,null,null,null,null,null,null,null,70.00,KSBA 181853Z 22006KT 10SM CLR 21/13 A2983 RMK AO2 SLP099 T02110133 $,null
SBA,2025-06-18 12:53,-119.8436,34.4261,3.00,74.00,55.00,51.52,0.00,0.00,0.00,29.81,1009.50,10.00,null,CLR,null,null,null,null,null,null,null,null,null,null,null,null,null,null,74.00,KSBA 181953Z 00000KT 10SM CLR 23/13 A2981 RMK AO2 SLP095 T02330128 $,null
SBA,2025-06-18 13:53,-119.8436,34.4261,3.00,74.00,58.00,57.42,230.00,9.00,0.00,29.80,1009.20,10.00,null,CLR,null,null,null,null,null,null,null,null,null,null,null,null,null,null,74.00,KSBA 182053Z 23009KT 10SM CLR 23/14 A2980 RMK AO2 SLP092 T02330144 58010 $,null
SBA,2025-06-18 14:53,-119.8436,34.4261,3.00,73.00,55.00,53.28,250.00,7.00,0.00,29.80,1008.90,10.00,null,CLR,null,null,null,null,null,null,null,null,null,null,null,null,null,null,73.00,KSBA 182153Z 25007KT 10SM CLR 23/13 A2980 RMK AO2 SLP089 T02280128 $,null
SBA,2025-06-18 15:53,-119.8436,34.4261,3.00,73.00,55.00,53.28,220.00,7.00,0.00,29.78,1008.50,10.00,null,CLR,null,null,null,null,null,null,null,null,null,null,null,null,null,null,73.00,KSBA 182253Z 22007KT 10SM CLR 23/13 A2978 RMK AO2 SLP085 T02280128 $,null
SBA,2025-06-18 16:53,-119.8436,34.4261,3.00,71.00,57.00,61.28,null,5.00,0.00,29.77,1007.90,10.00,null,CLR,null,null,null,null,null,null,null,null,null,null,null,null,null,null,71.00,KSBA 182353Z VRB05KT 10SM CLR 22/14 A2977 RMK AO2 SLP079 T02170139 10244 20206 58013 $,null
SBA,2025-06-18 17:53,-119.8436,34.4261,3.00,67.00,57.00,70.27,210.00,4.00,0.00,29.76,1007.70,9.00,null,CLR,null,null,null,null,null,null,null,null,null,null,null,null,null,null,67.00,KSBA 190053Z 21004KT 9SM CLR 19/14 A2976 RMK AO2 SLP077 T01940139 $,null
SBA,2025-06-18 18:53,-119.8436,34.4261,3.00,65.00,56.00,72.64,200.00,5.00,0.00,29.77,1008.00,8.00,null,CLR,null,null,null,null,null,null,null,null,null,null,null,null,null,null,65.00,KSBA 190153Z 20005KT 8SM CLR 18/13 A2977 RMK AO2 SLP080 T01830133 $,null
SBA,2025-06-18 19:53,-119.8436,34.4261,3.00,62.00,56.00,80.70,190.00,3.00,0.00,29.78,1008.40,7.00,null,CLR,null,null,null,null,null,null,null,null,null,null,null,null,null,null,62.00,KSBA 190253Z 19003KT 7SM CLR 17/13 A2978 RMK AO2 SLP084 T01670133 53005 $,null
SBA,2025-06-18 20:53,-119.8436,34.4261,3.00,60.00,56.00,86.62,140.00,6.00,0.00,29.78,1008.50,7.00,null,CLR,null,null,null,null,null,null,null,null,null,null,null,null,null,null,60.00,KSBA 190353Z 14006KT 7SM CLR 16/13 A2978 RMK AO2 SLP085 T01560133 $,null
SBA,2025-06-18 21:53,-119.8436,34.4261,3.00,59.00,55.00,86.57,130.00,4.00,0.00,29.81,1009.30,7.00,null,CLR,null,null,null,null,null,null,null,null,null,null,null,null,null,null,59.00,KSBA 190453Z 13004KT 7SM CLR 15/13 A2981 RMK AO2 SLP093 T01500128 $,null
SBA,2025-06-18 22:53,-119.8436,34.4261,3.00,59.00,56.00,89.77,110.00,5.00,0.00,29.81,1009.40,7.00,null,CLR,null,null,null,null,null,null,null,null,null,null,null,null,null,null,59.00,KSBA 190553Z AUTO 11005KT 7SM CLR 15/13 A2981 RMK AO2 SLP094 T01500133 10217 20150 51010 $,null
SBA,2025-06-18 23:40,-119.8436,34.4261,3.00,59.00,56.00,89.77,120.00,5.00,0.00,29.81,null,7.00,null,SCT,null,null,null,700.00,null,null,null,null,null,null,null,null,null,null,59.00,KSBA 190640Z AUTO 12005KT 7SM SCT007 15/13 A2981 RMK AO2 T01500133 $,null
SBA,2025-06-18 23:53,-119.8436,34.4261,3.00,59.00,56.00,89.77,110.00,5.00,0.00,29.81,1009.50,7.00,null,SCT,null,null,null,700.00,null,null,null,null,null,null,null,null,null,null,59.00,KSBA 190653Z AUTO 11005KT 7SM SCT007 15/13 A2981 RMK AO2 SLP095 T01500133 $,null
SBA,2025-06-19 00:53,-119.8436,34.4261,3.00,59.00,56.00,89.77,120.00,4.00,0.00,29.81,1009.30,7.00,null,CLR,null,null,null,null,null,null,null,null,null,null,null,null,null,null,59.00,KSBA 190753Z AUTO 12004KT 7SM CLR 15/13 A2981 RMK AO2 SLP093 T01500133 402440128 $,null
SBA,2025-06-19 01:53,-119.8436,34.4261,3.00,58.00,56.00,93.04,130.00,4.00,0.00,29.80,1009.20,6.00,null,CLR,null,null,null,null,null,null,null,BR,null,null,null,null,null,null,58.00,KSBA 190853Z AUTO 13004KT 6SM BR CLR 14/13 A2980 RMK AO2 SLP092 T01440133 58002 $,null
SBA,2025-06-19 02:53,-119.8436,34.4261,3.00,57.00,55.00,93.01,30.00,3.00,0.00,29.82,1009.60,8.00,null,CLR,null,null,null,null,null,null,null,null,null,null,null,null,null,null,57.00,KSBA 190953Z AUTO 03003KT 8SM CLR 14/13 A2982 RMK AO2 SLP096 T01390128 $,null
SBA,2025-06-19 03:53,-119.8436,34.4261,3.00,56.00,54.00,92.98,0.00,0.00,0.00,29.82,1009.90,7.00,null,CLR,null,null,null,null,null,null,null,null,null,null,null,null,null,null,56.00,KSBA 191053Z AUTO 00000KT 7SM CLR 13/12 A2982 RMK AO2 SLP099 T01330122 $,null
SBA,2025-06-19 04:25,-119.8436,34.4261,3.00,56.00,53.00,89.64,60.00,3.00,0.00,29.83,null,8.00,null,SCT,BKN,null,null,700.00,1500.00,null,null,null,null,null,null,null,null,null,56.00,KSBA 191125Z AUTO 06003KT 8SM SCT007 BKN015 13/12 A2983 RMK AO2 T01330117 $,null
SBA,2025-06-19 04:28,-119.8436,34.4261,3.00,56.00,53.00,89.64,50.00,3.00,0.00,29.82,null,8.00,null,BKN,BKN,null,null,700.00,1400.00,null,null,null,null,null,null,null,null,null,56.00,KSBA 191128Z AUTO 05003KT 8SM BKN007 BKN014 13/12 A2982 RMK AO2 T01330117 $,null
SBA,2025-06-19 04:53,-119.8436,34.4261,3.00,57.00,54.00,89.68,30.00,4.00,0.00,29.83,1009.90,8.00,null,OVC,null,null,null,700.00,null,null,null,null,null,null,null,null,null,null,57.00,KSBA 191153Z AUTO 03004KT 8SM OVC007 14/12 A2983 RMK AO2 SLP099 T01390122 10156 20133 51007 $,null
SBA,2025-06-19 05:53,-119.8436,34.4261,3.00,60.00,57.00,89.81,70.00,4.00,0.00,29.82,1009.80,7.00,null,OVC,null,null,null,600.00,null,null,null,null,null,null,null,null,null,null,60.00,KSBA 191253Z 07004KT 7SM OVC006 16/14 A2982 RMK AO2 SLP098 T01560139 $,null
SBA,2025-06-19 06:53,-119.8436,34.4261,3.00,60.00,58.00,93.10,0.00,0.00,0.00,29.83,1010.30,5.00,null,OVC,null,null,null,600.00,null,null,null,BR,null,null,null,null,null,null,60.00,KSBA 191353Z 00000KT 5SM BR OVC006 16/14 A2983 RMK AO2 SLP103 T01560144 $,null
SBA,2025-06-19 07:53,-119.8436,34.4261,3.00,61.00,58.00,89.85,310.00,3.00,0.00,29.86,1011.20,3.00,null,OVC,null,null,null,600.00,null,null,null,BR,null,null,null,null,null,null,61.00,KSBA 191453Z 31003KT 3SM BR OVC006 16/14 A2986 RMK AO2 SLP112 T01610144 53013 $,null
SBA,2025-06-19 08:53,-119.8436,34.4261,3.00,61.00,58.00,89.85,210.00,5.00,0.00,29.87,1011.50,3.00,null,OVC,null,null,null,400.00,null,null,null,BR,null,null,null,null,null,null,61.00,KSBA 191553Z 21005KT 3SM BR OVC004 16/14 A2987 RMK AO2 SLP115 T01610144 $,null
SBA,2025-06-19 09:53,-119.8436,34.4261,3.00,61.00,58.00,89.85,200.00,5.00,0.00,29.87,1011.50,3.00,null,OVC,null,null,null,400.00,null,null,null,BR,null,null,null,null,null,null,61.00,KSBA 191653Z 20005KT 3SM BR OVC004 16/14 A2987 RMK AO2 SLP115 T01610144 $,null
SBA,2025-06-19 10:53,-119.8436,34.4261,3.00,64.00,58.00,80.85,210.00,7.00,0.00,29.88,1011.80,8.00,null,BKN,OVC,null,null,600.00,1200.00,null,null,null,null,null,null,null,null,null,64.00,KSBA 191753Z 21007KT 8SM BKN006 OVC012 18/14 A2988 RMK AO2 SLP118 T01780144 10178 20139 51006 $,null
SBA,2025-06-19 11:53,-119.8436,34.4261,3.00,64.00,57.00,77.99,210.00,7.00,0.00,29.89,1012.00,10.00,null,OVC,null,null,null,1200.00,null,null,null,null,null,null,null,null,null,null,64.00,KSBA 191853Z 21007KT 10SM OVC012 18/14 A2989 RMK AO2 SLP120 T01780139 $,null
SBA,2025-06-19 12:53,-119.8436,34.4261,3.00,68.00,58.00,70.38,200.00,7.00,0.00,29.87,1011.50,10.00,null,OVC,null,null,null,1200.00,null,null,null,null,null,null,null,null,null,null,68.00,KSBA 191953Z 20007KT 10SM OVC012 20/14 A2987 RMK AO2 SLP115 T02000144 $,null
SBA,2025-06-19 13:31,-119.8436,34.4261,3.00,68.00,58.00,70.38,200.00,8.00,0.00,29.86,null,10.00,null,SCT,null,null,null,1500.00,null,null,null,null,null,null,null,null,null,null,68.00,KSBA 192031Z 20008KT 10SM SCT015 20/14 A2986 RMK AO2 T02000144 $,null
SBA,2025-06-19 13:53,-119.8436,34.4261,3.00,68.00,57.00,67.89,220.00,9.00,0.00,29.86,1011.10,10.00,null,SCT,null,null,null,1500.00,null,null,null,null,null,null,null,null,null,null,68.00,KSBA 192053Z 22009KT 10SM SCT015 20/14 A2986 RMK AO2 SLP111 T02000139 58007 $,null
SBA,2025-06-19 14:53,-119.8436,34.4261,3.00,67.00,57.00,70.27,240.00,8.00,0.00,29.85,1010.80,9.00,null,CLR,null,null,null,null,null,null,null,null,null,null,null,null,null,null,67.00,KSBA 192153Z 24008KT 9SM CLR 19/14 A2985 RMK AO2 SLP108 T01940139 $,null
SBA,2025-06-19 15:53,-119.8436,34.4261,3.00,67.00,57.00,70.27,250.00,7.00,0.00,29.83,1010.10,10.00,null,CLR,null,null,null,null,null,null,null,null,null,null,null,null,null,null,67.00,KSBA 192253Z 25007KT 10SM CLR 19/14 A2983 RMK AO2 SLP101 T01940139 $,null
SBA,2025-06-19 16:53,-119.8436,34.4261,3.00,67.00,58.00,72.85,null,4.00,0.00,29.82,1009.60,10.00,null,CLR,null,null,null,null,null,null,null,null,null,null,null,null,null,null,67.00,KSBA 192353Z VRB04KT 10SM CLR 19/14 A2982 RMK AO2 SLP096 T01940144 10211 20178 58015 $,null
SBA,2025-06-19 17:53,-119.8436,34.4261,3.00,66.00,56.00,70.16,150.00,5.00,0.00,29.81,1009.40,9.00,null,CLR,null,null,null,null,null,null,null,null,null,null,null,null,null,null,66.00,KSBA 200053Z 15005KT 9SM CLR 19/13 A2981 RMK AO2 SLP094 T01890133 $,null
SBA,2025-06-19 18:53,-119.8436,34.4261,3.00,64.00,56.00,75.22,130.00,6.00,0.00,29.80,1008.90,7.00,null,CLR,null,null,null,null,null,null,null,null,null,null,null,null,null,null,64.00,KSBA 200153Z 13006KT 7SM CLR 18/13 A2980 RMK AO2 SLP089 T01780133 $,null
SBA,2025-06-19 19:53,-119.8436,34.4261,3.00,63.00,56.00,77.91,160.00,5.00,0.00,29.79,1008.80,7.00,null,CLR,null,null,null,null,null,null,null,null,null,null,null,null,null,null,63.00,KSBA 200253Z 16005KT 7SM CLR 17/13 A2979 RMK AO2 SLP088 T01720133 56008 $,null
SBA,2025-06-19 20:53,-119.8436,34.4261,3.00,62.00,58.00,86.73,150.00,7.00,0.00,29.79,1008.80,8.00,null,CLR,null,null,null,null,null,null,null,null,null,null,null,null,null,null,62.00,KSBA 200353Z 15007KT 8SM CLR 17/14 A2979 RMK AO2 SLP088 T01670144 $,null
SBA,2025-06-19 21:53,-119.8436,34.4261,3.00,62.00,58.00,86.73,130.00,7.00,0.00,29.80,1009.20,7.00,null,CLR,null,null,null,null,null,null,null,null,null,null,null,null,null,null,62.00,KSBA 200453Z 13007KT 7SM CLR 17/14 A2980 RMK AO2 SLP092 T01670144 $,null
SBA,2025-06-19 22:53,-119.8436,34.4261,3.00,61.00,58.00,89.85,100.00,7.00,0.00,29.81,1009.40,6.00,null,CLR,null,null,null,null,null,null,null,BR,null,null,null,null,null,null,61.00,KSBA 200553Z 10007KT 6SM BR CLR 16/14 A2981 RMK AO2 SLP094 T01610144 10200 20161 53006 $,null
SBA,2025-06-19 23:53,-119.8436,34.4261,3.00,60.00,57.00,89.81,100.00,4.00,0.00,29.80,1009.10,7.00,null,CLR,null,null,null,null,null,null,null,null,null,null,null,null,null,null,60.00,KSBA 200653Z AUTO 10004KT 7SM CLR 16/14 A2980 RMK AO2 SLP091 T01560139 $,null
SBA,2025-06-20 00:53,-119.8436,34.4261,3.00,56.00,53.00,89.64,290.00,3.00,0.00,29.80,1008.90,7.00,null,CLR,null,null,null,null,null,null,null,null,null,null,null,null,null,null,56.00,KSBA 200753Z AUTO 29003KT 7SM CLR 13/12 A2980 RMK AO2 SLP089 T01330117 402110133 $,null
SBA,2025-06-20 01:53,-119.8436,34.4261,3.00,56.00,53.00,89.64,0.00,0.00,0.00,29.79,1008.70,8.00,null,CLR,null,null,null,null,null,null,null,null,null,null,null,null,null,null,56.00,KSBA 200853Z AUTO 00000KT 8SM CLR 13/12 A2979 RMK AO2 SLP087 T01330117 56007 $,null
SBA,2025-06-20 02:53,-119.8436,34.4261,3.00,54.00,52.00,92.92,310.00,3.00,0.00,29.78,1008.50,7.00,null,CLR,null,null,null,null,null,null,null,null,null,null,null,null,null,null,54.00,KSBA 200953Z AUTO 31003KT 7SM CLR 12/11 A2978 RMK AO2 SLP085 T01220111 $,null
SBA,2025-06-20 03:53,-119.8436,34.4261,3.00,53.00,51.00,92.89,270.00,3.00,0.00,29.79,1008.70,7.00,null,CLR,null,null,null,null,null,null,null,null,null,null,null,null,null,null,53.00,KSBA 201053Z AUTO 27003KT 7SM CLR 12/11 A2979 RMK AO2 SLP087 T01170106 $,null
SBA,2025-06-20 04:53,-119.8436,34.4261,3.00,53.00,51.00,92.89,0.00,0.00,0.00,29.80,1009.10,8.00,null,CLR,null,null,null,null,null,null,null,null,null,null,null,null,null,null,53.00,KSBA 201153Z AUTO 00000KT 8SM CLR 12/11 A2980 RMK AO2 SLP091 T01170106 10161 20111 53004 $,null
SBA,2025-06-20 05:53,-119.8436,34.4261,3.00,51.00,50.00,96.36,0.00,0.00,0.00,29.82,1009.70,6.00,null,CLR,null,null,null,null,null,null,null,HZ,null,null,null,null,null,null,51.00,KSBA 201253Z COR 00000KT 6SM HZ CLR 11/10 A2982 RMK AO2 SLP097 T01060100 $,null
SBA,2025-06-20 06:53,-119.8436,34.4261,3.00,54.00,52.00,92.92,270.00,3.00,0.00,29.84,1010.40,7.00,null,CLR,null,null,null,null,null,null,null,null,null,null,null,null,null,null,54.00,KSBA 201353Z 27003KT 7SM CLR 12/11 A2984 RMK AO2 SLP104 T01220111 $,null
SBA,2025-06-20 07:53,-119.8436,34.4261,3.00,62.00,52.00,69.72,0.00,0.00,0.00,29.85,1010.90,10.00,null,CLR,null,null,null,null,null,null,null,null,null,null,null,null,null,null,62.00,KSBA 201453Z 00000KT 10SM CLR 17/11 A2985 RMK AO2 SLP109 T01670111 51018 $,null
SBA,2025-06-20 08:53,-119.8436,34.4261,3.00,65.00,52.00,62.76,0.00,0.00,0.00,29.87,1011.40,10.00,null,CLR,null,null,null,null,null,null,null,null,null,null,null,null,null,null,65.00,KSBA 201553Z 00000KT 10SM CLR 18/11 A2987 RMK AO2 SLP114 T01830111 $,null
SBA,2025-06-20 09:53,-119.8436,34.4261,3.00,65.00,56.00,72.64,150.00,11.00,0.00,29.87,1011.50,8.00,null,CLR,null,null,null,null,null,null,null,null,null,null,null,null,null,null,65.00,KSBA 201653Z 15011KT 8SM CLR 18/13 A2987 RMK AO2 SLP115 T01830133,null
SBA,2025-06-20 10:53,-119.8436,34.4261,3.00,67.00,57.00,70.27,130.00,10.00,0.00,29.87,1011.60,8.00,null,CLR,null,null,null,null,null,null,null,null,null,null,null,null,null,null,67.00,KSBA 201753Z 13010KT 8SM CLR 19/14 A2987 RMK AO2 SLP116 T01940139 10200 20106 51007,null
SBA,2025-06-20 11:53,-119.8436,34.4261,3.00,65.00,57.00,75.32,160.00,9.00,0.00,29.88,1011.70,7.00,null,CLR,null,null,null,null,null,null,null,null,null,null,null,null,null,null,65.00,KSBA 201853Z 16009KT 7SM CLR 18/14 A2988 RMK AO2 SLP117 T01830139,null
SBA,2025-06-20 12:53,-119.8436,34.4261,3.00,66.00,56.00,70.16,160.00,8.00,0.00,29.87,1011.30,8.00,null,CLR,null,null,null,null,null,null,null,null,null,null,null,null,null,null,66.00,KSBA 201953Z 16008KT 8SM CLR 19/13 A2987 RMK AO2 SLP113 T01890133,null
SBA,2025-06-20 13:53,-119.8436,34.4261,3.00,68.00,56.00,65.48,150.00,9.00,0.00,29.86,1011.00,9.00,null,CLR,null,null,null,null,null,null,null,null,null,null,null,null,null,null,68.00,KSBA 202053Z 15009KT 9SM CLR 20/13 A2986 RMK AO2 SLP110 T02000133 58006,null
SBA,2025-06-20 14:53,-119.8436,34.4261,3.00,69.00,55.00,61.02,150.00,8.00,0.00,29.83,1010.20,10.00,null,CLR,null,null,null,null,null,null,null,null,null,null,null,null,null,null,69.00,KSBA 202153Z 15008KT 10SM CLR 21/13 A2983 RMK AO2 SLP102 T02060128,null
SBA,2025-06-20 15:53,-119.8436,34.4261,3.00,69.00,58.00,68.01,160.00,8.00,0.00,29.81,1009.40,9.00,null,CLR,null,null,null,null,null,null,null,null,null,null,null,null,null,null,69.00,KSBA 202253Z 16008KT 9SM CLR 21/14 A2981 RMK AO2 SLP094 T02060144,null
SBA,2025-06-20 16:53,-119.8436,34.4261,3.00,68.00,58.00,70.38,140.00,9.00,0.00,29.80,1008.90,9.00,null,CLR,null,null,null,null,null,null,null,null,null,null,null,null,null,null,68.00,KSBA 202353Z 14009KT 9SM CLR 20/14 A2980 RMK AO2 SLP089 T02000144 10211 20183 56020,null
SBA,2025-06-20 17:53,-119.8436,34.4261,3.00,66.00,54.00,65.24,140.00,10.00,0.00,29.79,1008.80,9.00,null,CLR,null,null,null,null,null,null,null,null,null,null,null,null,null,null,66.00,KSBA 210053Z 14010KT 9SM CLR 19/12 A2979 RMK AO2 SLP088 T01890122,null
SBA,2025-06-20 18:53,-119.8436,34.4261,3.00,66.00,56.00,70.16,140.00,11.00,0.00,29.79,1008.60,9.00,null,CLR,null,null,null,null,null,null,null,null,null,null,null,null,null,null,66.00,KSBA 210153Z 14011KT 9SM CLR 19/13 A2979 RMK AO2 SLP086 T01890133,null
SBA,2025-06-20 19:53,-119.8436,34.4261,3.00,64.00,55.00,72.54,170.00,6.00,0.00,29.80,1008.90,9.00,null,CLR,null,null,null,null,null,null,null,null,null,null,null,null,null,null,64.00,KSBA 210253Z 17006KT 9SM CLR 18/13 A2980 RMK AO2 SLP089 T01780128 55000,null
SBA,2025-06-20 20:53,-119.8436,34.4261,3.00,62.00,56.00,80.70,190.00,4.00,0.00,29.80,1009.10,9.00,null,CLR,null,null,null,null,null,null,null,null,null,null,null,null,null,null,62.00,KSBA 210353Z 19004KT 9SM CLR 17/13 A2980 RMK AO2 SLP091 T01670133,null
SBA,2025-06-20 21:53,-119.8436,34.4261,3.00,60.00,49.00,66.96,200.00,4.00,0.00,29.81,1009.50,10.00,null,CLR,null,null,null,null,null,null,null,null,null,null,null,null,null,null,60.00,KSBA 210453Z 20004KT 10SM CLR 16/09 A2981 RMK AO2 SLP095 T01560094,null
SBA,2025-06-20 22:53,-119.8436,34.4261,3.00,59.00,51.00,74.75,0.00,0.00,0.00,29.82,1009.70,10.00,null,CLR,null,null,null,null,null,null,null,null,null,null,null,null,null,null,59.00,KSBA 210553Z AUTO 00000KT 10SM CLR 15/11 A2982 RMK AO2 SLP097 T01500106 10200 20150 52008,null
SBA,2025-06-20 23:53,-119.8436,34.4261,3.00,60.00,51.00,72.13,0.00,0.00,0.00,29.81,1009.60,10.00,null,CLR,null,null,null,null,null,null,null,null,null,null,null,null,null,null,60.00,KSBA 210653Z AUTO 00000KT 10SM CLR 16/11 A2981 RMK AO2 SLP096 T01560106,null
SBA,2025-06-21 00:53,-119.8436,34.4261,3.00,57.00,50.00,77.39,320.00,3.00,0.00,29.81,1009.30,10.00,null,CLR,null,null,null,null,null,null,null,null,null,null,null,null,null,null,57.00,KSBA 210753Z AUTO 32003KT 10SM CLR 14/10 A2981 RMK AO2 SLP093 T01390100 402110106,null
SBA,2025-06-21 01:53,-119.8436,34.4261,3.00,54.00,50.00,86.29,0.00,0.00,0.00,29.81,1009.30,10.00,null,CLR,null,null,null,null,null,null,null,null,null,null,null,null,null,null,54.00,KSBA 210853Z AUTO 00000KT 10SM CLR 12/10 A2981 RMK AO2 SLP093 T01220100 56004,null
SBA,2025-06-21 02:53,-119.8436,34.4261,3.00,54.00,49.00,83.13,0.00,0.00,0.00,29.82,1009.60,10.00,null,CLR,null,null,null,null,null,null,null,null,null,null,null,null,null,null,54.00,KSBA 210953Z AUTO 00000KT 10SM CLR 12/09 A2982 RMK AO2 SLP096 T01220094,null
SBA,2025-06-21 03:53,-119.8436,34.4261,3.00,52.00,47.00,82.99,0.00,0.00,0.00,29.83,1010.00,10.00,null,CLR,null,null,null,null,null,null,null,null,null,null,null,null,null,null,52.00,KSBA 211053Z AUTO 00000KT 10SM CLR 11/08 A2983 RMK AO2 SLP100 T01110083,null
SBA,2025-06-21 04:53,-119.8436,34.4261,3.00,52.00,48.00,86.18,0.00,0.00,0.00,29.84,1010.40,10.00,null,CLR,null,null,null,null,null,null,null,null,null,null,null,null,null,null,52.00,KSBA 211153Z AUTO 00000KT 10SM CLR 11/09 A2984 RMK AO2 SLP104 T01110089 10156 20111 53011,null
SBA,2025-06-21 05:53,-119.8436,34.4261,3.00,54.00,49.00,83.13,0.00,0.00,0.00,29.86,1011.00,9.00,null,FEW,null,null,null,2000.00,null,null,null,null,null,null,null,null,null,null,54.00,KSBA 211253Z 00000KT 9SM FEW020 12/09 A2986 RMK AO2 SLP110 T01220094,null
SBA,2025-06-21 06:53,-119.8436,34.4261,3.00,53.00,49.00,86.23,0.00,0.00,0.00,29.87,1011.50,10.00,null,BKN,null,null,null,2500.00,null,null,null,null,null,null,null,null,null,null,53.00,KSBA 211353Z 00000KT 10SM BKN025 12/09 A2987 RMK AO2 SLP115 T01170094,null
SBA,2025-06-21 07:53,-119.8436,34.4261,3.00,62.00,52.00,69.72,0.00,0.00,0.00,29.88,1011.80,10.00,null,SCT,null,null,null,2900.00,null,null,null,null,null,null,null,null,null,null,62.00,KSBA 211453Z 00000KT 10SM SCT029 17/11 A2988 RMK AO2 SLP118 T01670111 51014,null
SBA,2025-06-21 08:53,-119.8436,34.4261,3.00,66.00,54.00,65.24,140.00,4.00,0.00,29.88,1011.90,9.00,null,SCT,null,null,null,2900.00,null,null,null,null,null,null,null,null,null,null,66.00,KSBA 211553Z 14004KT 9SM SCT029 19/12 A2988 RMK AO2 SLP119 T01890122,null
SBA,2025-06-21 09:53,-119.8436,34.4261,3.00,66.00,55.00,67.66,230.00,6.00,0.00,29.89,1012.00,9.00,null,FEW,null,null,null,2900.00,null,null,null,null,null,null,null,null,null,null,66.00,KSBA 211653Z 23006KT 9SM FEW029 19/13 A2989 RMK AO2 SLP120 T01890128,null
SBA,2025-06-21 10:53,-119.8436,34.4261,3.00,69.00,55.00,61.02,220.00,8.00,0.00,29.89,1012.00,9.00,null,FEW,null,null,null,2900.00,null,null,null,null,null,null,null,null,null,null,69.00,KSBA 211753Z 22008KT 9SM FEW029 21/13 A2989 RMK AO2 SLP120 T02060128 10206 20111 51003,null
SBA,2025-06-21 11:53,-119.8436,34.4261,3.00,70.00,52.00,52.83,230.00,7.00,0.00,29.88,1011.80,10.00,null,FEW,null,null,null,2900.00,null,null,null,null,null,null,null,null,null,null,70.00,KSBA 211853Z 23007KT 200V260 10SM FEW029 21/11 A2988 RMK AO2 SLP118 T02110111,null
SBA,2025-06-21 12:53,-119.8436,34.4261,3.00,71.00,51.00,49.22,220.00,7.00,0.00,29.87,1011.50,10.00,null,FEW,null,null,null,2900.00,null,null,null,null,null,null,null,null,null,null,71.00,KSBA 211953Z 22007KT 10SM FEW029 22/11 A2987 RMK AO2 SLP115 T02170106 $,null
SBA,2025-06-21 13:53,-119.8436,34.4261,3.00,72.00,48.00,42.54,null,4.00,0.00,29.85,1010.70,10.00,null,CLR,null,null,null,null,null,null,null,null,null,null,null,null,null,null,72.00,KSBA 212053Z VRB04KT 10SM CLR 22/09 A2985 RMK AO2 SLP107 T02220089 58013 $,null
SBA,2025-06-21 14:53,-119.8436,34.4261,3.00,71.00,54.00,54.96,140.00,8.00,0.00,29.83,1010.10,10.00,null,CLR,null,null,null,null,null,null,null,null,null,null,null,null,null,null,71.00,KSBA 212153Z 14008KT 10SM CLR 22/12 A2983 RMK AO2 SLP101 T02170122 $,null
SBA,2025-06-21 15:53,-119.8436,34.4261,3.00,68.00,55.00,63.15,150.00,11.00,0.00,29.81,1009.60,9.00,null,CLR,null,null,null,null,null,null,null,null,null,null,null,null,null,null,68.00,KSBA 212253Z 15011KT 9SM CLR 20/13 A2981 RMK AO2 SLP096 T02000128 $,null
SBA,2025-06-21 16:53,-119.8436,34.4261,3.00,68.00,53.00,58.70,140.00,12.00,0.00,29.80,1009.00,10.00,null,CLR,null,null,null,null,null,null,null,null,null,null,null,null,null,null,68.00,KSBA 212353Z 14012KT 10SM CLR 20/12 A2980 RMK AO2 SLP090 T02000117 10228 20200 56017 $,null
SBA,2025-06-21 17:53,-119.8436,34.4261,3.00,68.00,53.00,58.70,150.00,9.00,0.00,29.79,1008.90,10.00,null,CLR,null,null,null,null,null,null,null,null,null,null,null,null,null,null,68.00,KSBA 220053Z 15009KT 10SM CLR 20/12 A2979 RMK AO2 SLP089 T02000117 $,null
SBA,2025-06-21 18:53,-119.8436,34.4261,3.00,66.00,55.00,67.66,140.00,7.00,0.00,29.80,1009.20,10.00,null,CLR,null,null,null,null,null,null,null,null,null,null,null,null,null,null,66.00,KSBA 220153Z 14007KT 10SM CLR 19/13 A2980 RMK AO2 SLP092 T01890128 $,null
SBA,2025-06-21 19:53,-119.8436,34.4261,3.00,65.00,56.00,72.64,150.00,8.00,0.00,29.81,1009.30,9.00,null,CLR,null,null,null,null,null,null,null,null,null,null,null,null,null,null,65.00,KSBA 220253Z 15008KT 9SM CLR 18/13 A2981 RMK AO2 SLP093 T01830133 53003 $,null
SBA,2025-06-21 20:53,-119.8436,34.4261,3.00,66.00,46.00,48.45,30.00,11.00,0.00,29.82,1009.70,10.00,null,CLR,null,null,null,null,null,null,null,null,null,null,null,null,null,null,66.00,KSBA 220353Z 03011KT 10SM CLR 19/08 A2982 RMK AO2 SLP097 T01890078 $,null
SBA,2025-06-21 21:53,-119.8436,34.4261,3.00,65.00,42.00,43.05,null,5.00,0.00,29.85,1010.70,10.00,null,CLR,null,null,null,null,null,null,null,null,null,null,null,null,null,null,65.00,KSBA 220453Z VRB05KT 10SM CLR 18/06 A2985 RMK AO2 SLP107 T01830056 $,null
SBA,2025-06-21 22:53,-119.8436,34.4261,3.00,63.00,41.00,44.42,280.00,3.00,0.00,29.86,1011.20,10.00,null,CLR,null,null,null,null,null,null,null,null,null,null,null,null,null,null,63.00,KSBA 220553Z AUTO 28003KT 10SM CLR 17/05 A2986 RMK AO2 SLP112 T01720050 10211 20167 53019 $,null
SBA,2025-06-21 23:53,-119.8436,34.4261,3.00,67.00,37.00,33.05,270.00,5.00,0.00,29.85,1010.90,10.00,null,CLR,null,null,null,null,null,null,null,null,null,null,null,null,null,null,67.00,KSBA 220653Z AUTO 27005KT 10SM CLR 19/03 A2985 RMK AO2 SLP109 T01940028 $,null
SBA,2025-06-22 00:53,-119.8436,34.4261,3.00,70.00,33.00,25.43,360.00,10.00,0.00,29.84,1010.30,10.00,16.00,CLR,null,null,null,null,null,null,null,null,null,null,null,null,null,null,70.00,KSBA 220753Z AUTO 36010G16KT 10SM CLR 21/01 A2984 RMK AO2 SLP103 T02110006 402280111 $,null
SBA,2025-06-22 01:53,-119.8436,34.4261,3.00,67.00,33.00,28.19,340.00,5.00,0.00,29.83,1010.00,10.00,null,CLR,null,null,null,null,null,null,null,null,null,null,null,null,null,null,67.00,KSBA 220853Z AUTO 34005KT 10SM CLR 19/01 A2983 RMK AO2 SLP100 T01940006 58012 $,null
SBA,2025-06-22 02:53,-119.8436,34.4261,3.00,65.00,32.00,29.02,340.00,9.00,0.00,29.82,1009.70,10.00,null,CLR,null,null,null,null,null,null,null,null,null,null,null,null,null,null,65.00,KSBA 220953Z AUTO 34009KT 10SM CLR 18/00 A2982 RMK AO2 SLP097 T01830000 $,null
SBA,2025-06-22 03:53,-119.8436,34.4261,3.00,63.00,33.00,32.40,null,null,0.00,29.83,1010.10,10.00,null,CLR,null,null,null,null,null,null,null,null,null,null,null,null,null,null,63.00,KSBA 221053Z AUTO 10SM CLR 17/01 A2983 RMK AO2 SLP101 T01720006 $,null
SBA,2025-06-22 04:53,-119.8436,34.4261,3.00,60.00,54.00,80.54,70.00,3.00,0.00,29.86,1011.00,9.00,null,CLR,null,null,null,null,null,null,null,null,null,null,null,null,null,null,60.00,KSBA 221153Z AUTO 07003KT 9SM CLR 16/12 A2986 RMK AO2 SLP110 T01560122 10217 20156 53010 $,null
SBA,2025-06-22 05:53,-119.8436,34.4261,3.00,59.00,54.00,83.47,60.00,6.00,0.00,29.88,1011.80,7.00,null,CLR,null,null,null,null,null,null,null,null,null,null,null,null,null,null,59.00,KSBA 221253Z 06006KT 7SM CLR 15/12 A2988 RMK AO2 SLP118 T01500122 $,null
SBA,2025-06-22 06:53,-119.8436,34.4261,3.00,61.00,51.00,69.61,70.00,5.00,0.00,29.91,1012.70,9.00,null,CLR,null,null,null,null,null,null,null,null,null,null,null,null,null,null,61.00,KSBA 221353Z 07005KT 9SM CLR 16/11 A2991 RMK AO2 SLP127 T01610106 $,null
SBA,2025-06-22 07:53,-119.8436,34.4261,3.00,64.00,50.00,60.35,120.00,4.00,0.00,29.92,1013.30,10.00,null,CLR,null,null,null,null,null,null,null,null,null,null,null,null,null,null,64.00,KSBA 221453Z 12004KT 10SM CLR 18/10 A2992 RMK AO2 SLP133 T01780100 51023 $,null
SBA,2025-06-22 08:53,-119.8436,34.4261,3.00,65.00,51.00,60.49,160.00,4.00,0.00,29.94,1013.70,10.00,null,CLR,null,null,null,null,null,null,null,null,null,null,null,null,null,null,65.00,KSBA 221553Z 16004KT 10SM CLR 18/11 A2994 RMK AO2 SLP137 T01830106 $,null
SBA,2025-06-22 09:53,-119.8436,34.4261,3.00,67.00,53.00,60.75,200.00,6.00,0.00,29.93,1013.40,9.00,null,CLR,null,null,null,null,null,null,null,null,null,null,null,null,null,null,67.00,KSBA 221653Z 20006KT 9SM CLR 19/12 A2993 RMK AO2 SLP134 T01940117 $,null
SBA,2025-06-22 10:53,-119.8436,34.4261,3.00,68.00,55.00,63.15,210.00,5.00,0.00,29.94,1013.80,9.00,null,CLR,null,null,null,null,null,null,null,null,null,null,null,null,null,null,68.00,KSBA 221753Z 21005KT 9SM CLR 20/13 A2994 RMK AO2 SLP138 T02000128 10200 20144 51005 $,null
SBA,2025-06-22 11:53,-119.8436,34.4261,3.00,70.00,54.00,56.86,220.00,6.00,0.00,29.94,1013.80,10.00,null,CLR,null,null,null,null,null,null,null,null,null,null,null,null,null,null,70.00,KSBA 221853Z 22006KT 10SM CLR 21/12 A2994 RMK AO2 SLP138 T02110122 $,null
SBA,2025-06-22 12:53,-119.8436,34.4261,3.00,70.00,54.00,56.86,180.00,7.00,0.00,29.93,1013.40,10.00,null,CLR,null,null,null,null,null,null,null,null,null,null,null,null,null,null,70.00,KSBA 221953Z 18007KT 10SM CLR 21/12 A2993 RMK AO2 SLP134 T02110122 $,null
SBA,2025-06-22 13:53,-119.8436,34.4261,3.00,71.00,57.00,61.28,150.00,8.00,0.00,29.92,1013.10,10.00,null,CLR,null,null,null,null,null,null,null,null,null,null,null,null,null,null,71.00,KSBA 222053Z 15008KT 10SM CLR 22/14 A2992 RMK AO2 SLP131 T02170139 58007 $,null
SBA,2025-06-22 14:53,-119.8436,34.4261,3.00,71.00,54.00,54.96,170.00,7.00,0.00,29.91,1012.70,10.00,null,CLR,null,null,null,null,null,null,null,null,null,null,null,null,null,null,71.00,KSBA 222153Z 17007KT 10SM CLR 22/12 A2991 RMK AO2 SLP127 T02170122 $,null
SBA,2025-06-22 15:53,-119.8436,34.4261,3.00,72.00,49.00,44.17,null,5.00,0.00,29.88,1011.90,10.00,null,CLR,null,null,null,null,null,null,null,null,null,null,null,null,null,null,72.00,KSBA 222253Z VRB05KT 10SM CLR 22/09 A2988 RMK AO2 SLP119 T02220094 $,null
SBA,2025-06-22 16:53,-119.8436,34.4261,3.00,70.00,54.00,56.86,140.00,7.00,0.00,29.87,1011.50,10.00,null,CLR,null,null,null,null,null,null,null,null,null,null,null,null,null,null,70.00,KSBA 222353Z 14007KT 10SM CLR 21/12 A2987 RMK AO2 SLP115 T02110122 10228 20200 57016 $,null
SBA,2025-06-22 17:53,-119.8436,34.4261,3.00,68.00,56.00,65.48,130.00,6.00,0.00,29.85,1010.90,8.00,null,CLR,null,null,null,null,null,null,null,null,null,null,null,null,null,null,68.00,KSBA 230053Z 13006KT 8SM CLR 20/13 A2985 RMK AO2 SLP109 T02000133 $,null
SBA,2025-06-22 18:53,-119.8436,34.4261,3.00,67.00,54.00,63.02,150.00,8.00,0.00,29.84,1010.50,10.00,null,CLR,null,null,null,null,null,null,null,null,null,null,null,null,null,null,67.00,KSBA 230153Z 15008KT 10SM CLR 19/12 A2984 RMK AO2 SLP105 T01940122 $,null
SBA,2025-06-22 19:53,-119.8436,34.4261,3.00,65.00,56.00,72.64,110.00,4.00,0.00,29.84,1010.50,9.00,null,CLR,null,null,null,null,null,null,null,null,null,null,null,null,null,null,65.00,KSBA 230253Z 11004KT 9SM CLR 18/13 A2984 RMK AO2 SLP105 T01830133 56010 $,null
SBA,2025-06-22 20:53,-119.8436,34.4261,3.00,65.00,57.00,75.32,140.00,6.00,0.00,29.83,1010.20,9.00,null,CLR,null,null,null,null,null,null,null,null,null,null,null,null,null,null,65.00,KSBA 230353Z 14006KT 9SM CLR 18/14 A2983 RMK AO2 SLP102 T01830139 $,null
SBA,2025-06-22 21:53,-119.8436,34.4261,3.00,63.00,55.00,75.13,170.00,6.00,0.00,29.84,1010.50,10.00,null,CLR,null,null,null,null,null,null,null,null,null,null,null,null,null,null,63.00,KSBA 230453Z 17006KT 10SM CLR 17/13 A2984 RMK AO2 SLP105 T01720128 $,null
SBA,2025-06-22 22:53,-119.8436,34.4261,3.00,64.00,50.00,60.35,80.00,6.00,0.00,29.85,1010.60,10.00,null,CLR,null,null,null,null,null,null,null,null,null,null,null,null,null,null,64.00,KSBA 230553Z 08006KT 10SM CLR 18/10 A2985 RMK AO2 SLP106 T01780100 10211 20172 53001 $,null
SBA,2025-06-22 23:53,-119.8436,34.4261,3.00,63.00,55.00,75.13,90.00,6.00,0.00,29.85,1010.70,9.00,null,CLR,null,null,null,null,null,null,null,null,null,null,null,null,null,null,63.00,KSBA 230653Z AUTO 09006KT 9SM CLR 17/13 A2985 RMK AO2 SLP107 T01720128 $,null
SBA,2025-06-23 00:53,-119.8436,34.4261,3.00,63.00,54.00,72.44,80.00,11.00,0.00,29.86,1011.10,10.00,null,CLR,null,null,null,null,null,null,null,null,null,null,null,null,null,null,63.00,KSBA 230753Z AUTO 08011KT 10SM CLR 17/12 A2986 RMK AO2 SLP111 T01720122 402280144 $,null
SBA,2025-06-23 01:53,-119.8436,34.4261,3.00,62.00,54.00,75.03,90.00,8.00,0.00,29.86,1011.10,10.00,null,CLR,null,null,null,null,null,null,null,null,null,null,null,null,null,null,62.00,KSBA 230853Z AUTO 09008KT 10SM CLR 17/12 A2986 RMK AO2 SLP111 T01670122 51004 $,null
SBA,2025-06-23 02:53,-119.8436,34.4261,3.00,60.00,55.00,83.54,90.00,8.00,0.00,29.87,1011.30,8.00,null,CLR,null,null,null,null,null,null,null,null,null,null,null,null,null,null,60.00,KSBA 230953Z AUTO 09008KT 8SM CLR 16/13 A2987 RMK AO2 SLP113 T01560128 $,null
SBA,2025-06-23 03:53,-119.8436,34.4261,3.00,59.00,54.00,83.47,120.00,6.00,0.00,29.88,1011.70,8.00,null,CLR,null,null,null,null,null,null,null,null,null,null,null,null,null,null,59.00,KSBA 231053Z AUTO 12006KT 8SM CLR 15/12 A2988 RMK AO2 SLP117 T01500122 $,null
SBA,2025-06-23 04:53,-119.8436,34.4261,3.00,57.00,53.00,86.46,0.00,0.00,0.00,29.90,1012.40,8.00,null,CLR,null,null,null,null,null,null,null,null,null,null,null,null,null,null,57.00,KSBA 231153Z AUTO 00000KT 8SM CLR 14/12 A2990 RMK AO2 SLP124 T01390117 10178 20139 53013 $,null
SBA,2025-06-23 05:53,-119.8436,34.4261,3.00,55.00,51.00,86.35,30.00,3.00,0.00,29.91,1012.70,6.00,null,CLR,null,null,null,null,null,null,null,BR,null,null,null,null,null,null,55.00,KSBA 231253Z 03003KT 6SM BR CLR 13/11 A2991 RMK AO2 SLP127 T01280106 $,null
SBA,2025-06-23 06:53,-119.8436,34.4261,3.00,57.00,53.00,86.46,0.00,0.00,0.00,29.92,1013.00,7.00,null,CLR,null,null,null,null,null,null,null,null,null,null,null,null,null,null,57.00,KSBA 231353Z 00000KT 7SM CLR 14/12 A2992 RMK AO2 SLP130 T01390117 $,null
SBA,2025-06-23 07:53,-119.8436,34.4261,3.00,62.00,54.00,75.03,0.00,0.00,0.00,29.93,1013.60,8.00,null,CLR,null,null,null,null,null,null,null,null,null,null,null,null,null,null,62.00,KSBA 231453Z 00000KT 8SM CLR 17/12 A2993 RMK AO2 SLP136 T01670122 53012 $,null
SBA,2025-06-23 08:53,-119.8436,34.4261,3.00,65.00,56.00,72.64,0.00,0.00,0.00,29.94,1013.80,7.00,null,CLR,null,null,null,null,null,null,null,null,null,null,null,null,null,null,65.00,KSBA 231553Z 00000KT 7SM CLR 18/13 A2994 RMK AO2 SLP138 T01830133 $,null
SBA,2025-06-23 09:53,-119.8436,34.4261,3.00,67.00,56.00,67.78,200.00,6.00,0.00,29.94,1013.80,8.00,null,CLR,null,null,null,null,null,null,null,null,null,null,null,null,null,null,67.00,KSBA 231653Z 20006KT 8SM CLR 19/13 A2994 RMK AO2 SLP138 T01940133 $,null
SBA,2025-06-23 10:53,-119.8436,34.4261,3.00,67.00,56.00,67.78,null,3.00,0.00,29.95,1014.10,9.00,null,CLR,null,null,null,null,null,null,null,null,null,null,null,null,null,null,67.00,KSBA 231753Z VRB03KT 9SM CLR 19/13 A2995 RMK AO2 SLP141 T01940133 10206 20128 53005 $,null
SBA,2025-06-23 11:53,-119.8436,34.4261,3.00,68.00,56.00,65.48,null,null,0.00,29.96,1014.40,9.00,null,SCT,null,null,null,2500.00,null,null,null,null,null,null,null,null,null,null,68.00,KSBA 231853Z 9SM SCT025 20/13 A2996 RMK AO2 SLP144 T02000133 $,null
SBA,2025-06-23 12:53,-119.8436,34.4261,3.00,68.00,56.00,65.48,220.00,8.00,0.00,29.96,1014.40,9.00,null,SCT,null,null,null,3500.00,null,null,null,null,null,null,null,null,null,null,68.00,KSBA 231953Z 22008KT 9SM SCT035 20/13 A2996 RMK AO2 SLP144 T02000133 $,null
SBA,2025-06-23 13:53,-119.8436,34.4261,3.00,68.00,56.00,65.48,260.00,10.00,0.00,29.95,1014.20,9.00,null,CLR,null,null,null,null,null,null,null,null,null,null,null,null,null,null,68.00,KSBA 232053Z 26010KT 9SM CLR 20/13 A2995 RMK AO2 SLP142 T02000133 50001 $,null
SBA,2025-06-23 14:53,-119.8436,34.4261,3.00,67.00,55.00,65.36,260.00,12.00,0.00,29.95,1014.20,10.00,null,CLR,null,null,null,null,null,null,null,null,null,null,null,null,null,null,67.00,KSBA 232153Z 26012KT 10SM CLR 19/13 A2995 RMK AO2 SLP142 T01940128 $,null
SBA,2025-06-23 15:53,-119.8436,34.4261,3.00,66.00,54.00,65.24,260.00,14.00,0.00,29.93,1013.60,10.00,null,CLR,null,null,null,null,null,null,null,null,null,null,null,null,null,null,66.00,KSBA 232253Z 26014KT 10SM CLR 19/12 A2993 RMK AO2 SLP136 T01890122 $,null
SBA,2025-06-23 16:53,-119.8436,34.4261,3.00,65.00,55.00,70.05,260.00,13.00,0.00,29.93,1013.30,10.00,null,CLR,null,null,null,null,null,null,null,null,null,null,null,null,null,null,65.00,KSBA 232353Z 26013KT 10SM CLR 18/13 A2993 RMK AO2 SLP133 T01830128 10211 20183 58008 $,null
SBA,2025-06-23 17:53,-119.8436,34.4261,3.00,62.00,55.00,77.82,260.00,12.00,0.00,29.91,1012.80,10.00,null,CLR,null,null,null,null,null,null,null,null,null,null,null,null,null,null,62.00,KSBA 240053Z 26012KT 10SM CLR 17/13 A2991 RMK AO2 SLP128 T01670128 $,null
SBA,2025-06-23 18:53,-119.8436,34.4261,3.00,61.00,55.00,80.62,250.00,8.00,0.00,29.91,1012.90,10.00,null,CLR,null,null,null,null,null,null,null,null,null,null,null,null,null,null,61.00,KSBA 240153Z 25008KT 10SM CLR 16/13 A2991 RMK AO2 SLP129 T01610128 $,null
SBA,2025-06-23 19:53,-119.8436,34.4261,3.00,59.00,55.00,86.57,260.00,7.00,0.00,29.92,1013.00,10.00,null,CLR,null,null,null,null,null,null,null,null,null,null,null,null,null,null,59.00,KSBA 240253Z 26007KT 10SM CLR 15/13 A2992 RMK AO2 SLP130 T01500128 55004 $,null
SBA,2025-06-23 20:53,-119.8436,34.4261,3.00,58.00,55.00,89.73,240.00,4.00,0.00,29.92,1013.10,9.00,null,CLR,null,null,null,null,null,null,null,null,null,null,null,null,null,null,58.00,KSBA 240353Z 24004KT 9SM CLR 14/13 A2992 RMK AO2 SLP131 T01440128 $,null
SBA,2025-06-23 21:53,-119.8436,34.4261,3.00,57.00,54.00,89.68,170.00,3.00,0.00,29.92,1013.20,9.00,null,CLR,null,null,null,null,null,null,null,null,null,null,null,null,null,null,57.00,KSBA 240453Z 17003KT 9SM CLR 14/12 A2992 RMK AO2 SLP132 T01390122 $,null
SBA,2025-06-23 22:28,-119.8436,34.4261,3.00,58.00,55.00,89.73,0.00,0.00,0.00,29.93,null,9.00,null,BKN,null,null,null,700.00,null,null,null,null,null,null,null,null,null,null,58.00,KSBA 240528Z 00000KT 9SM BKN007 14/13 A2993 RMK AO2 T01440128 $,null
SBA,2025-06-23 22:53,-119.8436,34.4261,3.00,58.00,55.00,89.73,130.00,3.00,0.00,29.93,1013.50,9.00,null,OVC,null,null,null,700.00,null,null,null,null,null,null,null,null,null,null,58.00,KSBA 240553Z AUTO 13003KT 9SM OVC007 14/13 A2993 RMK AO2 SLP135 T01440128 10178 20139 53005 $,null
SBA,2025-06-23 23:53,-119.8436,34.4261,3.00,58.00,55.00,89.73,140.00,7.00,0.00,29.93,1013.60,9.00,null,OVC,null,null,null,600.00,null,null,null,null,null,null,null,null,null,null,58.00,KSBA 240653Z AUTO 14007KT 9SM OVC006 14/13 A2993 RMK AO2 SLP136 T01440128 $,null
SBA,2025-06-24 00:53,-119.8436,34.4261,3.00,58.00,55.00,89.73,120.00,5.00,0.00,29.93,1013.60,9.00,null,OVC,null,null,null,600.00,null,null,null,null,null,null,null,null,null,null,58.00,KSBA 240753Z AUTO 12005KT 9SM OVC006 14/13 A2993 RMK AO2 SLP136 T01440128 402110128 $,null
SBA,2025-06-24 01:53,-119.8436,34.4261,3.00,57.00,55.00,93.01,110.00,6.00,0.00,29.93,1013.60,8.00,null,OVC,null,null,null,500.00,null,null,null,null,null,null,null,null,null,null,57.00,KSBA 240853Z AUTO 11006KT 8SM OVC005 14/13 A2993 RMK AO2 SLP136 T01390128 50001 $,null
SBA,2025-06-24 02:53,-119.8436,34.4261,3.00,57.00,55.00,93.01,150.00,5.00,0.00,29.93,1013.60,9.00,null,OVC,null,null,null,600.00,null,null,null,null,null,null,null,null,null,null,57.00,KSBA 240953Z AUTO 15005KT 9SM OVC006 14/13 A2993 RMK AO2 SLP136 T01390128 $,null
SBA,2025-06-24 03:53,-119.8436,34.4261,3.00,57.00,55.00,93.01,150.00,5.00,0.00,29.95,1014.10,5.00,null,OVC,null,null,null,400.00,null,null,null,BR,null,null,null,null,null,null,57.00,KSBA 241053Z AUTO 15005KT 5SM BR OVC004 14/13 A2995 RMK AO2 SLP141 T01390128 $,null
SBA,2025-06-24 04:53,-119.8436,34.4261,3.00,56.00,55.00,96.44,130.00,5.00,0.00,29.95,1014.10,4.00,null,OVC,null,null,null,300.00,null,null,null,BR,null,null,null,null,null,null,56.00,KSBA 241153Z AUTO 13005KT 4SM BR OVC003 13/13 A2995 RMK AO2 SLP141 T01330128 10144 20133 51005 $,null
SBA,2025-06-24 05:53,-119.8436,34.4261,3.00,56.00,54.00,92.98,160.00,4.00,0.00,29.97,1014.90,5.00,null,OVC,null,null,null,400.00,null,null,null,BR,null,null,null,null,null,null,56.00,KSBA 241253Z 16004KT 5SM BR OVC004 13/12 A2997 RMK AO2 SLP149 T01330122 $,null
SBA,2025-06-24 06:53,-119.8436,34.4261,3.00,57.00,55.00,93.01,50.00,3.00,0.00,29.99,1015.60,3.00,null,OVC,null,null,null,400.00,null,null,null,BR,null,null,null,null,null,null,57.00,KSBA 241353Z 05003KT 3SM BR OVC004 14/13 A2999 RMK AO2 SLP156 T01390128 $,null
SBA,2025-06-24 07:53,-119.8436,34.4261,3.00,58.00,55.00,89.73,70.00,3.00,0.00,30.00,1016.00,5.00,null,OVC,null,null,null,700.00,null,null,null,BR,null,null,null,null,null,null,58.00,KSBA 241453Z 07003KT 5SM BR OVC007 14/13 A3000 RMK AO2 SLP160 T01440128 51019 $,null
SBA,2025-06-24 08:53,-119.8436,34.4261,3.00,60.00,55.00,83.54,50.00,4.00,0.00,30.02,1016.30,10.00,null,OVC,null,null,null,1500.00,null,null,null,null,null,null,null,null,null,null,60.00,KSBA 241553Z 05004KT 10SM OVC015 16/13 A3002 RMK AO2 SLP163 T01560128,null
SBA,2025-06-24 09:53,-119.8436,34.4261,3.00,61.00,56.00,83.60,250.00,4.00,0.00,30.02,1016.60,9.00,null,OVC,null,null,null,1600.00,null,null,null,null,null,null,null,null,null,null,61.00,KSBA 241653Z 25004KT 9SM OVC016 16/13 A3002 RMK AO2 SLP166 T01610133,null
SBA,2025-06-24 10:53,-119.8436,34.4261,3.00,64.00,57.00,77.99,250.00,5.00,0.00,30.02,1016.60,10.00,null,FEW,OVC,null,null,1200.00,2300.00,null,null,null,null,null,null,null,null,null,64.00,KSBA 241753Z 25005KT 10SM FEW012 OVC023 18/14 A3002 RMK AO2 SLP166 T01780139 10178 20133 51006,null
SBA,2025-06-24 11:53,-119.8436,34.4261,3.00,65.00,57.00,75.32,220.00,6.00,0.00,30.02,1016.60,10.00,null,FEW,OVC,null,null,1200.00,2300.00,null,null,null,null,null,null,null,null,null,65.00,KSBA 241853Z 22006KT 10SM FEW012 OVC023 18/14 A3002 RMK AO2 SLP166 T01830139,null
SBA,2025-06-24 12:53,-119.8436,34.4261,3.00,64.00,56.00,75.22,270.00,9.00,0.00,30.03,1016.70,10.00,null,OVC,null,null,null,2400.00,null,null,null,null,null,null,null,null,null,null,64.00,KSBA 241953Z 27009KT 10SM OVC024 18/13 A3003 RMK AO2 SLP167 T01780133,null
SBA,2025-06-24 13:53,-119.8436,34.4261,3.00,64.00,56.00,75.22,260.00,5.00,0.00,30.01,1016.30,10.00,null,OVC,null,null,null,2300.00,null,null,null,null,null,null,null,null,null,null,64.00,KSBA 242053Z 26005KT 10SM OVC023 18/13 A3001 RMK AO2 SLP163 T01780133 58003,null
SBA,2025-06-24 14:53,-119.8436,34.4261,3.00,66.00,56.00,70.16,230.00,7.00,0.00,30.00,1015.80,9.00,null,OVC,null,null,null,2400.00,null,null,null,null,null,null,null,null,null,null,66.00,KSBA 242153Z 23007KT 9SM OVC024 19/13 A3000 RMK AO2 SLP158 T01890133,null
SBA,2025-06-24 15:53,-119.8436,34.4261,3.00,67.00,56.00,67.78,250.00,9.00,0.00,29.98,1015.30,9.00,null,SCT,null,null,null,2500.00,null,null,null,null,null,null,null,null,null,null,67.00,KSBA 242253Z 25009KT 9SM SCT025 19/13 A2998 RMK AO2 SLP153 T01940133,null
SBA,2025-06-24 16:53,-119.8436,34.4261,3.00,66.00,56.00,70.16,270.00,10.00,0.00,29.97,1014.70,10.00,null,FEW,null,null,null,2500.00,null,null,null,null,null,null,null,null,null,null,66.00,KSBA 242353Z 27010KT 10SM FEW025 19/13 A2997 RMK AO2 SLP147 T01890133 10194 20172 58016,null
SBA,2025-06-24 17:53,-119.8436,34.4261,3.00,65.00,56.00,72.64,260.00,9.00,0.00,29.96,1014.40,10.00,null,CLR,null,null,null,null,null,null,null,null,null,null,null,null,null,null,65.00,KSBA 250053Z 26009KT 10SM CLR 18/13 A2996 RMK AO2 SLP144 T01830133,null
SBA,2025-06-24 18:53,-119.8436,34.4261,3.00,64.00,55.00,72.54,260.00,9.00,0.00,29.96,1014.30,10.00,null,CLR,null,null,null,null,null,null,null,null,null,null,null,null,null,null,64.00,KSBA 250153Z 26009KT 10SM CLR 18/13 A2996 RMK AO2 SLP143 T01780128,null
SBA,2025-06-24 19:53,-119.8436,34.4261,3.00,62.00,54.00,75.03,270.00,5.00,0.00,29.96,1014.40,10.00,null,CLR,null,null,null,null,null,null,null,null,null,null,null,null,null,null,62.00,KSBA 250253Z 27005KT 10SM CLR 17/12 A2996 RMK AO2 SLP144 T01670122 55003,null
SBA,2025-06-24 20:53,-119.8436,34.4261,3.00,61.00,55.00,80.62,0.00,0.00,0.00,29.96,1014.50,10.00,null,CLR,null,null,null,null,null,null,null,null,null,null,null,null,null,null,61.00,KSBA 250353Z 00000KT 10SM CLR 16/13 A2996 RMK AO2 SLP145 T01610128,null
SBA,2025-06-24 21:53,-119.8436,34.4261,3.00,60.00,56.00,86.62,130.00,3.00,0.00,29.98,1015.10,10.00,null,CLR,null,null,null,null,null,null,null,null,null,null,null,null,null,null,60.00,KSBA 250453Z 13003KT 10SM CLR 16/13 A2998 RMK AO2 SLP151 T01560133,null
SBA,2025-06-24 22:53,-119.8436,34.4261,3.00,60.00,56.00,86.62,90.00,6.00,0.00,29.98,1015.20,10.00,null,CLR,null,null,null,null,null,null,null,null,null,null,null,null,null,null,60.00,KSBA 250553Z 09006KT 10SM CLR 16/13 A2998 RMK AO2 SLP152 T01560133 10194 20150 51007,null
SBA,2025-06-24 23:53,-119.8436,34.4261,3.00,59.00,56.00,89.77,80.00,4.00,0.00,29.98,1015.10,10.00,null,FEW,null,null,null,900.00,null,null,null,null,null,null,null,null,null,null,59.00,KSBA 250653Z AUTO 08004KT 10SM FEW009 15/13 A2998 RMK AO2 SLP151 T01500133,null
SBA,2025-06-25 00:53,-119.8436,34.4261,3.00,59.00,56.00,89.77,70.00,4.00,0.00,29.97,1014.90,10.00,null,BKN,null,null,null,800.00,null,null,null,null,null,null,null,null,null,null,59.00,KSBA 250753Z AUTO 07004KT 10SM BKN008 15/13 A2997 RMK AO2 SLP149 T01500133 401940133,null
SBA,2025-06-25 01:53,-119.8436,34.4261,3.00,59.00,56.00,89.77,90.00,5.00,0.00,29.96,1014.50,10.00,null,OVC,null,null,null,700.00,null,null,null,null,null,null,null,null,null,null,59.00,KSBA 250853Z AUTO 09005KT 10SM OVC007 15/13 A2996 RMK AO2 SLP145 T01500133 58006,null
SBA,2025-06-25 02:53,-119.8436,34.4261,3.00,59.00,56.00,89.77,100.00,5.00,0.00,29.96,1014.60,9.00,null,OVC,null,null,null,600.00,null,null,null,null,null,null,null,null,null,null,59.00,KSBA 250953Z AUTO 10005KT 9SM OVC006 15/13 A2996 RMK AO2 SLP146 T01500133,null
SBA,2025-06-25 03:53,-119.8436,34.4261,3.00,59.00,57.00,93.07,120.00,5.00,0.00,29.97,1014.70,9.00,null,OVC,null,null,null,600.00,null,null,null,null,null,null,null,null,null,null,59.00,KSBA 251053Z AUTO 12005KT 9SM OVC006 15/14 A2997 RMK AO2 SLP147 T01500139,null
SBA,2025-06-25 04:53,-119.8436,34.4261,3.00,59.00,57.00,93.07,110.00,4.00,0.00,29.97,1014.70,8.00,null,OVC,null,null,null,500.00,null,null,null,null,null,null,null,null,null,null,59.00,KSBA 251153Z AUTO 11004KT 8SM OVC005 15/14 A2997 RMK AO2 SLP147 T01500139 10156 20144 51002,null
SBA,2025-06-25 05:53,-119.8436,34.4261,3.00,59.00,56.00,89.77,80.00,4.00,0.00,29.98,1015.10,5.00,null,OVC,null,null,null,500.00,null,null,null,null,null,null,null,null,null,null,59.00,KSBA 251253Z COR 08004KT 5SM OVC005 15/13 A2998 RMK AO2 SLP151 T01500133,null
SBA,2025-06-25 06:53,-119.8436,34.4261,3.00,59.00,56.00,89.77,40.00,4.00,0.00,29.99,1015.60,6.00,null,OVC,null,null,null,500.00,null,null,null,BR,null,null,null,null,null,null,59.00,KSBA 251353Z 04004KT 6SM BR OVC005 15/13 A2999 RMK AO2 SLP156 T01500133,null
SBA,2025-06-25 07:53,-119.8436,34.4261,3.00,59.00,57.00,93.07,0.00,0.00,0.00,30.01,1016.10,8.00,null,OVC,null,null,null,600.00,null,null,null,null,null,null,null,null,null,null,59.00,KSBA 251453Z 00000KT 8SM OVC006 15/14 A3001 RMK AO2 SLP161 T01500139 53013 $,null
SBA,2025-06-25 08:53,-119.8436,34.4261,3.00,60.00,57.00,89.81,0.00,0.00,0.00,30.01,1016.30,6.00,null,OVC,null,null,null,500.00,null,null,null,BR,null,null,null,null,null,null,60.00,KSBA 251553Z 00000KT 6SM BR OVC005 16/14 A3001 RMK AO2 SLP163 T01560139 $,null
SBA,2025-06-25 09:53,-119.8436,34.4261,3.00,60.00,57.00,89.81,140.00,4.00,0.00,30.02,1016.40,6.00,null,OVC,null,null,null,500.00,null,null,null,BR,null,null,null,null,null,null,60.00,KSBA 251653Z 14004KT 6SM BR OVC005 16/14 A3002 RMK AO2 SLP164 T01560139 $,null
SBA,2025-06-25 10:53,-119.8436,34.4261,3.00,62.00,57.00,83.67,170.00,5.00,0.00,30.02,1016.50,6.00,null,BKN,OVC,null,null,800.00,1100.00,null,null,HZ,null,null,null,null,null,null,62.00,KSBA 251753Z 17005KT 6SM HZ BKN008 OVC011 17/14 A3002 RMK AO2 SLP165 T01670139 10167 20144 51004 $,null
SBA,2025-06-25 11:53,-119.8436,34.4261,3.00,64.00,58.00,80.85,190.00,6.00,0.00,30.01,1016.20,6.00,null,BKN,OVC,null,null,800.00,1500.00,null,null,HZ,null,null,null,null,null,null,64.00,KSBA 251853Z 19006KT 6SM HZ BKN008 OVC015 18/14 A3001 RMK AO2 SLP162 T01780144 $,null
SBA,2025-06-25 12:53,-119.8436,34.4261,3.00,66.00,58.00,75.41,220.00,5.00,0.00,30.00,1016.00,6.00,null,BKN,OVC,null,null,800.00,1500.00,null,null,HZ,null,null,null,null,null,null,66.00,KSBA 251953Z 22005KT 6SM HZ BKN008 OVC015 19/14 A3000 RMK AO2 SLP160 T01890144 $,null
SBA,2025-06-25 13:27,-119.8436,34.4261,3.00,66.00,57.00,72.74,null,6.00,0.00,29.99,null,10.00,null,BKN,null,null,null,1500.00,null,null,null,null,null,null,null,null,null,null,66.00,KSBA 252027Z VRB06KT 10SM BKN015 19/14 A2999 RMK AO2 T01890139 $,null
SBA,2025-06-25 13:53,-119.8436,34.4261,3.00,67.00,58.00,72.85,210.00,7.00,0.00,29.99,1015.30,10.00,null,SCT,null,null,null,1500.00,null,null,null,null,null,null,null,null,null,null,67.00,KSBA 252053Z 21007KT 10SM SCT015 19/14 A2999 RMK AO2 SLP153 T01940144 58011 $,null
SBA,2025-06-25 14:53,-119.8436,34.4261,3.00,67.00,57.00,70.27,240.00,10.00,0.00,29.97,1014.80,10.00,null,SCT,null,null,null,1500.00,null,null,null,null,null,null,null,null,null,null,67.00,KSBA 252153Z 24010KT 10SM SCT015 19/14 A2997 RMK AO2 SLP148 T01940139 $,null
SBA,2025-06-25 15:53,-119.8436,34.4261,3.00,67.00,57.00,70.27,260.00,12.00,0.00,29.95,1014.10,10.00,19.00,CLR,null,null,null,null,null,null,null,null,null,null,null,null,null,null,67.00,KSBA 252253Z 26012G19KT 10SM CLR 19/14 A2995 RMK AO2 SLP141 T01940139 $,null
SBA,2025-06-25 16:53,-119.8436,34.4261,3.00,64.00,56.00,75.22,260.00,14.00,0.00,29.94,1013.60,10.00,null,SCT,null,null,null,1000.00,null,null,null,null,null,null,null,null,null,null,64.00,KSBA 252353Z 26014KT 10SM SCT010 18/13 A2994 RMK AO2 SLP136 T01780133 10206 20167 56017 $,null
SBA,2025-06-25 17:53,-119.8436,34.4261,3.00,64.00,56.00,75.22,240.00,9.00,0.00,29.92,1013.00,10.00,null,CLR,null,null,null,null,null,null,null,null,null,null,null,null,null,null,64.00,KSBA 260053Z 24009KT 10SM CLR 18/13 A2992 RMK AO2 SLP130 T01780133 $,null
SBA,2025-06-25 18:53,-119.8436,34.4261,3.00,64.00,56.00,75.22,0.00,0.00,0.00,29.90,1012.40,10.00,null,CLR,null,null,null,null,null,null,null,null,null,null,null,null,null,null,64.00,KSBA 260153Z 00000KT 10SM CLR 18/13 A2990 RMK AO2 SLP124 T01780133 $,null
SBA,2025-06-25 19:53,-119.8436,34.4261,3.00,61.00,56.00,83.60,140.00,5.00,0.00,29.89,1012.20,10.00,null,CLR,null,null,null,null,null,null,null,null,null,null,null,null,null,null,61.00,KSBA 260253Z 14005KT 10SM CLR 16/13 A2989 RMK AO2 SLP122 T01610133 56014 $,null
SBA,2025-06-25 20:53,-119.8436,34.4261,3.00,60.00,56.00,86.62,100.00,5.00,0.00,29.89,1012.00,10.00,null,CLR,null,null,null,null,null,null,null,null,null,null,null,null,null,null,60.00,KSBA 260353Z 10005KT 10SM CLR 16/13 A2989 RMK AO2 SLP120 T01560133 $,null
SBA,2025-06-25 21:53,-119.8436,34.4261,3.00,60.00,56.00,86.62,100.00,9.00,0.00,29.89,1012.00,10.00,null,CLR,null,null,null,null,null,null,null,null,null,null,null,null,null,null,60.00,KSBA 260453Z 10009KT 10SM CLR 16/13 A2989 RMK AO2 SLP120 T01560133 $,null
SBA,2025-06-25 22:53,-119.8436,34.4261,3.00,59.00,56.00,89.77,80.00,7.00,0.00,29.90,1012.50,9.00,null,SCT,null,null,null,800.00,null,null,null,null,null,null,null,null,null,null,59.00,KSBA 260553Z 08007KT 9SM SCT008 15/13 A2990 RMK AO2 SLP125 T01500133 10183 20150 53002 $,null
SBA,2025-06-25 23:04,-119.8436,34.4261,3.00,59.00,56.00,89.77,90.00,5.00,0.00,29.90,null,9.00,null,BKN,null,null,null,700.00,null,null,null,null,null,null,null,null,null,null,59.00,KSBA 260604Z AUTO 09005KT 9SM BKN007 15/13 A2990 RMK AO2 T01500133 $,null
SBA,2025-06-25 23:53,-119.8436,34.4261,3.00,59.00,57.00,93.07,90.00,8.00,0.00,29.90,1012.60,8.00,null,OVC,null,null,null,600.00,null,null,null,null,null,null,null,null,null,null,59.00,KSBA 260653Z AUTO 09008KT 8SM OVC006 15/14 A2990 RMK AO2 SLP126 T01500139 $,null
SBA,2025-06-26 00:53,-119.8436,34.4261,3.00,59.00,57.00,93.07,90.00,7.00,0.00,29.92,1013.00,9.00,null,OVC,null,null,null,700.00,null,null,null,null,null,null,null,null,null,null,59.00,KSBA 260753Z AUTO 09007KT 9SM OVC007 15/14 A2992 RMK AO2 SLP130 T01500139 402060144 $,null
SBA,2025-06-26 01:53,-119.8436,34.4261,3.00,59.00,55.00,86.57,100.00,6.00,0.00,29.92,1013.30,9.00,null,BKN,null,null,null,900.00,null,null,null,null,null,null,null,null,null,null,59.00,KSBA 260853Z AUTO 10006KT 9SM BKN009 15/13 A2992 RMK AO2 SLP133 T01500128 53008 $,null
SBA,2025-06-26 02:53,-119.8436,34.4261,3.00,59.00,55.00,86.57,120.00,4.00,0.00,29.91,1013.00,9.00,null,OVC,null,null,null,800.00,null,null,null,null,null,null,null,null,null,null,59.00,KSBA 260953Z AUTO 12004KT 9SM OVC008 15/13 A2991 RMK AO2 SLP130 T01500128 $,null
SBA,2025-06-26 03:53,-119.8436,34.4261,3.00,58.00,55.00,89.73,150.00,4.00,0.00,29.92,1013.20,10.00,null,OVC,null,null,null,700.00,null,null,null,null,null,null,null,null,null,null,58.00,KSBA 261053Z AUTO 15004KT 10SM OVC007 14/13 A2992 RMK AO2 SLP132 T01440128 $,null
SBA,2025-06-26 04:53,-119.8436,34.4261,3.00,58.00,55.00,89.73,70.00,4.00,0.00,29.93,1013.60,10.00,null,OVC,null,null,null,700.00,null,null,null,null,null,null,null,null,null,null,58.00,KSBA 261153Z AUTO 07004KT 10SM OVC007 14/13 A2993 RMK AO2 SLP136 T01440128 10156 20144 53003 $,null
SBA,2025-06-26 05:53,-119.8436,34.4261,3.00,59.00,55.00,86.57,20.00,5.00,0.00,29.94,1013.70,3.00,null,OVC,null,null,null,700.00,null,null,null,BR,null,null,null,null,null,null,59.00,KSBA 261253Z 02005KT 3SM BR OVC007 15/13 A2994 RMK AO2 SLP137 T01500128 $,null
SBA,2025-06-26 06:53,-119.8436,34.4261,3.00,60.00,57.00,89.81,60.00,3.00,0.00,29.94,1013.90,4.00,null,OVC,null,null,null,600.00,null,null,null,BR,null,null,null,null,null,null,60.00,KSBA 261353Z 06003KT 4SM BR OVC006 16/14 A2994 RMK AO2 SLP139 T01560139 $,null
SBA,2025-06-26 07:53,-119.8436,34.4261,3.00,61.00,58.00,89.85,70.00,3.00,0.00,29.95,1014.10,5.00,null,OVC,null,null,null,600.00,null,null,null,BR,null,null,null,null,null,null,61.00,KSBA 261453Z 07003KT 5SM BR OVC006 16/14 A2995 RMK AO2 SLP141 T01610144 53005 $,null
SBA,2025-06-26 08:53,-119.8436,34.4261,3.00,62.00,58.00,86.73,110.00,4.00,0.00,29.96,1014.50,5.00,null,OVC,null,null,null,600.00,null,null,null,BR,null,null,null,null,null,null,62.00,KSBA 261553Z 11004KT 5SM BR OVC006 17/14 A2996 RMK AO2 SLP145 T01670144 $,null
SBA,2025-06-26 09:53,-119.8436,34.4261,3.00,63.00,58.00,83.73,90.00,4.00,0.00,29.96,1014.60,5.00,null,OVC,null,null,null,800.00,null,null,null,HZ,null,null,null,null,null,null,63.00,KSBA 261653Z 09004KT 5SM HZ OVC008 17/14 A2996 RMK AO2 SLP146 T01720144 $,null
SBA,2025-06-26 10:53,-119.8436,34.4261,3.00,64.00,59.00,83.80,170.00,4.00,0.00,29.97,1014.70,5.00,null,OVC,null,null,null,800.00,null,null,null,HZ,null,null,null,null,null,null,64.00,KSBA 261753Z 17004KT 5SM HZ OVC008 18/15 A2997 RMK AO2 SLP147 T01780150 10178 20144 51007 $,null
SBA,2025-06-26 11:53,-119.8436,34.4261,3.00,66.00,59.00,78.16,170.00,6.00,0.00,29.96,1014.40,8.00,null,OVC,null,null,null,1200.00,null,null,null,null,null,null,null,null,null,null,66.00,KSBA 261853Z 17006KT 8SM OVC012 19/15 A2996 RMK AO2 SLP144 T01890150 $,null
SBA,2025-06-26 12:53,-119.8436,34.4261,3.00,67.00,59.00,75.50,210.00,6.00,0.00,29.95,1014.20,9.00,null,OVC,null,null,null,1200.00,null,null,null,null,null,null,null,null,null,null,67.00,KSBA 261953Z 21006KT 9SM OVC012 19/15 A2995 RMK AO2 SLP142 T01940150 $,null
SBA,2025-06-26 13:45,-119.8436,34.4261,3.00,68.00,59.00,72.95,220.00,8.00,0.00,29.94,null,10.00,null,BKN,null,null,null,1500.00,null,null,null,null,null,null,null,null,null,null,68.00,KSBA 262045Z 22008KT 10SM BKN015 20/15 A2994 RMK AO2 T02000150 $,null
SBA,2025-06-26 13:53,-119.8436,34.4261,3.00,68.00,59.00,72.95,220.00,7.00,0.00,29.94,1013.80,10.00,null,SCT,null,null,null,1500.00,null,null,null,null,null,null,null,null,null,null,68.00,KSBA 262053Z 22007KT 10SM SCT015 20/15 A2994 RMK AO2 SLP138 T02000150 58009 $,null
SBA,2025-06-26 14:53,-119.8436,34.4261,3.00,68.00,59.00,72.95,250.00,9.00,0.00,29.93,1013.50,10.00,null,SCT,null,null,null,1500.00,null,null,null,null,null,null,null,null,null,null,68.00,KSBA 262153Z 25009KT 10SM SCT015 20/15 A2993 RMK AO2 SLP135 T02000150 $,null
SBA,2025-06-26 15:53,-119.8436,34.4261,3.00,67.00,58.00,72.85,240.00,9.00,0.00,29.92,1013.00,10.00,null,SCT,null,null,null,1200.00,null,null,null,null,null,null,null,null,null,null,67.00,KSBA 262253Z 24009KT 10SM SCT012 19/14 A2992 RMK AO2 SLP130 T01940144 $,null
SBA,2025-06-26 16:53,-119.8436,34.4261,3.00,65.00,58.00,78.08,250.00,10.00,0.00,29.90,1012.50,10.00,null,SCT,null,null,null,1200.00,null,null,null,null,null,null,null,null,null,null,65.00,KSBA 262353Z 25010KT 10SM SCT012 18/14 A2990 RMK AO2 SLP125 T01830144 10206 20178 58014 $,null
SBA,2025-06-26 17:28,-119.8436,34.4261,3.00,63.00,57.00,80.77,260.00,12.00,0.00,29.89,null,10.00,null,BKN,null,null,null,800.00,null,null,null,null,null,null,null,null,null,null,63.00,KSBA 270028Z 26012KT 10SM BKN008 17/14 A2989 RMK AO2 T01720139 $,null
SBA,2025-06-26 17:53,-119.8436,34.4261,3.00,61.00,57.00,86.68,260.00,8.00,0.00,29.89,1012.00,9.00,null,BKN,null,null,null,800.00,null,null,null,null,null,null,null,null,null,null,61.00,KSBA 270053Z 26008KT 9SM BKN008 16/14 A2989 RMK AO2 SLP120 T01610139 $,null
SBA,2025-06-26 18:37,-119.8436,34.4261,3.00,61.00,56.00,83.60,240.00,5.00,0.00,29.88,null,10.00,null,SCT,null,null,null,600.00,null,null,null,null,null,null,null,null,null,null,61.00,KSBA 270137Z 24005KT 10SM SCT006 16/13 A2988 RMK AO2 T01610133 $,null
SBA,2025-06-26 18:53,-119.8436,34.4261,3.00,61.00,55.00,80.62,250.00,4.00,0.00,29.88,1011.70,10.00,null,CLR,null,null,null,null,null,null,null,null,null,null,null,null,null,null,61.00,KSBA 270153Z 25004KT 10SM CLR 16/13 A2988 RMK AO2 SLP117 T01610128 $,null
SBA,2025-06-26 19:53,-119.8436,34.4261,3.00,60.00,55.00,83.54,170.00,3.00,0.00,29.87,1011.50,9.00,null,CLR,null,null,null,null,null,null,null,null,null,null,null,null,null,null,60.00,KSBA 270253Z 17003KT 9SM CLR 16/13 A2987 RMK AO2 SLP115 T01560128 56010 $,null
SBA,2025-06-26 20:53,-119.8436,34.4261,3.00,59.00,56.00,89.77,120.00,4.00,0.00,29.87,1011.50,9.00,null,CLR,null,null,null,null,null,null,null,null,null,null,null,null,null,null,59.00,KSBA 270353Z 12004KT 9SM CLR 15/13 A2987 RMK AO2 SLP115 T01500133 $,null
SBA,2025-06-26 21:53,-119.8436,34.4261,3.00,59.00,56.00,89.77,100.00,4.00,0.00,29.88,1011.80,9.00,null,CLR,null,null,null,null,null,null,null,null,null,null,null,null,null,null,59.00,KSBA 270453Z 10004KT 9SM CLR 15/13 A2988 RMK AO2 SLP118 T01500133 $,null
SBA,2025-06-26 22:53,-119.8436,34.4261,3.00,59.00,56.00,89.77,90.00,8.00,0.00,29.89,1012.00,8.00,null,OVC,null,null,null,500.00,null,null,null,null,null,null,null,null,null,null,59.00,KSBA 270553Z AUTO 09008KT 8SM OVC005 15/13 A2989 RMK AO2 SLP120 T01500133 10189 20150 53005 $,null
SBA,2025-06-26 23:53,-119.8436,34.4261,3.00,59.00,57.00,93.07,110.00,6.00,0.00,29.88,1011.90,7.00,null,OVC,null,null,null,400.00,null,null,null,null,null,null,null,null,null,null,59.00,KSBA 270653Z AUTO 11006KT 7SM OVC004 15/14 A2988 RMK AO2 SLP119 T01500139 $,null
SBA,2025-06-27 00:53,-119.8436,34.4261,3.00,59.00,57.00,93.07,100.00,6.00,0.00,29.88,1011.70,6.00,null,OVC,null,null,null,400.00,null,null,null,BR,null,null,null,null,null,null,59.00,KSBA 270753Z AUTO 10006KT 6SM BR OVC004 15/14 A2988 RMK AO2 SLP117 T01500139 402060144 $,null
SBA,2025-06-27 01:53,-119.8436,34.4261,3.00,58.00,57.00,96.47,100.00,7.00,0.00,29.87,1011.60,4.00,null,OVC,null,null,null,300.00,null,null,null,BR,null,null,null,null,null,null,58.00,KSBA 270853Z AUTO 10007KT 4SM BR OVC003 14/14 A2987 RMK AO2 SLP116 T01440139 58004 $,null
SBA,2025-06-27 02:53,-119.8436,34.4261,3.00,58.00,56.00,93.04,110.00,7.00,0.00,29.88,1011.90,7.00,null,OVC,null,null,null,300.00,null,null,null,null,null,null,null,null,null,null,58.00,KSBA 270953Z AUTO 11007KT 7SM OVC003 14/13 A2988 RMK AO2 CIG 003V007 SLP119 T01440133 $,null
SBA,2025-06-27 03:04,-119.8436,34.4261,3.00,58.00,56.00,93.04,110.00,8.00,0.00,29.89,null,8.00,null,OVC,null,null,null,500.00,null,null,null,null,null,null,null,null,null,null,58.00,KSBA 271004Z AUTO 11008KT 8SM OVC005 14/13 A2989 RMK AO2 CIG 003V010 T01440133 $,null
SBA,2025-06-27 03:53,-119.8436,34.4261,3.00,59.00,56.00,89.77,80.00,7.00,0.00,29.89,1012.10,10.00,null,OVC,null,null,null,900.00,null,null,null,null,null,null,null,null,null,null,59.00,KSBA 271053Z AUTO 08007KT 10SM OVC009 15/13 A2989 RMK AO2 SLP121 T01500133 $,null
SBA,2025-06-27 04:53,-119.8436,34.4261,3.00,59.00,56.00,89.77,80.00,6.00,0.00,29.90,1012.50,7.00,null,OVC,null,null,null,600.00,null,null,null,null,null,null,null,null,null,null,59.00,KSBA 271153Z AUTO 08006KT 7SM OVC006 15/13 A2990 RMK AO2 SLP125 T01500133 10150 20144 51009 $,null
SBA,2025-06-27 05:53,-119.8436,34.4261,3.00,59.00,57.00,93.07,80.00,6.00,0.00,29.91,1012.90,3.00,null,OVC,null,null,null,500.00,null,null,null,BR,null,null,null,null,null,null,59.00,KSBA 271253Z 08006KT 3SM BR OVC005 15/14 A2991 RMK AO2 SLP129 T01500139 $,null
SBA,2025-06-27 06:53,-119.8436,34.4261,3.00,59.00,57.00,93.07,0.00,0.00,0.00,29.92,1013.20,3.00,null,OVC,null,null,null,400.00,null,null,null,BR,null,null,null,null,null,null,59.00,KSBA 271353Z 00000KT 3SM BR OVC004 15/14 A2992 RMK AO2 SLP132 T01500139 $,null
SBA,2025-06-27 07:53,-119.8436,34.4261,3.00,60.00,58.00,93.10,70.00,4.00,0.00,29.94,1013.90,4.00,null,OVC,null,null,null,500.00,null,null,null,BR,null,null,null,null,null,null,60.00,KSBA 271453Z 07004KT 4SM BR OVC005 16/14 A2994 RMK AO2 SLP139 T01560144 53014 $,null
SBA,2025-06-27 08:53,-119.8436,34.4261,3.00,61.00,58.00,89.85,30.00,4.00,0.00,29.95,1014.10,3.00,null,OVC,null,null,null,500.00,null,null,null,BR,null,null,null,null,null,null,61.00,KSBA 271553Z COR 03004KT 3SM BR OVC005 16/14 A2995 RMK AO2 SLP141 T01610144 $,null
SBA,2025-06-27 09:53,-119.8436,34.4261,3.00,63.00,59.00,86.79,120.00,3.00,0.00,29.95,1014.10,4.00,null,OVC,null,null,null,600.00,null,null,null,BR,null,null,null,null,null,null,63.00,KSBA 271653Z 12003KT 4SM BR OVC006 17/15 A2995 RMK AO2 SLP141 T01720150 $,null
SBA,2025-06-27 10:53,-119.8436,34.4261,3.00,64.00,59.00,83.80,140.00,5.00,0.00,29.95,1014.20,4.00,null,OVC,null,null,null,900.00,null,null,null,HZ,null,null,null,null,null,null,64.00,KSBA 271753Z 14005KT 4SM HZ OVC009 18/15 A2995 RMK AO2 SLP142 T01780150 10178 20150 51003 $,null
SBA,2025-06-27 11:53,-119.8436,34.4261,3.00,68.00,60.00,75.59,150.00,8.00,0.00,29.96,1014.30,5.00,null,SCT,OVC,null,null,1000.00,1400.00,null,null,HZ,null,null,null,null,null,null,68.00,KSBA 271853Z 15008KT 5SM HZ SCT010 OVC014 20/16 A2996 RMK AO2 SLP143 T02000156 $,null
SBA,2025-06-27 12:53,-119.8436,34.4261,3.00,68.00,59.00,72.95,170.00,9.00,0.00,29.95,1014.20,5.00,null,SCT,OVC,null,null,1200.00,1800.00,null,null,HZ,null,null,null,null,null,null,68.00,KSBA 271953Z COR 17009KT 5SM HZ SCT012 OVC018 20/15 A2995 RMK AO2 SLP142 T02000150 $,null
SBA,2025-06-27 13:05,-119.8436,34.4261,3.00,68.00,59.00,72.95,160.00,7.00,0.00,29.95,null,10.00,null,SCT,BKN,null,null,1200.00,1800.00,null,null,HZ,null,null,null,null,null,null,68.00,KSBA 272005Z 16007KT 10SM HZ SCT012 BKN018 20/15 A2995 RMK AO2 T02000150 $,null
SBA,2025-06-27 13:53,-119.8436,34.4261,3.00,69.00,59.00,70.49,null,6.00,0.00,29.96,1014.40,8.00,null,SCT,BKN,null,null,700.00,3000.00,null,null,null,null,null,null,null,null,null,69.00,KSBA 272053Z COR VRB06KT 8SM SCT007 BKN030 21/15 A2996 RMK AO2 SLP144 T02060150 51002 $,null
SBA,2025-06-27 14:05,-119.8436,34.4261,3.00,68.00,59.00,72.95,null,5.00,0.00,29.95,null,8.00,null,SCT,BKN,null,null,700.00,3000.00,null,null,null,null,null,null,null,null,null,68.00,KSBA 272105Z VRB05KT 8SM SCT007 BKN030 20/15 A2995 RMK AO2 T02000150 $,null
SBA,2025-06-27 14:53,-119.8436,34.4261,3.00,68.00,59.00,72.95,null,4.00,0.00,29.94,1013.70,8.00,null,FEW,null,null,null,1400.00,null,null,null,null,null,null,null,null,null,null,68.00,KSBA 272153Z VRB04KT 8SM FEW014 20/15 A2994 RMK AO2 SLP137 T02000150 $,null
SBA,2025-06-27 15:53,-119.8436,34.4261,3.00,68.00,59.00,72.95,220.00,6.00,0.00,29.93,1013.50,10.00,null,FEW,null,null,null,1400.00,null,null,null,null,null,null,null,null,null,null,68.00,KSBA 272253Z 22006KT 10SM FEW014 20/15 A2993 RMK AO2 SLP135 T02000150 $,null
SBA,2025-06-27 16:53,-119.8436,34.4261,3.00,67.00,58.00,72.85,250.00,8.00,0.00,29.93,1013.40,10.00,null,CLR,null,null,null,null,null,null,null,null,null,null,null,null,null,null,67.00,KSBA 272353Z 25008KT 10SM CLR 19/14 A2993 RMK AO2 SLP134 T01940144 10211 20178 56009 $,null
SBA,2025-06-27 17:53,-119.8436,34.4261,3.00,65.00,58.00,78.08,270.00,7.00,0.00,29.92,1013.00,10.00,null,CLR,null,null,null,null,null,null,null,null,null,null,null,null,null,null,65.00,KSBA 280053Z 27007KT 10SM CLR 18/14 A2992 RMK AO2 SLP130 T01830144 $,null
SBA,2025-06-27 18:53,-119.8436,34.4261,3.00,63.00,57.00,80.77,260.00,9.00,0.00,29.92,1013.10,10.00,null,SCT,null,null,null,200.00,null,null,null,null,null,null,null,null,null,null,63.00,KSBA 280153Z 26009KT 10SM SCT002 17/14 A2992 RMK AO2 SLP131 FG BNK WEST T01720139 $,null
SBA,2025-06-27 19:53,-119.8436,34.4261,3.00,61.00,57.00,86.68,250.00,8.00,0.00,29.92,1013.20,7.00,null,SCT,null,null,null,600.00,null,null,null,null,null,null,null,null,null,null,61.00,KSBA 280253Z 25008KT 7SM SCT006 16/14 A2992 RMK AO2 SLP132 T01610139 55002 $,null
SBA,2025-06-27 20:53,-119.8436,34.4261,3.00,60.00,57.00,89.81,260.00,6.00,0.00,29.92,1013.30,5.00,null,SCT,null,null,null,400.00,null,null,null,BR,null,null,null,null,null,null,60.00,KSBA 280353Z 26006KT 5SM BR SCT004 16/14 A2992 RMK AO2 SLP133 FG BNK ALNG SHRLN E-W T01560139 $,null
SBA,2025-06-27 21:05,-119.8436,34.4261,3.00,60.00,57.00,89.81,260.00,6.00,0.00,29.93,null,7.00,null,BKN,null,null,null,500.00,null,null,null,null,null,null,null,null,null,null,60.00,KSBA 280405Z 26006KT 7SM BKN005 16/14 A2993 RMK AO2 T01560139 $,null
SBA,2025-06-27 21:53,-119.8436,34.4261,3.00,59.00,58.00,96.48,250.00,4.00,0.00,29.93,1013.60,5.00,null,OVC,null,null,null,300.00,null,null,null,BR,null,null,null,null,null,null,59.00,KSBA 280453Z 25004KT 5SM BR OVC003 15/14 A2993 RMK AO2 SLP136 T01500144 $,null
SBA,2025-06-27 22:53,-119.8436,34.4261,3.00,59.00,57.00,93.07,230.00,3.00,0.00,29.94,1013.80,5.00,null,OVC,null,null,null,300.00,null,null,null,BR,null,null,null,null,null,null,59.00,KSBA 280553Z 23003KT 5SM BR OVC003 15/14 A2994 RMK AO2 SLP138 T01500139 10194 20150 53006 $,null
SBA,2025-06-27 23:45,-119.8436,34.4261,3.00,58.00,57.00,96.47,0.00,0.00,0.00,29.95,null,2.50,null,OVC,null,null,null,200.00,null,null,null,BR,null,null,null,null,null,null,58.00,KSBA 280645Z AUTO 00000KT 2 1/2SM BR OVC002 14/14 A2995 RMK AO2 T01440139 $,null
SBA,2025-06-27 23:53,-119.8436,34.4261,3.00,59.00,57.00,93.07,0.00,0.00,0.00,29.95,1014.20,3.00,null,OVC,null,null,null,200.00,null,null,null,BR,null,null,null,null,null,null,59.00,KSBA 280653Z AUTO 00000KT 3SM BR OVC002 15/14 A2995 RMK AO2 SLP142 T01500139 $,null
SBA,2025-06-28 00:53,-119.8436,34.4261,3.00,59.00,58.00,96.48,0.00,0.00,0.00,29.94,1013.80,1.75,null,OVC,null,null,null,300.00,null,null,null,BR,null,null,null,null,null,null,59.00,KSBA 280753Z AUTO 00000KT 1 3/4SM BR OVC003 15/14 A2994 RMK AO2 SLP138 T01500144 402110144 $,null
SBA,2025-06-28 01:32,-119.8436,34.4261,3.00,58.00,57.00,96.47,0.00,0.00,0.00,29.94,null,2.50,null,OVC,null,null,null,200.00,null,null,null,BR,null,null,null,null,null,null,58.00,KSBA 280832Z AUTO 00000KT 2 1/2SM BR OVC002 14/14 A2994 RMK AO2 T01440139 $,null
SBA,2025-06-28 01:43,-119.8436,34.4261,3.00,58.00,57.00,96.47,0.00,0.00,0.00,29.94,null,1.50,null,OVC,null,null,null,200.00,null,null,null,BR,null,null,null,null,null,null,58.00,KSBA 280843Z AUTO 00000KT 1 1/2SM BR OVC002 14/14 A2994 RMK AO2 T01440139 $,null
SBA,2025-06-28 01:53,-119.8436,34.4261,3.00,58.00,57.00,96.47,160.00,3.00,0.00,29.94,1013.90,3.00,null,OVC,null,null,null,200.00,null,null,null,BR,null,null,null,null,null,null,58.00,KSBA 280853Z AUTO 16003KT 3SM BR OVC002 14/14 A2994 RMK AO2 SLP139 T01440139 51000 $,null
SBA,2025-06-28 02:03,-119.8436,34.4261,3.00,58.00,57.00,96.47,0.00,0.00,0.00,29.94,null,1.75,null,OVC,null,null,null,200.00,null,null,null,BR,null,null,null,null,null,null,58.00,KSBA 280903Z AUTO 00000KT 1 3/4SM BR OVC002 14/14 A2994 RMK AO2 T01440139 $,null
SBA,2025-06-28 02:13,-119.8436,34.4261,3.00,58.00,57.00,96.47,0.00,0.00,0.00,29.95,null,2.50,null,OVC,null,null,null,200.00,null,null,null,BR,null,null,null,null,null,null,58.00,KSBA 280913Z AUTO 00000KT 2 1/2SM BR OVC002 14/14 A2995 RMK AO2 T01440139 $,null
SBA,2025-06-28 02:31,-119.8436,34.4261,3.00,58.00,57.00,96.47,0.00,0.00,0.00,29.95,null,3.00,null,OVC,null,null,null,200.00,null,null,null,BR,null,null,null,null,null,null,58.00,KSBA 280931Z AUTO 00000KT 3SM BR OVC002 14/14 A2995 RMK AO2 T01440139 $,null
SBA,2025-06-28 02:51,-119.8436,34.4261,3.00,57.20,57.20,100.00,170.00,3.00,0.00,29.95,null,2.00,null,OVC,null,null,null,300.00,null,null,null,BR,null,null,null,null,null,null,57.20,KSBA 280951Z AUTO 17003KT 2SM BR OVC003 14/14 A2995 RMK AO2 $,null
SBA,2025-06-28 02:53,-119.8436,34.4261,3.00,58.00,57.00,96.47,170.00,3.00,0.00,29.95,1014.30,2.00,null,OVC,null,null,null,200.00,null,null,null,BR,null,null,null,null,null,null,58.00,KSBA 280953Z AUTO 17003KT 2SM BR OVC002 14/14 A2995 RMK AO2 SLP143 T01440139 $,null
SBA,2025-06-28 03:23,-119.8436,34.4261,3.00,58.00,57.00,96.47,0.00,0.00,0.00,29.96,null,3.00,null,OVC,null,null,null,200.00,null,null,null,BR,null,null,null,null,null,null,58.00,KSBA 281023Z AUTO 00000KT 3SM BR OVC002 14/14 A2996 RMK AO2 T01440139 $,null
SBA,2025-06-28 03:41,-119.8436,34.4261,3.00,58.00,57.00,96.47,150.00,4.00,0.00,29.96,null,2.50,null,OVC,null,null,null,200.00,null,null,null,BR,null,null,null,null,null,null,58.00,KSBA 281041Z AUTO 15004KT 2 1/2SM BR OVC002 14/14 A2996 RMK AO2 T01440139 $,null
SBA,2025-06-28 03:53,-119.8436,34.4261,3.00,58.00,57.00,96.47,160.00,4.00,0.00,29.97,1014.70,2.50,null,OVC,null,null,null,200.00,null,null,null,BR,null,null,null,null,null,null,58.00,KSBA 281053Z AUTO 16004KT 2 1/2SM BR OVC002 14/14 A2997 RMK AO2 SLP147 T01440139 $,null
SBA,2025-06-28 04:09,-119.8436,34.4261,3.00,58.00,57.00,96.47,160.00,3.00,0.00,29.97,null,4.00,null,OVC,null,null,null,200.00,null,null,null,BR,null,null,null,null,null,null,58.00,KSBA 281109Z AUTO 16003KT 4SM BR OVC002 14/14 A2997 RMK AO2 T01440139 $,null
SBA,2025-06-28 04:53,-119.8436,34.4261,3.00,58.00,58.00,100.00,150.00,4.00,0.00,29.97,1015.00,4.00,null,OVC,null,null,null,300.00,null,null,null,BR,null,null,null,null,null,null,58.00,KSBA 281153Z AUTO 15004KT 4SM BR OVC003 14/14 A2997 RMK AO2 SLP150 T01440144 10150 20144 53007 $,null
SBA,2025-06-28 05:53,-119.8436,34.4261,3.00,59.00,58.00,96.48,100.00,3.00,0.00,29.99,1015.40,4.00,null,OVC,null,null,null,400.00,null,null,null,BR,null,null,null,null,null,null,59.00,KSBA 281253Z 10003KT 4SM BR OVC004 15/14 A2999 RMK AO2 SLP154 T01500144 $,null
SBA,2025-06-28 06:53,-119.8436,34.4261,3.00,59.00,58.00,96.48,130.00,4.00,0.00,30.00,1015.70,4.00,null,OVC,null,null,null,300.00,null,null,null,BR,null,null,null,null,null,null,59.00,KSBA 281353Z 13004KT 4SM BR OVC003 15/14 A3000 RMK AO2 SLP157 T01500144 $,null
SBA,2025-06-28 07:53,-119.8436,34.4261,3.00,60.00,59.00,96.50,110.00,4.00,0.00,30.01,1016.10,4.00,null,OVC,null,null,null,300.00,null,null,null,BR,null,null,null,null,null,null,60.00,KSBA 281453Z 11004KT 4SM BR OVC003 16/15 A3001 RMK AO2 SLP161 T01560150 53012 $,null
SBA,2025-06-28 08:53,-119.8436,34.4261,3.00,60.00,58.00,93.10,130.00,4.00,0.00,30.02,1016.50,8.00,null,OVC,null,null,null,300.00,null,null,null,null,null,null,null,null,null,null,60.00,KSBA 281553Z 13004KT 8SM OVC003 16/14 A3002 RMK AO2 SLP165 T01560144 $,null
SBA,2025-06-28 09:53,-119.8436,34.4261,3.00,61.00,58.00,89.85,150.00,6.00,0.00,30.01,1016.30,7.00,null,OVC,null,null,null,700.00,null,null,null,null,null,null,null,null,null,null,61.00,KSBA 281653Z COR 15006KT 7SM OVC007 16/14 A3001 RMK AO2 SLP163 T01610144 $,null
SBA,2025-06-28 10:53,-119.8436,34.4261,3.00,64.00,58.00,80.85,170.00,7.00,0.00,30.02,1016.50,8.00,null,BKN,null,null,null,900.00,null,null,null,null,null,null,null,null,null,null,64.00,KSBA 281753Z 17007KT 8SM BKN009 18/14 A3002 RMK AO2 SLP165 T01780144 10178 20144 51003 $,null
SBA,2025-06-28 11:53,-119.8436,34.4261,3.00,67.00,58.00,72.85,160.00,8.00,0.00,30.01,1016.20,8.00,null,FEW,null,null,null,900.00,null,null,null,null,null,null,null,null,null,null,67.00,KSBA 281853Z 16008KT 8SM FEW009 19/14 A3001 RMK AO2 SLP162 T01940144 $,null
SBA,2025-06-28 12:53,-119.8436,34.4261,3.00,67.00,58.00,72.85,170.00,7.00,0.00,30.01,1016.00,9.00,null,CLR,null,null,null,null,null,null,null,null,null,null,null,null,null,null,67.00,KSBA 281953Z 17007KT 9SM CLR 19/14 A3001 RMK AO2 SLP160 T01940144 $,null
SBA,2025-06-28 13:53,-119.8436,34.4261,3.00,70.00,59.00,68.12,null,5.00,0.00,29.99,1015.60,9.00,null,CLR,null,null,null,null,null,null,null,null,null,null,null,null,null,null,70.00,KSBA 282053Z VRB05KT 9SM CLR 21/15 A2999 RMK AO2 SLP156 T02110150 58009 $,null
SBA,2025-06-28 14:53,-119.8436,34.4261,3.00,69.00,59.00,70.49,210.00,7.00,0.00,29.97,1015.00,10.00,null,CLR,null,null,null,null,null,null,null,null,null,null,null,null,null,null,69.00,KSBA 282153Z 21007KT 10SM CLR 21/15 A2997 RMK AO2 SLP150 T02060150 $,null
SBA,2025-06-28 15:53,-119.8436,34.4261,3.00,69.00,58.00,68.01,220.00,8.00,0.00,29.96,1014.60,10.00,null,CLR,null,null,null,null,null,null,null,null,null,null,null,null,null,null,69.00,KSBA 282253Z 22008KT 10SM CLR 21/14 A2996 RMK AO2 SLP146 T02060144 $,null
SBA,2025-06-28 16:53,-119.8436,34.4261,3.00,69.00,59.00,70.49,240.00,9.00,0.00,29.94,1013.80,10.00,null,CLR,null,null,null,null,null,null,null,null,null,null,null,null,null,null,69.00,KSBA 282353Z 24009KT 10SM CLR 21/15 A2994 RMK AO2 SLP138 T02060150 10217 20178 58018 $,null
SBA,2025-06-28 17:53,-119.8436,34.4261,3.00,66.00,58.00,75.41,270.00,10.00,0.00,29.93,1013.50,10.00,null,CLR,null,null,null,null,null,null,null,null,null,null,null,null,null,null,66.00,KSBA 290053Z 27010KT 10SM CLR 19/14 A2993 RMK AO2 SLP135 T01890144 $,null
SBA,2025-06-28 18:53,-119.8436,34.4261,3.00,64.00,58.00,80.85,260.00,10.00,0.00,29.93,1013.40,10.00,null,CLR,null,null,null,null,null,null,null,null,null,null,null,null,null,null,64.00,KSBA 290153Z 26010KT 10SM CLR 18/14 A2993 RMK AO2 SLP134 T01780144 $,null
SBA,2025-06-28 19:53,-119.8436,34.4261,3.00,62.00,57.00,83.67,260.00,8.00,0.00,29.92,1013.20,9.00,null,CLR,null,null,null,null,null,null,null,null,null,null,null,null,null,null,62.00,KSBA 290253Z 26008KT 9SM CLR 17/14 A2992 RMK AO2 SLP132 T01670139 56006 $,null
SBA,2025-06-28 20:53,-119.8436,34.4261,3.00,60.00,57.00,89.81,260.00,6.00,0.00,29.93,1013.40,8.00,null,SCT,null,null,null,500.00,null,null,null,null,null,null,null,null,null,null,60.00,KSBA 290353Z 26006KT 8SM SCT005 16/14 A2993 RMK AO2 SLP134 T01560139 $,null
SBA,2025-06-28 21:53,-119.8436,34.4261,3.00,59.00,57.00,93.07,260.00,6.00,0.00,29.94,1013.80,6.00,null,BKN,null,null,null,300.00,null,null,null,BR,null,null,null,null,null,null,59.00,KSBA 290453Z 26006KT 6SM BR BKN003 15/14 A2994 RMK AO2 SLP138 T01500139 $,null
SBA,2025-06-28 22:53,-119.8436,34.4261,3.00,60.00,57.00,89.81,270.00,7.00,0.00,29.95,1014.30,7.00,null,OVC,null,null,null,500.00,null,null,null,null,null,null,null,null,null,null,60.00,KSBA 290553Z 27007KT 7SM OVC005 16/14 A2995 RMK AO2 SLP143 T01560139 10206 20150 53010 $,null
SBA,2025-06-28 23:53,-119.8436,34.4261,3.00,59.00,57.00,93.07,320.00,4.00,0.00,29.95,1014.30,7.00,null,OVC,null,null,null,500.00,null,null,null,null,null,null,null,null,null,null,59.00,KSBA 290653Z AUTO 32004KT 7SM OVC005 15/14 A2995 RMK AO2 SLP143 T01500139 $,null
SBA,2025-06-29 00:53,-119.8436,34.4261,3.00,59.00,57.00,93.07,230.00,3.00,0.00,29.96,1014.50,7.00,null,OVC,null,null,null,400.00,null,null,null,null,null,null,null,null,null,null,59.00,KSBA 290753Z AUTO 23003KT 7SM OVC004 15/14 A2996 RMK AO2 SLP145 T01500139 402170144 $,null
SBA,2025-06-29 01:53,-119.8436,34.4261,3.00,58.00,57.00,96.47,0.00,0.00,0.00,29.95,1014.30,6.00,null,OVC,null,null,null,400.00,null,null,null,BR,null,null,null,null,null,null,58.00,KSBA 290853Z AUTO 00000KT 6SM BR OVC004 14/14 A2995 RMK AO2 SLP143 T01440139 50000 $,null
SBA,2025-06-29 02:53,-119.8436,34.4261,3.00,58.00,56.00,93.04,40.00,3.00,0.00,29.96,1014.40,6.00,null,OVC,null,null,null,400.00,null,null,null,BR,null,null,null,null,null,null,58.00,KSBA 290953Z AUTO 04003KT 6SM BR OVC004 14/13 A2996 RMK AO2 SLP144 T01440133 $,null
SBA,2025-06-29 03:31,-119.8436,34.4261,3.00,58.00,56.00,93.04,280.00,3.00,0.00,29.96,null,7.00,null,OVC,null,null,null,500.00,null,null,null,null,null,null,null,null,null,null,58.00,KSBA 291031Z AUTO 28003KT 7SM OVC005 14/13 A2996 RMK AO2 T01440133 $,null
SBA,2025-06-29 03:53,-119.8436,34.4261,3.00,57.00,56.00,96.45,0.00,0.00,0.00,29.96,1014.40,6.00,null,OVC,null,null,null,400.00,null,null,null,BR,null,null,null,null,null,null,57.00,KSBA 291053Z AUTO 00000KT 6SM BR OVC004 14/13 A2996 RMK AO2 SLP144 T01390133 $,null
SBA,2025-06-29 04:53,-119.8436,34.4261,3.00,57.00,56.00,96.45,0.00,0.00,0.00,29.97,1014.70,7.00,null,OVC,null,null,null,400.00,null,null,null,null,null,null,null,null,null,null,57.00,KSBA 291153Z AUTO 00000KT 7SM OVC004 14/13 A2997 RMK AO2 SLP147 T01390133 10150 20139 53004 $,null
SBA,2025-06-29 05:08,-119.8436,34.4261,3.00,57.00,55.00,93.01,0.00,0.00,0.00,29.97,null,7.00,null,OVC,null,null,null,500.00,null,null,null,null,null,null,null,null,null,null,57.00,KSBA 291208Z AUTO 00000KT 7SM OVC005 14/13 A2997 RMK AO2 T01390128 $,null
SBA,2025-06-29 05:53,-119.8436,34.4261,3.00,57.00,55.00,93.01,150.00,3.00,0.00,29.97,1014.80,8.00,null,OVC,null,null,null,500.00,null,null,null,null,null,null,null,null,null,null,57.00,KSBA 291253Z 15003KT 8SM OVC005 14/13 A2997 RMK AO2 SLP148 T01390128 $,null
SBA,2025-06-29 06:53,-119.8436,34.4261,3.00,58.00,55.00,89.73,0.00,0.00,0.00,29.98,1015.30,6.00,null,OVC,null,null,null,600.00,null,null,null,BR,null,null,null,null,null,null,58.00,KSBA 291353Z 00000KT 6SM BR OVC006 14/13 A2998 RMK AO2 SLP153 T01440128 $,null
SBA,2025-06-29 07:53,-119.8436,34.4261,3.00,58.00,55.00,89.73,0.00,0.00,0.00,29.99,1015.50,6.00,null,OVC,null,null,null,700.00,null,null,null,BR,null,null,null,null,null,null,58.00,KSBA 291453Z 00000KT 6SM BR OVC007 14/13 A2999 RMK AO2 SLP155 T01440128 53008 $,null
SBA,2025-06-29 08:53,-119.8436,34.4261,3.00,60.00,56.00,86.62,180.00,4.00,0.00,29.99,1015.60,8.00,null,BKN,null,null,null,800.00,null,null,null,null,null,null,null,null,null,null,60.00,KSBA 291553Z 18004KT 8SM BKN008 16/13 A2999 RMK AO2 SLP156 T01560133 $,null
SBA,2025-06-29 09:53,-119.8436,34.4261,3.00,62.00,55.00,77.82,240.00,4.00,0.00,29.99,1015.60,10.00,null,SCT,null,null,null,800.00,null,null,null,null,null,null,null,null,null,null,62.00,KSBA 291653Z 24004KT 10SM SCT008 17/13 A2999 RMK AO2 SLP156 T01670128 $,null
SBA,2025-06-29 10:53,-119.8436,34.4261,3.00,64.00,56.00,75.22,210.00,7.00,0.00,29.99,1015.50,10.00,null,FEW,null,null,null,800.00,null,null,null,null,null,null,null,null,null,null,64.00,KSBA 291753Z 21007KT 10SM FEW008 18/13 A2999 RMK AO2 SLP155 T01780133 10183 20139 58001 $,null
SBA,2025-06-29 11:53,-119.8436,34.4261,3.00,65.00,56.00,72.64,240.00,8.00,0.00,29.98,1015.30,10.00,null,FEW,null,null,null,800.00,null,null,null,null,null,null,null,null,null,null,65.00,KSBA 291853Z 24008KT 10SM FEW008 18/13 A2998 RMK AO2 SLP153 T01830133 $,null
SBA,2025-06-29 12:53,-119.8436,34.4261,3.00,65.00,56.00,72.64,250.00,9.00,0.00,29.98,1015.20,10.00,null,FEW,null,null,null,800.00,null,null,null,null,null,null,null,null,null,null,65.00,KSBA 291953Z 25009KT 10SM FEW008 18/13 A2998 RMK AO2 SLP152 T01830133 $,null
SBA,2025-06-29 13:53,-119.8436,34.4261,3.00,65.00,55.00,70.05,230.00,9.00,0.00,29.97,1014.70,10.00,null,FEW,null,null,null,400.00,null,null,null,null,null,null,null,null,null,null,65.00,KSBA 292053Z 23009KT 10SM FEW004 18/13 A2997 RMK AO2 SLP147 T01830128 58007 $,null
SBA,2025-06-29 14:53,-119.8436,34.4261,3.00,66.00,55.00,67.66,240.00,10.00,0.00,29.94,1014.00,10.00,null,CLR,null,null,null,null,null,null,null,null,null,null,null,null,null,null,66.00,KSBA 292153Z 24010KT 10SM CLR 19/13 A2994 RMK AO2 SLP140 T01890128 $,null
SBA,2025-06-29 15:53,-119.8436,34.4261,3.00,67.00,56.00,67.78,270.00,9.00,0.00,29.94,1013.70,10.00,null,CLR,null,null,null,null,null,null,null,null,null,null,null,null,null,null,67.00,KSBA 292253Z 27009KT 10SM CLR 19/13 A2994 RMK AO2 SLP137 T01940133 $,null
SBA,2025-06-29 16:53,-119.8436,34.4261,3.00,67.00,57.00,70.27,260.00,9.00,0.00,29.92,1013.10,10.00,null,CLR,null,null,null,null,null,null,null,null,null,null,null,null,null,null,67.00,KSBA 292353Z 26009KT 10SM CLR 19/14 A2992 RMK AO2 SLP131 T01940139 10194 20178 56017 $,null
SBA,2025-06-29 17:53,-119.8436,34.4261,3.00,65.00,56.00,72.64,260.00,11.00,0.00,29.90,1012.60,10.00,null,CLR,null,null,null,null,null,null,null,null,null,null,null,null,null,null,65.00,KSBA 300053Z 26011KT 10SM CLR 18/13 A2990 RMK AO2 SLP126 T01830133 $,null
SBA,2025-06-29 18:53,-119.8436,34.4261,3.00,64.00,56.00,75.22,270.00,10.00,0.00,29.90,1012.50,10.00,null,CLR,null,null,null,null,null,null,null,null,null,null,null,null,null,null,64.00,KSBA 300153Z 27010KT 10SM CLR 18/13 A2990 RMK AO2 SLP125 T01780133 $,null
SBA,2025-06-29 19:53,-119.8436,34.4261,3.00,61.00,56.00,83.60,260.00,9.00,0.00,29.90,1012.30,10.00,null,CLR,null,null,null,null,null,null,null,null,null,null,null,null,null,null,61.00,KSBA 300253Z 26009KT 10SM CLR 16/13 A2990 RMK AO2 SLP123 T01610133 56008 $,null
SBA,2025-06-29 20:53,-119.8436,34.4261,3.00,59.00,55.00,86.57,260.00,5.00,0.00,29.89,1012.20,10.00,null,CLR,null,null,null,null,null,null,null,null,null,null,null,null,null,null,59.00,KSBA 300353Z 26005KT 10SM CLR 15/13 A2989 RMK AO2 SLP122 T01500128 $,null
SBA,2025-06-29 21:53,-119.8436,34.4261,3.00,59.00,56.00,89.77,270.00,6.00,0.00,29.91,1012.70,10.00,null,CLR,null,null,null,null,null,null,null,null,null,null,null,null,null,null,59.00,KSBA 300453Z 27006KT 10SM CLR 15/13 A2991 RMK AO2 SLP127 T01500133 $,null
SBA,2025-06-29 22:53,-119.8436,34.4261,3.00,58.00,55.00,89.73,300.00,3.00,0.00,29.91,1012.60,10.00,null,CLR,null,null,null,null,null,null,null,null,null,null,null,null,null,null,58.00,KSBA 300553Z 30003KT 10SM CLR 14/13 A2991 RMK AO2 SLP126 T01440128 10194 20144 53003 $,null
SBA,2025-06-29 23:53,-119.8436,34.4261,3.00,56.00,54.00,92.98,0.00,0.00,0.00,29.90,1012.40,10.00,null,CLR,null,null,null,null,null,null,null,null,null,null,null,null,null,null,56.00,KSBA 300653Z 00000KT 10SM CLR 13/12 A2990 RMK AO2 SLP124 T01330122 $,null
SBA,2025-06-30 00:45,-119.8436,34.4261,3.00,55.00,52.00,89.60,0.00,0.00,0.00,29.89,null,10.00,null,SCT,null,null,null,700.00,null,null,null,null,null,null,null,null,null,null,55.00,KSBA 300745Z 00000KT 10SM SCT007 13/11 A2989 RMK AO2 T01280111 $,null
SBA,2025-06-30 00:53,-119.8436,34.4261,3.00,54.00,52.00,92.92,0.00,0.00,0.00,29.89,1012.00,10.00,null,BKN,null,null,null,600.00,null,null,null,null,null,null,null,null,null,null,54.00,KSBA 300753Z 00000KT 10SM BKN006 12/11 A2989 RMK AO2 SLP120 T01220111 401940122 $,null
SBA,2025-06-30 01:53,-119.8436,34.4261,3.00,58.00,55.00,89.73,0.00,0.00,0.00,29.88,1011.80,10.00,null,OVC,null,null,null,600.00,null,null,null,null,null,null,null,null,null,null,58.00,KSBA 300853Z 00000KT 10SM OVC006 14/13 A2988 RMK AO2 SLP118 T01440128 57008 $,null
SBA,2025-06-30 02:53,-119.8436,34.4261,3.00,58.00,56.00,93.04,0.00,0.00,0.00,29.88,1011.70,9.00,null,OVC,null,null,null,500.00,null,null,null,null,null,null,null,null,null,null,58.00,KSBA 300953Z 00000KT 9SM OVC005 14/13 A2988 RMK AO2 SLP117 T01440133 $,null
SBA,2025-06-30 03:29,-119.8436,34.4261,3.00,58.00,56.00,93.04,0.00,0.00,0.00,29.88,null,7.00,null,OVC,null,null,null,400.00,null,null,null,null,null,null,null,null,null,null,58.00,KSBA 301029Z 00000KT 7SM OVC004 14/13 A2988 RMK AO2 T01440133 $,null
SBA,2025-06-30 03:53,-119.8436,34.4261,3.00,58.00,56.00,93.04,0.00,0.00,0.00,29.88,1011.90,6.00,null,OVC,null,null,null,400.00,null,null,null,BR,null,null,null,null,null,null,58.00,KSBA 301053Z 00000KT 6SM BR OVC004 14/13 A2988 RMK AO2 SLP119 T01440133 $,null
SBA,2025-06-30 04:53,-119.8436,34.4261,3.00,57.00,56.00,96.45,0.00,0.00,0.00,29.89,1012.10,7.00,null,OVC,null,null,null,400.00,null,null,null,null,null,null,null,null,null,null,57.00,KSBA 301153Z 00000KT 7SM OVC004 14/13 A2989 RMK AO2 SLP121 T01390133 10150 20122 53002 $,null
SBA,2025-06-30 05:53,-119.8436,34.4261,3.00,57.00,56.00,96.45,0.00,0.00,0.00,29.90,1012.40,5.00,null,OVC,null,null,null,300.00,null,null,null,BR,null,null,null,null,null,null,57.00,KSBA 301253Z 00000KT 5SM BR OVC003 14/13 A2990 RMK AO2 SLP124 T01390133 $,null
SBA,2025-06-30 06:02,-119.8436,34.4261,3.00,57.00,56.00,96.45,null,3.00,0.00,29.90,null,2.00,null,OVC,null,null,null,300.00,null,null,null,BR,null,null,null,null,null,null,57.00,KSBA 301302Z VRB03KT 2SM BR OVC003 14/13 A2990 RMK AO2 T01390133 $,null
SBA,2025-06-30 06:53,-119.8436,34.4261,3.00,57.00,56.00,96.45,130.00,3.00,0.00,29.91,1012.80,2.00,null,OVC,null,null,null,300.00,null,null,null,BR,null,null,null,null,null,null,57.00,KSBA 301353Z 13003KT 2SM BR OVC003 14/13 A2991 RMK AO2 SLP128 T01390133 $,null
SBA,2025-06-30 07:53,-119.8436,34.4261,3.00,57.00,55.00,93.01,0.00,0.00,0.00,29.92,1013.20,2.00,null,OVC,null,null,null,400.00,null,null,null,BR,null,null,null,null,null,null,57.00,KSBA 301453Z 00000KT 2SM BR OVC004 14/13 A2992 RMK AO2 SLP132 T01390128 53012,null
SBA,2025-06-30 08:49,-119.8436,34.4261,3.00,57.20,55.40,93.70,190.00,4.00,0.00,29.93,null,10.00,null,OVC,null,null,null,500.00,null,null,null,null,null,null,null,null,null,null,57.20,KSBA 301549Z 19004KT 10SM OVC005 14/13 A2993 RMK AO2,null
SBA,2025-06-30 08:53,-119.8436,34.4261,3.00,57.00,55.00,93.01,190.00,5.00,0.00,29.93,1013.50,5.00,null,OVC,null,null,null,300.00,null,null,null,BR,null,null,null,null,null,null,57.00,KSBA 301553Z COR 19005KT 5SM BR OVC003 14/13 A2993 RMK AO2 SLP135 T01390128,null
SBA,2025-06-30 09:01,-119.8436,34.4261,3.00,57.00,55.00,93.01,200.00,3.00,0.00,29.93,null,5.00,null,OVC,null,null,null,300.00,null,null,null,BR,null,null,null,null,null,null,57.00,KSBA 301601Z 20003KT 5SM BR OVC003 14/13 A2993 RMK AO2 T01390128,null
SBA,2025-06-30 09:53,-119.8436,34.4261,3.00,59.00,55.00,86.57,200.00,5.00,0.00,29.93,1013.40,10.00,null,OVC,null,null,null,600.00,null,null,null,null,null,null,null,null,null,null,59.00,KSBA 301653Z 20005KT 10SM OVC006 15/13 A2993 RMK AO2 SLP134 T01500128,null
SBA,2025-06-30 10:53,-119.8436,34.4261,3.00,61.00,55.00,80.62,190.00,6.00,0.00,29.93,1013.50,8.00,null,BKN,null,null,null,600.00,null,null,null,null,null,null,null,null,null,null,61.00,KSBA 301753Z 19006KT 8SM BKN006 16/13 A2993 RMK AO2 SLP135 T01610128 10167 20139 51002,null
SBA,2025-06-30 11:53,-119.8436,34.4261,3.00,62.00,55.00,77.82,null,6.00,0.00,29.93,1013.30,8.00,null,BKN,null,null,null,600.00,null,null,null,null,null,null,null,null,null,null,62.00,KSBA 301853Z VRB06KT 8SM BKN006 17/13 A2993 RMK AO2 SLP133 T01670128,null
SBA,2025-06-30 12:27,-119.8436,34.4261,3.00,63.00,56.00,77.91,230.00,7.00,0.00,29.92,null,10.00,null,SCT,null,null,null,900.00,null,null,null,null,null,null,null,null,null,null,63.00,KSBA 301927Z 23007KT 10SM SCT009 17/13 A2992 RMK AO2 FG BNK ALNG SHRLINE E-W T01720133,null
SBA,2025-06-30 12:53,-119.8436,34.4261,3.00,64.00,56.00,75.22,240.00,7.00,0.00,29.91,1012.90,10.00,null,SCT,null,null,null,600.00,null,null,null,null,null,null,null,null,null,null,64.00,KSBA 301953Z 24007KT 10SM SCT006 18/13 A2991 RMK AO2 SLP129 FG BNK ALNG SHRLINE E-W T01780133 $,null
SBA,2025-06-30 13:53,-119.8436,34.4261,3.00,65.00,56.00,72.64,250.00,9.00,0.00,29.90,1012.50,10.00,null,SCT,null,null,null,600.00,null,null,null,null,null,null,null,null,null,null,65.00,KSBA 302053Z 25009KT 10SM SCT006 18/13 A2990 RMK AO2 SLP125 FOG BANK ALNG SHRLINE E-W T01830133 58010 $,null
SBA,2025-06-30 14:53,-119.8436,34.4261,3.00,65.00,56.00,72.64,240.00,8.00,0.00,29.89,1012.30,10.00,null,SCT,null,null,null,400.00,null,null,null,null,null,null,null,null,null,null,65.00,KSBA 302153Z 24008KT 10SM SCT004 18/13 A2989 RMK AO2 SLP123 FG BNK ALNG SHRLN E-W T01830133 $,null
SBA,2025-06-30 15:53,-119.8436,34.4261,3.00,66.00,56.00,70.16,250.00,9.00,0.00,29.89,1012.00,10.00,null,CLR,null,null,null,null,null,null,null,null,null,null,null,null,null,null,66.00,KSBA 302253Z 25009KT 10SM CLR 19/13 A2989 RMK AO2 SLP120 T01890133 $,null
SBA,2025-06-30 16:53,-119.8436,34.4261,3.00,66.00,57.00,72.74,260.00,9.00,0.00,29.88,1011.80,10.00,null,CLR,null,null,null,null,null,null,null,null,null,null,null,null,null,null,66.00,KSBA 302353Z 26009KT 10SM CLR 19/14 A2988 RMK AO2 SLP118 T01890139 10194 20156 58007 $,null
SBA,2025-06-30 17:53,-119.8436,34.4261,3.00,64.00,56.00,75.22,260.00,13.00,0.00,29.86,1011.20,10.00,null,CLR,null,null,null,null,null,null,null,null,null,null,null,null,null,null,64.00,KSBA 010053Z 26013KT 10SM CLR 18/13 A2986 RMK AO2 SLP112 T01780133 $,null
SBA,2025-06-30 18:53,-119.8436,34.4261,3.00,62.00,56.00,80.70,260.00,12.00,0.00,29.85,1010.80,10.00,null,CLR,null,null,null,null,null,null,null,null,null,null,null,null,null,null,62.00,KSBA 010153Z 26012KT 10SM CLR 17/13 A2985 RMK AO2 SLP108 T01670133 $,null
SBA,2025-06-30 19:53,-119.8436,34.4261,3.00,61.00,56.00,83.60,260.00,8.00,0.00,29.85,1010.90,10.00,null,CLR,null,null,null,null,null,null,null,null,null,null,null,null,null,null,61.00,KSBA 010253Z 26008KT 10SM CLR 16/13 A2985 RMK AO2 SLP109 T01610133 55009 $,null
SBA,2025-06-30 20:53,-119.8436,34.4261,3.00,59.00,56.00,89.77,270.00,6.00,0.00,29.85,1010.80,10.00,null,CLR,null,null,null,null,null,null,null,null,null,null,null,null,null,null,59.00,KSBA 010353Z 27006KT 10SM CLR 15/13 A2985 RMK AO2 SLP108 T01500133 $,null
SBA,2025-06-30 21:42,-119.8436,34.4261,3.00,59.00,56.00,89.77,260.00,6.00,0.00,29.86,null,10.00,null,BKN,null,null,null,800.00,null,null,null,null,null,null,null,null,null,null,59.00,KSBA 010442Z COR 26006KT 10SM BKN008 15/13 A2986 RMK AO2 T01500133 $,null
SBA,2025-06-30 21:45,-119.8436,34.4261,3.00,59.00,56.00,89.77,260.00,6.00,0.00,29.87,null,10.00,null,BKN,null,null,null,800.00,null,null,null,null,null,null,null,null,null,null,59.00,KSBA 010445Z 26006KT 10SM BKN008 15/13 A2987 RMK AO2 T01500133 $,null
SBA,2025-06-30 21:53,-119.8436,34.4261,3.00,59.00,56.00,89.77,270.00,5.00,0.00,29.86,1011.20,10.00,null,BKN,null,null,null,700.00,null,null,null,null,null,null,null,null,null,null,59.00,KSBA 010453Z 27005KT 10SM BKN007 15/13 A2986 RMK AO2 SLP112 T01500133 $,null
SBA,2025-06-30 22:53,-119.8436,34.4261,3.00,59.00,57.00,93.07,230.00,4.00,0.00,29.87,1011.40,9.00,null,OVC,null,null,null,700.00,null,null,null,null,null,null,null,null,null,null,59.00,KSBA 010553Z 23004KT 9SM OVC007 15/14 A2987 RMK AO2 SLP114 T01500139 10189 20150 53005 $,null
SBA,2025-06-30 23:53,-119.8436,34.4261,3.00,59.00,57.00,93.07,0.00,0.00,0.00,29.87,1011.30,9.00,null,OVC,null,null,null,600.00,null,null,null,null,null,null,null,null,null,null,59.00,KSBA 010653Z AUTO 00000KT 9SM OVC006 15/14 A2987 RMK AO2 SLP113 T01500139 $,null
SBA,2025-07-01 00:53,-119.8436,34.4261,3.00,59.00,56.00,89.77,0.00,0.00,0.00,29.86,1011.30,9.00,null,OVC,null,null,null,500.00,null,null,null,null,null,null,null,null,null,null,59.00,KSBA 010753Z AUTO 00000KT 9SM OVC005 15/13 A2986 RMK AO2 SLP113 T01500133 401940128 $,null
SBA,2025-07-01 01:53,-119.8436,34.4261,3.00,58.00,56.00,93.04,160.00,4.00,0.00,29.86,1011.00,7.00,null,OVC,null,null,null,500.00,null,null,null,null,null,null,null,null,null,null,58.00,KSBA 010853Z AUTO 16004KT 7SM OVC005 14/13 A2986 RMK AO2 SLP110 T01440133 58004 $,null
SBA,2025-07-01 02:03,-119.8436,34.4261,3.00,58.00,56.00,93.04,140.00,4.00,0.00,29.85,null,6.00,null,OVC,null,null,null,400.00,null,null,null,BR,null,null,null,null,null,null,58.00,KSBA 010903Z AUTO 14004KT 6SM BR OVC004 14/13 A2985 RMK AO2 T01440133 $,null
SBA,2025-07-01 02:53,-119.8436,34.4261,3.00,57.00,56.00,96.45,130.00,4.00,0.00,29.85,1010.90,5.00,null,OVC,null,null,null,300.00,null,null,null,BR,null,null,null,null,null,null,57.00,KSBA 010953Z AUTO 13004KT 5SM BR OVC003 14/13 A2985 RMK AO2 SLP109 T01390133 $,null
SBA,2025-07-01 03:53,-119.8436,34.4261,3.00,57.00,56.00,96.45,140.00,6.00,0.00,29.87,1011.30,4.00,null,OVC,null,null,null,200.00,null,null,null,BR,null,null,null,null,null,null,57.00,KSBA 011053Z AUTO 14006KT 4SM BR OVC002 14/13 A2987 RMK AO2 SLP113 T01390133 $,null
SBA,2025-07-01 04:22,-119.8436,34.4261,3.00,57.00,55.00,93.01,0.00,0.00,0.00,29.87,null,2.50,null,OVC,null,null,null,200.00,null,null,null,BR,null,null,null,null,null,null,57.00,KSBA 011122Z AUTO 00000KT 2 1/2SM BR OVC002 14/13 A2987 RMK AO2 T01390128 $,null
SBA,2025-07-01 04:40,-119.8436,34.4261,3.00,57.00,56.00,96.45,160.00,4.00,0.00,29.87,null,3.00,null,OVC,null,null,null,200.00,null,null,null,BR,null,null,null,null,null,null,57.00,KSBA 011140Z AUTO 16004KT 3SM BR OVC002 14/13 A2987 RMK AO2 T01390133 $,null
SBA,2025-07-01 04:48,-119.8436,34.4261,3.00,57.20,55.40,93.70,150.00,4.00,0.00,29.87,null,2.50,null,OVC,null,null,null,200.00,null,null,null,BR,null,null,null,null,null,null,57.20,KSBA 011148Z AUTO 15004KT 2 1/2SM BR OVC002 14/13 A2987 RMK AO2 $,null
SBA,2025-07-01 04:53,-119.8436,34.4261,3.00,57.00,56.00,96.45,140.00,5.00,0.00,29.87,1011.40,2.00,null,OVC,null,null,null,200.00,null,null,null,BR,null,null,null,null,null,null,57.00,KSBA 011153Z AUTO 14005KT 2SM BR OVC002 14/13 A2987 RMK AO2 SLP114 T01390133 10156 20139 50005 $,null
SBA,2025-07-01 05:10,-119.8436,34.4261,3.00,57.00,56.00,96.45,140.00,5.00,0.00,29.88,null,3.00,null,OVC,null,null,null,200.00,null,null,null,BR,null,null,null,null,null,null,57.00,KSBA 011210Z AUTO 14005KT 3SM BR OVC002 14/13 A2988 RMK AO2 T01390133 $,null
SBA,2025-07-01 05:53,-119.8436,34.4261,3.00,56.00,55.00,96.44,150.00,4.00,0.00,29.89,1012.10,3.00,null,OVC,null,null,null,300.00,null,null,null,BR,null,null,null,null,null,null,56.00,KSBA 011253Z 15004KT 3SM BR OVC003 13/13 A2989 RMK AO2 SLP121 T01330128 $,null
SBA,2025-07-01 06:53,-119.8436,34.4261,3.00,57.00,56.00,96.45,160.00,4.00,0.00,29.90,1012.50,3.00,null,OVC,null,null,null,300.00,null,null,null,BR,null,null,null,null,null,null,57.00,KSBA 011353Z 16004KT 3SM BR OVC003 14/13 A2990 RMK AO2 SLP125 T01390133 $,null
SBA,2025-07-01 07:53,-119.8436,34.4261,3.00,57.00,55.00,93.01,170.00,4.00,0.00,29.91,1012.90,3.00,null,OVC,null,null,null,400.00,null,null,null,BR,null,null,null,null,null,null,57.00,KSBA 011453Z 17004KT 3SM BR OVC004 14/13 A2991 RMK AO2 SLP129 T01390128 51014 $,null
SBA,2025-07-01 08:53,-119.8436,34.4261,3.00,57.00,55.00,93.01,180.00,4.00,0.00,29.91,1012.90,3.00,null,OVC,null,null,null,400.00,null,null,null,BR,null,null,null,null,null,null,57.00,KSBA 011553Z 18004KT 3SM BR OVC004 14/13 A2991 RMK AO2 SLP129 T01390128 $,null
SBA,2025-07-01 09:53,-119.8436,34.4261,3.00,58.00,55.00,89.73,null,4.00,0.00,29.91,1012.70,8.00,null,OVC,null,null,null,500.00,null,null,null,null,null,null,null,null,null,null,58.00,KSBA 011653Z VRB04KT 8SM OVC005 14/13 A2991 RMK AO2 SLP127 T01440128 $,null
SBA,2025-07-01 10:53,-119.8436,34.4261,3.00,61.00,55.00,80.62,200.00,6.00,0.00,29.91,1012.70,8.00,null,OVC,null,null,null,600.00,null,null,null,null,null,null,null,null,null,null,61.00,KSBA 011753Z 20006KT 8SM OVC006 16/13 A2991 RMK AO2 SLP127 T01610128 10161 20133 58002,null
SBA,2025-07-01 11:42,-119.8436,34.4261,3.00,63.00,55.00,75.13,210.00,5.00,0.00,29.91,null,10.00,null,SCT,null,null,null,700.00,null,null,null,null,null,null,null,null,null,null,63.00,KSBA 011842Z 21005KT 10SM SCT007 17/13 A2991 RMK AO2 T01720128,null
SBA,2025-07-01 11:53,-119.8436,34.4261,3.00,63.00,55.00,75.13,220.00,5.00,0.00,29.91,1012.70,10.00,null,SCT,null,null,null,700.00,null,null,null,null,null,null,null,null,null,null,63.00,KSBA 011853Z 22005KT 10SM SCT007 17/13 A2991 RMK AO2 SLP127 T01720128,null
SBA,2025-07-01 12:53,-119.8436,34.4261,3.00,64.00,55.00,72.54,190.00,8.00,0.00,29.90,1012.60,10.00,null,SCT,null,null,null,700.00,null,null,null,null,null,null,null,null,null,null,64.00,KSBA 011953Z 19008KT 10SM SCT007 18/13 A2990 RMK AO2 SLP126 T01780128,null
SBA,2025-07-01 13:53,-119.8436,34.4261,3.00,66.00,56.00,70.16,200.00,6.00,0.00,29.90,1012.60,10.00,null,FEW,null,null,null,1100.00,null,null,null,null,null,null,null,null,null,null,66.00,KSBA 012053Z 20006KT 10SM FEW011 19/13 A2990 RMK AO2 SLP126 FG BNK ALNG SHRLN T01890133 58001,null
SBA,2025-07-01 14:53,-119.8436,34.4261,3.00,65.00,56.00,72.64,190.00,8.00,0.00,29.89,1012.10,10.00,null,SCT,null,null,null,1200.00,null,null,null,null,null,null,null,null,null,null,65.00,KSBA 012153Z 19008KT 10SM SCT012 18/13 A2989 RMK AO2 SLP121 T01830133,null
SBA,2025-07-01 15:53,-119.8436,34.4261,3.00,66.00,57.00,72.74,220.00,9.00,0.00,29.87,1011.60,10.00,null,SCT,null,null,null,1000.00,null,null,null,null,null,null,null,null,null,null,66.00,KSBA 012253Z 22009KT 10SM SCT010 19/14 A2987 RMK AO2 SLP116 T01890139,null
SBA,2025-07-01 16:53,-119.8436,34.4261,3.00,65.00,56.00,72.64,240.00,9.00,0.00,29.85,1010.80,10.00,null,SCT,null,null,null,700.00,null,null,null,null,null,null,null,null,null,null,65.00,KSBA 012353Z 24009KT 10SM SCT007 18/13 A2985 RMK AO2 SLP108 FG BNK ALNG SHR LN E-W T01830133 10189 20161 58018 $,null
SBA,2025-07-01 17:53,-119.8436,34.4261,3.00,64.00,57.00,77.99,250.00,14.00,0.00,29.83,1010.00,10.00,null,CLR,null,null,null,null,null,null,null,null,null,null,null,null,null,null,64.00,KSBA 020053Z 25014KT 10SM CLR 18/14 A2983 RMK AO2 SLP100 MARINE LYR ALNG SHRLINE E-W T01780139 $,null
SBA,2025-07-01 18:53,-119.8436,34.4261,3.00,62.00,56.00,80.70,260.00,13.00,0.00,29.82,1009.60,10.00,null,CLR,null,null,null,null,null,null,null,null,null,null,null,null,null,null,62.00,KSBA 020153Z COR 26013KT 10SM CLR 17/13 A2982 RMK AO2 SLP096 T01670133 $,null
SBA,2025-07-01 19:53,-119.8436,34.4261,3.00,61.00,56.00,83.60,260.00,10.00,0.00,29.81,1009.60,10.00,null,CLR,null,null,null,null,null,null,null,null,null,null,null,null,null,null,61.00,KSBA 020253Z 26010KT 10SM CLR 16/13 A2981 RMK AO2 SLP096 T01610133 56012 $,null
SBA,2025-07-01 20:53,-119.8436,34.4261,3.00,59.00,56.00,89.77,270.00,9.00,0.00,29.82,1009.70,10.00,null,FEW,null,null,null,700.00,null,null,null,null,null,null,null,null,null,null,59.00,KSBA 020353Z 27009KT 10SM FEW007 15/13 A2982 RMK AO2 SLP097 T01500133 $,null
SBA,2025-07-01 21:53,-119.8436,34.4261,3.00,59.00,56.00,89.77,0.00,0.00,0.00,29.82,1009.80,10.00,null,CLR,null,null,null,null,null,null,null,null,null,null,null,null,null,null,59.00,KSBA 020453Z 00000KT 10SM CLR 15/13 A2982 RMK AO2 SLP098 T01500133 $,null
SBA,2025-07-01 22:53,-119.8436,34.4261,3.00,59.00,56.00,89.77,80.00,5.00,0.00,29.83,1010.10,10.00,null,CLR,null,null,null,null,null,null,null,null,null,null,null,null,null,null,59.00,KSBA 020553Z AUTO 08005KT 10SM CLR 15/13 A2983 RMK AO2 SLP101 T01500133 10194 20144 53005 $,null
SBA,2025-07-01 23:53,-119.8436,34.4261,3.00,59.00,56.00,89.77,80.00,4.00,0.00,29.83,1010.10,9.00,null,FEW,null,null,null,700.00,null,null,null,null,null,null,null,null,null,null,59.00,KSBA 020653Z AUTO 08004KT 9SM FEW007 15/13 A2983 RMK AO2 SLP101 T01500133 $,null
SBA,2025-07-02 00:08,-119.8436,34.4261,3.00,59.00,56.00,89.77,80.00,6.00,0.00,29.83,null,9.00,null,BKN,null,null,null,800.00,null,null,null,null,null,null,null,null,null,null,59.00,KSBA 020708Z AUTO 08006KT 9SM BKN008 15/13 A2983 RMK AO2 T01500133 $,null
SBA,2025-07-02 00:53,-119.8436,34.4261,3.00,60.00,57.00,89.81,90.00,7.00,0.00,29.83,1010.10,9.00,null,OVC,null,null,null,700.00,null,null,null,null,null,null,null,null,null,null,60.00,KSBA 020753Z AUTO 09007KT 9SM OVC007 16/14 A2983 RMK AO2 SLP101 T01560139 401940133 $,null
SBA,2025-07-02 01:53,-119.8436,34.4261,3.00,59.00,56.00,89.77,80.00,8.00,0.00,29.83,1010.20,9.00,null,OVC,null,null,null,700.00,null,null,null,null,null,null,null,null,null,null,59.00,KSBA 020853Z AUTO 08008KT 9SM OVC007 15/13 A2983 RMK AO2 SLP102 T01500133 52001 $,null
SBA,2025-07-02 07:53,-119.8436,34.4261,3.00,57.20,55.40,93.70,0.00,0.00,0.00,29.88,null,6.00,null,OVC,null,null,null,600.00,null,null,null,null,null,null,null,null,null,null,57.20,KSBA 021453Z AUTO 000000KT 6SM OVC006 14/13 A2988,null
SBA,2025-07-02 08:53,-119.8436,34.4261,3.00,59.00,55.40,87.84,0.00,0.00,0.00,29.89,null,6.00,null,OVC,null,null,null,700.00,null,null,null,null,null,null,null,null,null,null,59.00,KSBA 021553Z AUTO 000000KT 6SM OVC007 15/13 A2989,null
SBA,2025-07-02 09:53,-119.8436,34.4261,3.00,60.00,56.00,86.62,160.00,6.00,0.00,29.90,1012.30,7.00,null,OVC,null,null,null,800.00,null,null,null,null,null,null,null,null,null,null,60.00,KSBA 021653Z 16006KT 7SM OVC008 16/13 A2990 RMK AO2 SLP123 T01560133 $,null
SBA,2025-07-02 10:53,-119.8436,34.4261,3.00,62.00,56.00,80.70,170.00,7.00,0.00,29.91,1012.60,10.00,null,OVC,null,null,null,800.00,null,null,null,null,null,null,null,null,null,null,62.00,KSBA 021753Z 17007KT 10SM OVC008 17/13 A2991 RMK AO2 SLP126 T01670133 10167 20139 51010 $,null
SBA,2025-07-02 11:30,-119.8436,34.4261,3.00,64.00,57.00,77.99,170.00,6.00,0.00,29.91,null,10.00,null,OVC,null,null,null,1200.00,null,null,null,null,null,null,null,null,null,null,64.00,KSBA 021830Z 17006KT 10SM OVC012 18/14 A2991 RMK AO2 T01780139 $,null
SBA,2025-07-02 11:53,-119.8436,34.4261,3.00,66.00,57.00,72.74,150.00,6.00,0.00,29.90,1012.60,10.00,null,OVC,null,null,null,1300.00,null,null,null,null,null,null,null,null,null,null,66.00,KSBA 021853Z 15006KT 10SM OVC013 19/14 A2990 RMK AO2 SLP126 T01890139 $,null
SBA,2025-07-02 12:27,-119.8436,34.4261,3.00,66.00,57.00,72.74,180.00,7.00,0.00,29.90,null,10.00,null,SCT,null,null,null,1300.00,null,null,null,null,null,null,null,null,null,null,66.00,KSBA 021927Z 18007KT 10SM SCT013 19/14 A2990 RMK AO2 T01890139 $,null
SBA,2025-07-02 12:53,-119.8436,34.4261,3.00,68.00,57.00,67.89,220.00,7.00,0.00,29.91,1012.60,10.00,null,SCT,null,null,null,1300.00,null,null,null,null,null,null,null,null,null,null,68.00,KSBA 021953Z 22007KT 10SM SCT013 20/14 A2991 RMK AO2 SLP126 T02000139 $,null
SBA,2025-07-02 13:53,-119.8436,34.4261,3.00,67.00,57.00,70.27,200.00,5.00,0.00,29.89,1012.00,10.00,null,SCT,null,null,null,1300.00,null,null,null,null,null,null,null,null,null,null,67.00,KSBA 022053Z 20005KT 10SM SCT013 19/14 A2989 RMK AO2 SLP120 T01940139 58007 $,null
SBA,2025-07-02 14:53,-119.8436,34.4261,3.00,67.00,57.00,70.27,240.00,7.00,0.00,29.88,1011.70,10.00,null,CLR,null,null,null,null,null,null,null,null,null,null,null,null,null,null,67.00,KSBA 022153Z 24007KT 10SM CLR 19/14 A2988 RMK AO2 SLP117 T01940139 $,null
SBA,2025-07-02 15:53,-119.8436,34.4261,3.00,67.00,57.00,70.27,260.00,11.00,0.00,29.86,1011.20,10.00,null,SCT,null,null,null,1500.00,null,null,null,null,null,null,null,null,null,null,67.00,KSBA 022253Z 26011KT 10SM SCT015 19/14 A2986 RMK AO2 SLP112 T01940139 $,null
SBA,2025-07-02 16:53,-119.8436,34.4261,3.00,63.00,56.00,77.91,260.00,11.00,0.00,29.84,1010.60,10.00,null,BKN,null,null,null,1200.00,null,null,null,null,null,null,null,null,null,null,63.00,KSBA 022353Z 26011KT 10SM BKN012 17/13 A2984 RMK AO2 SLP106 T01720133 10206 20167 58014 $,null
SBA,2025-07-02 17:53,-119.8436,34.4261,3.00,61.00,56.00,83.60,240.00,9.00,0.00,29.83,1010.00,10.00,null,BKN,null,null,null,800.00,null,null,null,null,null,null,null,null,null,null,61.00,KSBA 030053Z 24009KT 10SM BKN008 16/13 A2983 RMK AO2 SLP100 T01610133 $,null
SBA,2025-07-02 18:27,-119.8436,34.4261,3.00,62.00,56.00,80.70,250.00,5.00,0.00,29.82,null,10.00,null,SCT,null,null,null,800.00,null,null,null,null,null,null,null,null,null,null,62.00,KSBA 030127Z 25005KT 10SM SCT008 17/13 A2982 RMK AO2 T01670133 $,null
SBA,2025-07-02 18:53,-119.8436,34.4261,3.00,63.00,56.00,77.91,170.00,3.00,0.00,29.81,1009.60,10.00,null,CLR,null,null,null,null,null,null,null,null,null,null,null,null,null,null,63.00,KSBA 030153Z 17003KT 10SM CLR 17/13 A2981 RMK AO2 SLP096 T01720133 $,null
SBA,2025-07-02 19:53,-119.8436,34.4261,3.00,60.00,56.00,86.62,140.00,7.00,0.00,29.83,1010.10,10.00,null,CLR,null,null,null,null,null,null,null,null,null,null,null,null,null,null,60.00,KSBA 030253Z 14007KT 10SM CLR 16/13 A2983 RMK AO2 SLP101 T01560133 55005 $,null
SBA,2025-07-02 20:02,-119.8436,34.4261,3.00,60.00,56.00,86.62,140.00,7.00,0.00,29.83,null,10.00,null,SCT,null,null,null,800.00,null,null,null,null,null,null,null,null,null,null,60.00,KSBA 030302Z 14007KT 10SM SCT008 16/13 A2983 RMK AO2 T01560133 $,null
SBA,2025-07-02 20:53,-119.8436,34.4261,3.00,59.00,56.00,89.77,110.00,8.00,0.00,29.84,1010.40,10.00,null,BKN,null,null,null,800.00,null,null,null,null,null,null,null,null,null,null,59.00,KSBA 030353Z 11008KT 10SM BKN008 15/13 A2984 RMK AO2 SLP104 T01500133 $,null
SBA,2025-07-02 21:53,-119.8436,34.4261,3.00,60.00,57.00,89.81,90.00,10.00,0.00,29.85,1010.70,10.00,null,OVC,null,null,null,600.00,null,null,null,null,null,null,null,null,null,null,60.00,KSBA 030453Z 09010KT 10SM OVC006 16/14 A2985 RMK AO2 SLP107 T01560139 $,null
SBA,2025-07-02 22:53,-119.8436,34.4261,3.00,60.00,57.00,89.81,90.00,7.00,0.00,29.86,1011.00,10.00,null,OVC,null,null,null,600.00,null,null,null,null,null,null,null,null,null,null,60.00,KSBA 030553Z AUTO 09007KT 10SM OVC006 16/14 A2986 RMK AO2 SLP110 T01560139 10178 20150 51009 $,null
SBA,2025-07-02 23:53,-119.8436,34.4261,3.00,60.00,57.00,89.81,90.00,8.00,0.00,29.86,1011.10,8.00,null,OVC,null,null,null,500.00,null,null,null,null,null,null,null,null,null,null,60.00,KSBA 030653Z AUTO 09008KT 8SM OVC005 16/14 A2986 RMK AO2 SLP111 T01560139 $,null
SBA,2025-07-03 00:53,-119.8436,34.4261,3.00,60.00,57.00,89.81,90.00,8.00,0.00,29.86,1011.10,9.00,null,OVC,null,null,null,600.00,null,null,null,null,null,null,null,null,null,null,60.00,KSBA 030753Z AUTO 09008KT 9SM OVC006 16/14 A2986 RMK AO2 SLP111 T01560139 402060139 $,null
SBA,2025-07-03 01:53,-119.8436,34.4261,3.00,60.00,57.00,89.81,90.00,7.00,0.00,29.87,1011.30,8.00,null,OVC,null,null,null,600.00,null,null,null,null,null,null,null,null,null,null,60.00,KSBA 030853Z AUTO 09007KT 8SM OVC006 16/14 A2987 RMK AO2 SLP113 T01560139 53003 $,null
SBA,2025-07-03 02:53,-119.8436,34.4261,3.00,60.00,58.00,93.10,90.00,5.00,0.00,29.86,1011.20,7.00,null,OVC,null,null,null,600.00,null,null,null,null,null,null,null,null,null,null,60.00,KSBA 030953Z AUTO 09005KT 7SM OVC006 16/14 A2986 RMK AO2 SLP112 T01560144 $,null
SBA,2025-07-03 03:53,-119.8436,34.4261,3.00,60.00,57.00,89.81,90.00,4.00,0.00,29.86,1011.00,9.00,null,OVC,null,null,null,600.00,null,null,null,null,null,null,null,null,null,null,60.00,KSBA 031053Z AUTO 09004KT 9SM OVC006 16/14 A2986 RMK AO2 SLP110 T01560139 $,null
SBA,2025-07-03 04:53,-119.8436,34.4261,3.00,61.00,57.00,86.68,40.00,3.00,0.00,29.87,1011.40,9.00,null,OVC,null,null,null,700.00,null,null,null,null,null,null,null,null,null,null,61.00,KSBA 031153Z AUTO 04003KT 9SM OVC007 16/14 A2987 RMK AO2 SLP114 T01610139 10161 20156 53001 $,null
SBA,2025-07-03 05:53,-119.8436,34.4261,3.00,60.00,57.00,89.81,40.00,5.00,0.00,29.88,1011.70,4.00,null,OVC,null,null,null,900.00,null,null,null,BR,null,null,null,null,null,null,60.00,KSBA 031253Z 04005KT 4SM BR OVC009 16/14 A2988 RMK AO2 SLP117 T01560139 $,null
SBA,2025-07-03 06:53,-119.8436,34.4261,3.00,61.00,57.00,86.68,40.00,5.00,0.00,29.90,1012.30,4.00,null,OVC,null,null,null,700.00,null,null,null,BR,null,null,null,null,null,null,61.00,KSBA 031353Z 04005KT 4SM BR OVC007 16/14 A2990 RMK AO2 SLP123 T01610139 $,null
SBA,2025-07-03 07:53,-119.8436,34.4261,3.00,63.00,57.00,80.77,30.00,5.00,0.00,29.90,1012.50,4.00,null,OVC,null,null,null,1100.00,null,null,null,BR,null,null,null,null,null,null,63.00,KSBA 031453Z COR 03005KT 4SM BR OVC011 17/14 A2990 RMK AO2 SLP125 VCFU T01720139 51011,null
SBA,2025-07-03 08:53,-119.8436,34.4261,3.00,64.00,57.00,77.99,70.00,5.00,0.00,29.92,1013.10,4.00,null,OVC,null,null,null,1300.00,null,null,null,BR,null,null,null,null,null,null,64.00,KSBA 031553Z 07005KT 4SM BR OVC013 18/14 A2992 RMK AO2 SLP131 VCFU T01780139,null
SBA,2025-07-03 09:53,-119.8436,34.4261,3.00,66.00,58.00,75.41,110.00,5.00,0.00,29.92,1013.20,5.00,null,OVC,null,null,null,1600.00,null,null,null,BR,null,null,null,null,null,null,66.00,KSBA 031653Z 11005KT 5SM BR OVC016 19/14 A2992 RMK AO2 SLP132 T01890144,null
SBA,2025-07-03 10:53,-119.8436,34.4261,3.00,67.00,58.00,72.85,130.00,6.00,0.00,29.93,1013.50,10.00,null,OVC,null,null,null,1800.00,null,null,null,BR,null,null,null,null,null,null,67.00,KSBA 031753Z 13006KT 10SM BR OVC018 19/14 A2993 RMK AO2 SLP135 T01940144 10194 20156 51010,null
SBA,2025-07-03 11:32,-119.8436,34.4261,3.00,69.00,58.00,68.01,160.00,8.00,0.00,29.93,null,6.00,null,SCT,null,null,null,1700.00,null,null,null,HZ,null,null,null,null,null,null,69.00,KSBA 031832Z 16008KT 6SM HZ SCT017 21/14 A2993 RMK AO2 T02060144,null
SBA,2025-07-03 11:53,-119.8436,34.4261,3.00,69.00,58.00,68.01,170.00,8.00,0.00,29.93,1013.60,6.00,null,SCT,null,null,null,2000.00,null,null,null,HZ,null,null,null,null,null,null,69.00,KSBA 031853Z 17008KT 6SM HZ SCT020 21/14 A2993 RMK AO2 SLP136 T02060144,null
SBA,2025-07-03 12:53,-119.8436,34.4261,3.00,69.00,58.00,68.01,160.00,8.00,0.00,29.93,1013.40,6.00,null,CLR,null,null,null,null,null,null,null,HZ,null,null,null,null,null,null,69.00,KSBA 031953Z 16008KT 6SM HZ CLR 21/14 A2993 RMK AO2 SLP134 T02060144,null
SBA,2025-07-03 13:53,-119.8436,34.4261,3.00,71.00,59.00,65.84,210.00,7.00,0.00,29.93,1013.30,6.00,null,CLR,null,null,null,null,null,null,null,HZ,null,null,null,null,null,null,71.00,KSBA 032053Z 21007KT 6SM HZ CLR 22/15 A2993 RMK AO2 SLP133 T02170150 58001 $,null
SBA,2025-07-03 14:53,-119.8436,34.4261,3.00,71.00,59.00,65.84,240.00,9.00,0.00,29.93,1013.30,6.00,null,CLR,null,null,null,null,null,null,null,HZ,null,null,null,null,null,null,71.00,KSBA 032153Z 24009KT 6SM HZ CLR 22/15 A2993 RMK AO2 SLP133 T02170150 $,null
SBA,2025-07-03 15:53,-119.8436,34.4261,3.00,69.00,59.00,70.49,260.00,8.00,0.00,29.91,1012.90,6.00,null,CLR,null,null,null,null,null,null,null,HZ,null,null,null,null,null,null,69.00,KSBA 032253Z 26008KT 6SM HZ CLR 21/15 A2991 RMK AO2 SLP129 T02060150 $,null
SBA,2025-07-03 16:53,-119.8436,34.4261,3.00,69.00,58.00,68.01,260.00,12.00,0.00,29.92,1013.00,10.00,null,CLR,null,null,null,null,null,null,null,HZ,null,null,null,null,null,null,69.00,KSBA 032353Z 26012KT 10SM HZ CLR 21/14 A2992 RMK AO2 SLP130 T02060144 10217 20194 55003 $,null
SBA,2025-07-03 17:53,-119.8436,34.4261,3.00,68.00,58.00,70.38,260.00,9.00,0.00,29.90,1012.60,10.00,null,CLR,null,null,null,null,null,null,null,HZ,null,null,null,null,null,null,68.00,KSBA 040053Z 26009KT 10SM HZ CLR 20/14 A2990 RMK AO2 SLP126 T02000144 $,null
SBA,2025-07-03 18:53,-119.8436,34.4261,3.00,64.00,57.00,77.99,260.00,10.00,0.00,29.91,1012.90,8.00,null,CLR,null,null,null,null,null,null,null,HZ,null,null,null,null,null,null,64.00,KSBA 040153Z 26010KT 8SM HZ CLR 18/14 A2991 RMK AO2 SLP129 T01780139 $,null
SBA,2025-07-03 19:53,-119.8436,34.4261,3.00,63.00,57.00,80.77,260.00,6.00,0.00,29.91,1012.90,9.00,null,CLR,null,null,null,null,null,null,null,HZ,null,null,null,null,null,null,63.00,KSBA 040253Z 26006KT 9SM HZ CLR 17/14 A2991 RMK AO2 SLP129 T01720139 56001 $,null
SBA,2025-07-03 20:53,-119.8436,34.4261,3.00,61.00,57.00,86.68,230.00,3.00,0.00,29.92,1013.20,10.00,null,CLR,null,null,null,null,null,null,null,null,null,null,null,null,null,null,61.00,KSBA 040353Z 23003KT 10SM CLR 16/14 A2992 RMK AO2 SLP132 T01610139 $,null
SBA,2025-07-03 21:53,-119.8436,34.4261,3.00,59.00,57.00,93.07,150.00,3.00,0.00,29.94,1013.90,8.00,null,CLR,null,null,null,null,null,null,null,null,null,null,null,null,null,null,59.00,KSBA 040453Z 15003KT 8SM CLR 15/14 A2994 RMK AO2 SLP139 T01500139 $,null
SBA,2025-07-03 22:53,-119.8436,34.4261,3.00,58.00,57.00,96.47,130.00,4.00,0.00,29.95,1014.30,7.00,null,CLR,null,null,null,null,null,null,null,null,null,null,null,null,null,null,58.00,KSBA 040553Z AUTO 13004KT 7SM CLR 14/14 A2995 RMK AO2 SLP143 T01440139 10206 20144 52014 $,null
SBA,2025-07-03 23:13,-119.8436,34.4261,3.00,59.00,56.00,89.77,120.00,3.00,0.00,29.96,null,8.00,null,SCT,null,null,null,700.00,null,null,null,null,null,null,null,null,null,null,59.00,KSBA 040613Z AUTO 12003KT 8SM SCT007 15/13 A2996 RMK AO2 T01500133 $,null
SBA,2025-07-03 23:22,-119.8436,34.4261,3.00,59.00,57.00,93.07,120.00,4.00,0.00,29.96,null,8.00,null,BKN,null,null,null,700.00,null,null,null,null,null,null,null,null,null,null,59.00,KSBA 040622Z AUTO 12004KT 8SM BKN007 15/14 A2996 RMK AO2 T01500139 $,null
SBA,2025-07-03 23:53,-119.8436,34.4261,3.00,60.00,57.00,89.81,110.00,4.00,0.00,29.96,1014.60,8.00,null,OVC,null,null,null,600.00,null,null,null,null,null,null,null,null,null,null,60.00,KSBA 040653Z AUTO 11004KT 8SM OVC006 16/14 A2996 RMK AO2 SLP146 T01560139 $,null
SBA,2025-07-04 00:53,-119.8436,34.4261,3.00,59.00,57.00,93.07,130.00,5.00,0.00,29.97,1014.70,7.00,null,OVC,null,null,null,500.00,null,null,null,null,null,null,null,null,null,null,59.00,KSBA 040753Z AUTO 13005KT 7SM OVC005 15/14 A2997 RMK AO2 SLP147 T01500139 402170144 $,null
SBA,2025-07-04 01:06,-119.8436,34.4261,3.00,59.00,57.00,93.07,110.00,5.00,0.00,29.97,null,6.00,null,OVC,null,null,null,400.00,null,null,null,BR,null,null,null,null,null,null,59.00,KSBA 040806Z AUTO 11005KT 6SM BR OVC004 15/14 A2997 RMK AO2 T01500139 $,null
SBA,2025-07-04 01:53,-119.8436,34.4261,3.00,59.00,57.00,93.07,110.00,5.00,0.00,29.97,1014.80,6.00,null,OVC,null,null,null,400.00,null,null,null,BR,null,null,null,null,null,null,59.00,KSBA 040853Z AUTO 11005KT 6SM BR OVC004 15/14 A2997 RMK AO2 SLP148 T01500139 51005 $,null
SBA,2025-07-04 02:53,-119.8436,34.4261,3.00,58.00,56.00,93.04,140.00,5.00,0.00,29.97,1014.80,6.00,null,OVC,null,null,null,300.00,null,null,null,BR,null,null,null,null,null,null,58.00,KSBA 040953Z AUTO 14005KT 6SM BR OVC003 14/13 A2997 RMK AO2 SLP148 T01440133 $,null
SBA,2025-07-04 03:53,-119.8436,34.4261,3.00,58.00,57.00,96.47,0.00,0.00,0.00,29.97,1014.80,5.00,null,OVC,null,null,null,300.00,null,null,null,BR,null,null,null,null,null,null,58.00,KSBA 041053Z AUTO 00000KT 5SM BR OVC003 14/14 A2997 RMK AO2 SLP148 T01440139 $,null
SBA,2025-07-04 04:46,-119.8436,34.4261,3.00,58.00,57.00,96.47,0.00,0.00,0.00,29.98,null,6.00,null,OVC,null,null,null,500.00,null,null,null,BR,null,null,null,null,null,null,58.00,KSBA 041146Z AUTO 00000KT 6SM BR OVC005 14/14 A2998 RMK AO2 CIG 003V006 T01440139 $,null
SBA,2025-07-04 04:53,-119.8436,34.4261,3.00,58.00,57.00,96.47,0.00,0.00,0.00,29.98,1015.30,4.00,null,OVC,null,null,null,500.00,null,null,null,BR,null,null,null,null,null,null,58.00,KSBA 041153Z AUTO 00000KT 4SM BR OVC005 14/14 A2998 RMK AO2 SLP153 T01440139 10156 20144 53005 $,null
SBA,2025-07-04 05:53,-119.8436,34.4261,3.00,59.00,57.00,93.07,0.00,0.00,0.00,29.99,1015.60,9.00,null,OVC,null,null,null,600.00,null,null,null,null,null,null,null,null,null,null,59.00,KSBA 041253Z AUTO 00000KT 9SM OVC006 15/14 A2999 RMK AO2 SLP156 T01500139 $,null
SBA,2025-07-04 06:53,-119.8436,34.4261,3.00,59.00,57.00,93.07,30.00,4.00,0.00,30.01,1016.10,4.00,null,OVC,null,null,null,700.00,null,null,null,BR,null,null,null,null,null,null,59.00,KSBA 041353Z 03004KT 4SM BR OVC007 15/14 A3001 RMK AO2 SLP161 T01500139 $,null
SBA,2025-07-04 07:53,-119.8436,34.4261,3.00,59.00,57.00,93.07,150.00,3.00,0.00,30.02,1016.60,7.00,null,OVC,null,null,null,600.00,null,null,null,null,null,null,null,null,null,null,59.00,KSBA 041453Z 15003KT 7SM OVC006 15/14 A3002 RMK AO2 SLP166 T01500139 53013 $,null
SBA,2025-07-04 08:53,-119.8436,34.4261,3.00,61.00,57.00,86.68,0.00,0.00,0.00,30.04,1017.10,10.00,null,OVC,null,null,null,700.00,null,null,null,null,null,null,null,null,null,null,61.00,KSBA 041553Z 00000KT 10SM OVC007 16/14 A3004 RMK AO2 SLP171 T01610139 $,null
SBA,2025-07-04 09:53,-119.8436,34.4261,3.00,62.00,57.00,83.67,290.00,4.00,0.00,30.04,1017.20,10.00,null,BKN,OVC,null,null,600.00,900.00,null,null,null,null,null,null,null,null,null,62.00,KSBA 041653Z COR 29004KT 10SM BKN006 OVC009 17/14 A3004 RMK AO2 SLP172 T01670139 $,null
SBA,2025-07-04 10:53,-119.8436,34.4261,3.00,64.00,58.00,80.85,null,5.00,0.00,30.04,1017.40,10.00,null,BKN,OVC,null,null,600.00,900.00,null,null,null,null,null,null,null,null,null,64.00,KSBA 041753Z VRB05KT 10SM BKN006 OVC009 18/14 A3004 RMK AO2 SLP174 T01780144 10183 20144 51008 $,null
SBA,2025-07-04 11:53,-119.8436,34.4261,3.00,66.00,58.00,75.41,240.00,7.00,0.00,30.06,1017.70,10.00,null,BKN,null,null,null,600.00,null,null,null,null,null,null,null,null,null,null,66.00,KSBA 041853Z 24007KT 10SM BKN006 19/14 A3006 RMK AO2 SLP177 T01890144 $,null
SBA,2025-07-04 12:53,-119.8436,34.4261,3.00,66.00,58.00,75.41,220.00,8.00,0.00,30.05,1017.70,10.00,null,BKN,BKN,null,null,600.00,1100.00,null,null,null,null,null,null,null,null,null,66.00,KSBA 041953Z 22008KT 10SM BKN006 BKN011 19/14 A3005 RMK AO2 SLP177 T01890144 $,null
SBA,2025-07-04 13:42,-119.8436,34.4261,3.00,67.00,58.00,72.85,250.00,9.00,0.00,30.05,null,10.00,null,SCT,SCT,null,null,600.00,1100.00,null,null,null,null,null,null,null,null,null,67.00,KSBA 042042Z 25009KT 10SM SCT006 SCT011 19/14 A3005 RMK AO2 T01940144 $,null
SBA,2025-07-04 13:53,-119.8436,34.4261,3.00,67.00,58.00,72.85,260.00,9.00,0.00,30.05,1017.50,10.00,null,SCT,SCT,null,null,600.00,1100.00,null,null,null,null,null,null,null,null,null,67.00,KSBA 042053Z 26009KT 10SM SCT006 SCT011 19/14 A3005 RMK AO2 SLP175 T01940144 50001 $,null
SBA,2025-07-04 14:53,-119.8436,34.4261,3.00,67.00,59.00,75.50,240.00,11.00,0.00,30.04,1017.30,10.00,21.00,FEW,null,null,null,900.00,null,null,null,null,null,null,null,null,null,null,67.00,KSBA 042153Z 24011G21KT 10SM FEW009 19/15 A3004 RMK AO2 SLP173 T01940150 $,null
SBA,2025-07-04 15:53,-119.8436,34.4261,3.00,65.00,57.00,75.32,260.00,12.00,0.00,30.03,1016.70,10.00,null,CLR,null,null,null,null,null,null,null,null,null,null,null,null,null,null,65.00,KSBA 042253Z 26012KT 10SM CLR 18/14 A3003 RMK AO2 SLP167 FOG BANK ALONG SHRLINE W-E T01830139 $,null
SBA,2025-07-04 16:53,-119.8436,34.4261,3.00,66.00,56.00,70.16,270.00,8.00,0.00,30.01,1016.10,10.00,null,CLR,null,null,null,null,null,null,null,null,null,null,null,null,null,null,66.00,KSBA 042353Z 27008KT 10SM CLR 19/13 A3001 RMK AO2 SLP161 T01890133 10200 20178 58014 $,null
SBA,2025-07-04 17:53,-119.8436,34.4261,3.00,65.00,56.00,72.64,200.00,4.00,0.00,29.98,1015.20,9.00,null,CLR,null,null,null,null,null,null,null,null,null,null,null,null,null,null,65.00,KSBA 050053Z 20004KT 9SM CLR 18/13 A2998 RMK AO2 SLP152 T01830133 $,null
SBA,2025-07-04 18:53,-119.8436,34.4261,3.00,63.00,56.00,77.91,140.00,4.00,0.00,29.97,1014.90,9.00,null,CLR,null,null,null,null,null,null,null,null,null,null,null,null,null,null,63.00,KSBA 050153Z 14004KT 9SM CLR 17/13 A2997 RMK AO2 SLP149 T01720133 $,null
SBA,2025-07-04 19:53,-119.8436,34.4261,3.00,62.00,56.00,80.70,140.00,5.00,0.00,29.97,1014.80,8.00,null,CLR,null,null,null,null,null,null,null,null,null,null,null,null,null,null,62.00,KSBA 050253Z 14005KT 8SM CLR 17/13 A2997 RMK AO2 SLP148 T01670133 56013 $,null
SBA,2025-07-04 20:53,-119.8436,34.4261,3.00,62.00,58.00,86.73,130.00,6.00,0.00,29.98,1015.10,9.00,null,CLR,null,null,null,null,null,null,null,null,null,null,null,null,null,null,62.00,KSBA 050353Z 13006KT 9SM CLR 17/14 A2998 RMK AO2 SLP151 T01670144 $,null
SBA,2025-07-04 21:53,-119.8436,34.4261,3.00,61.00,58.00,89.85,110.00,3.00,0.00,29.99,1015.60,8.00,null,CLR,null,null,null,null,null,null,null,null,null,null,null,null,null,null,61.00,KSBA 050453Z 11003KT 8SM CLR 16/14 A2999 RMK AO2 SLP156 T01610144 $,null
SBA,2025-07-04 22:53,-119.8436,34.4261,3.00,61.00,56.00,83.60,50.00,3.00,0.00,30.01,1016.10,6.00,null,CLR,null,null,null,null,null,null,null,HZ,null,null,null,null,null,null,61.00,KSBA 050553Z AUTO 05003KT 6SM HZ CLR 16/13 A3001 RMK AO2 SLP161 T01610133 10189 20161 53013 $,null
SBA,2025-07-04 23:53,-119.8436,34.4261,3.00,60.00,57.00,89.81,0.00,0.00,0.00,30.01,1016.10,8.00,null,CLR,null,null,null,null,null,null,null,null,null,null,null,null,null,null,60.00,KSBA 050653Z AUTO 00000KT 8SM CLR 16/14 A3001 RMK AO2 SLP161 T01560139 $,null
SBA,2025-07-05 00:53,-119.8436,34.4261,3.00,59.00,55.00,86.57,0.00,0.00,0.00,30.00,1016.00,9.00,null,CLR,null,null,null,null,null,null,null,null,null,null,null,null,null,null,59.00,KSBA 050753Z AUTO 00000KT 9SM CLR 15/13 A3000 RMK AO2 SLP160 T01500128 402000144 $,null
SBA,2025-07-05 01:53,-119.8436,34.4261,3.00,58.00,55.00,89.73,0.00,0.00,0.00,30.01,1016.00,10.00,null,CLR,null,null,null,null,null,null,null,null,null,null,null,null,null,null,58.00,KSBA 050853Z AUTO 00000KT 10SM CLR 14/13 A3001 RMK AO2 SLP160 T01440128 57000 $,null
SBA,2025-07-05 02:53,-119.8436,34.4261,3.00,59.00,55.00,86.57,0.00,0.00,0.00,30.00,1016.00,9.00,null,CLR,null,null,null,null,null,null,null,null,null,null,null,null,null,null,59.00,KSBA 050953Z AUTO 00000KT 9SM CLR 15/13 A3000 RMK AO2 SLP160 T01500128 $,null
SBA,2025-07-05 03:53,-119.8436,34.4261,3.00,59.00,56.00,89.77,50.00,3.00,0.00,30.01,1016.30,8.00,null,CLR,null,null,null,null,null,null,null,null,null,null,null,null,null,null,59.00,KSBA 051053Z AUTO 05003KT 8SM CLR 15/13 A3001 RMK AO2 SLP163 T01500133 $,null
SBA,2025-07-05 04:53,-119.8436,34.4261,3.00,59.00,56.00,89.77,50.00,3.00,0.00,30.02,1016.70,7.00,null,CLR,null,null,null,null,null,null,null,null,null,null,null,null,null,null,59.00,KSBA 051153Z AUTO 05003KT 7SM CLR 15/13 A3002 RMK AO2 SLP167 T01500133 10167 20139 53006 $,null
SBA,2025-07-05 05:53,-119.8436,34.4261,3.00,59.00,56.00,89.77,40.00,3.00,0.00,30.04,1017.20,6.00,null,SCT,null,null,null,500.00,null,null,null,BR,null,null,null,null,null,null,59.00,KSBA 051253Z 04003KT 6SM BR SCT005 15/13 A3004 RMK AO2 SLP172 T01500133 $,null
SBA,2025-07-05 06:22,-119.8436,34.4261,3.00,59.00,56.00,89.77,20.00,5.00,0.00,30.05,null,7.00,null,BKN,null,null,null,1000.00,null,null,null,null,null,null,null,null,null,null,59.00,KSBA 051322Z 02005KT 7SM BKN010 15/13 A3005 RMK AO2 T01500133 $,null
SBA,2025-07-05 06:53,-119.8436,34.4261,3.00,61.00,58.00,89.85,40.00,4.00,0.00,30.05,1017.70,7.00,null,OVC,null,null,null,1000.00,null,null,null,null,null,null,null,null,null,null,61.00,KSBA 051353Z 04004KT 7SM OVC010 16/14 A3005 RMK AO2 SLP177 T01610144 $,null
SBA,2025-07-05 07:53,-119.8436,34.4261,3.00,63.00,59.00,86.79,0.00,0.00,0.00,30.07,1018.30,8.00,null,OVC,null,null,null,800.00,null,null,null,null,null,null,null,null,null,null,63.00,KSBA 051453Z 00000KT 8SM OVC008 17/15 A3007 RMK AO2 SLP183 T01720150 53017 $,null
SBA,2025-07-05 08:53,-119.8436,34.4261,3.00,65.00,59.00,80.92,180.00,5.00,0.00,30.08,1018.70,8.00,null,BKN,OVC,null,null,900.00,1100.00,null,null,null,null,null,null,null,null,null,65.00,KSBA 051553Z 18005KT 8SM BKN009 OVC011 18/15 A3008 RMK AO2 SLP187 T01830150 $,null
SBA,2025-07-05 09:20,-119.8436,34.4261,3.00,66.00,59.00,78.16,150.00,4.00,0.00,30.08,null,8.00,null,SCT,BKN,null,null,800.00,1100.00,null,null,null,null,null,null,null,null,null,66.00,KSBA 051620Z 15004KT 8SM SCT008 BKN011 19/15 A3008 RMK AO2 T01890150 $,null
SBA,2025-07-05 09:53,-119.8436,34.4261,3.00,67.00,59.00,75.50,150.00,7.00,0.00,30.08,1018.40,8.00,null,SCT,BKN,null,null,800.00,1100.00,null,null,null,null,null,null,null,null,null,67.00,KSBA 051653Z 15007KT 8SM SCT008 BKN011 19/15 A3008 RMK AO2 SLP184 T01940150 $,null
SBA,2025-07-05 10:00,-119.8436,34.4261,3.00,68.00,59.00,72.95,170.00,6.00,0.00,30.08,null,8.00,null,CLR,null,null,null,null,null,null,null,HZ,null,null,null,null,null,null,68.00,KSBA 051700Z 17006KT 8SM HZ CLR 20/15 A3008 RMK AO2 T02000150 $,null
SBA,2025-07-05 10:53,-119.8436,34.4261,3.00,67.00,59.00,75.50,210.00,6.00,0.00,30.09,1018.70,8.00,null,CLR,null,null,null,null,null,null,null,HZ,null,null,null,null,null,null,67.00,KSBA 051753Z 21006KT 8SM HZ CLR 19/15 A3009 RMK AO2 SLP187 T01940150 10206 20144 51004 $,null
SBA,2025-07-05 11:53,-119.8436,34.4261,3.00,69.00,59.00,70.49,220.00,8.00,0.00,30.08,1018.40,9.00,null,CLR,null,null,null,null,null,null,null,null,null,null,null,null,null,null,69.00,KSBA 051853Z 22008KT 9SM CLR 21/15 A3008 RMK AO2 SLP184 T02060150 $,null
SBA,2025-07-05 12:53,-119.8436,34.4261,3.00,70.00,58.00,65.72,220.00,9.00,0.00,30.08,1018.40,10.00,null,CLR,null,null,null,null,null,null,null,null,null,null,null,null,null,null,70.00,KSBA 051953Z 22009KT 10SM CLR 21/14 A3008 RMK AO2 SLP184 T02110144 $,null
SBA,2025-07-05 13:53,-119.8436,34.4261,3.00,70.00,58.00,65.72,250.00,9.00,0.00,30.06,1017.90,9.00,null,CLR,null,null,null,null,null,null,null,null,null,null,null,null,null,null,70.00,KSBA 052053Z 25009KT 9SM CLR 21/14 A3006 RMK AO2 SLP179 T02110144 58008 $,null
SBA,2025-07-05 14:53,-119.8436,34.4261,3.00,71.00,56.00,59.11,250.00,8.00,0.00,30.04,1017.10,10.00,null,CLR,null,null,null,null,null,null,null,null,null,null,null,null,null,null,71.00,KSBA 052153Z 25008KT 10SM CLR 22/13 A3004 RMK AO2 SLP171 T02170133 $,null
SBA,2025-07-05 15:53,-119.8436,34.4261,3.00,71.00,57.00,61.28,250.00,8.00,0.00,30.02,1016.50,10.00,null,CLR,null,null,null,null,null,null,null,null,null,null,null,null,null,null,71.00,KSBA 052253Z 25008KT 10SM CLR 22/14 A3002 RMK AO2 SLP165 T02170139 $,null
SBA,2025-07-05 16:53,-119.8436,34.4261,3.00,70.00,56.00,61.15,250.00,5.00,0.00,30.01,1016.10,10.00,null,CLR,null,null,null,null,null,null,null,null,null,null,null,null,null,null,70.00,KSBA 052353Z 25005KT 10SM CLR 21/13 A3001 RMK AO2 SLP161 T02110133 10222 20194 56018 $,null
SBA,2025-07-05 17:53,-119.8436,34.4261,3.00,70.00,57.00,63.40,190.00,4.00,0.00,29.99,1015.40,10.00,null,CLR,null,null,null,null,null,null,null,null,null,null,null,null,null,null,70.00,KSBA 060053Z 19004KT 10SM CLR 21/14 A2999 RMK AO2 SLP154 T02110139 $,null
SBA,2025-07-05 18:53,-119.8436,34.4261,3.00,67.00,56.00,67.78,0.00,0.00,0.00,29.98,1015.10,9.00,null,CLR,null,null,null,null,null,null,null,null,null,null,null,null,null,null,67.00,KSBA 060153Z 00000KT 9SM CLR 19/13 A2998 RMK AO2 SLP151 T01940133 $,null
SBA,2025-07-05 19:53,-119.8436,34.4261,3.00,64.00,58.00,80.85,140.00,7.00,0.00,29.97,1014.90,8.00,null,CLR,null,null,null,null,null,null,null,null,null,null,null,null,null,null,64.00,KSBA 060253Z 14007KT 8SM CLR 18/14 A2997 RMK AO2 SLP149 T01780144 56012 $,null
SBA,2025-07-05 20:53,-119.8436,34.4261,3.00,63.00,58.00,83.73,110.00,5.00,0.00,29.97,1015.00,7.00,null,CLR,null,null,null,null,null,null,null,FU,null,null,null,null,null,null,63.00,KSBA 060353Z COR 11005KT 7SM FU CLR 17/14 A2997 RMK AO2 SLP150 T01720144 $,null
SBA,2025-07-05 21:53,-119.8436,34.4261,3.00,63.00,58.00,83.73,120.00,5.00,0.00,29.98,1015.10,8.00,null,CLR,null,null,null,null,null,null,null,FU,null,null,null,null,null,null,63.00,KSBA 060453Z 12005KT 8SM FU CLR 17/14 A2998 RMK AO2 SLP151 T01720144 $,null
SBA,2025-07-05 22:53,-119.8436,34.4261,3.00,63.00,58.00,83.73,80.00,4.00,0.00,29.98,1015.20,8.00,null,CLR,null,null,null,null,null,null,null,FU,null,null,null,null,null,null,63.00,KSBA 060553Z 08004KT 8SM FU CLR 17/14 A2998 RMK AO2 SLP152 T01720144 10228 20167 53003 $,null
SBA,2025-07-05 23:53,-119.8436,34.4261,3.00,62.00,58.00,86.73,70.00,3.00,0.00,29.97,1014.90,8.00,null,CLR,null,null,null,null,null,null,null,FU,null,null,null,null,null,null,62.00,KSBA 060653Z AUTO 07003KT 8SM FU CLR 17/14 A2997 RMK AO2 SLP149 T01670144 $,null
SBA,2025-07-06 00:53,-119.8436,34.4261,3.00,61.00,57.00,86.68,70.00,4.00,0.00,29.96,1014.60,8.00,null,CLR,null,null,null,null,null,null,null,FU,null,null,null,null,null,null,61.00,KSBA 060753Z AUTO 07004KT 8SM FU CLR 16/14 A2996 RMK AO2 SLP146 T01610139 402280139 $,null
SBA,2025-07-06 01:53,-119.8436,34.4261,3.00,61.00,57.00,86.68,50.00,8.00,0.00,29.95,1014.30,9.00,null,CLR,null,null,null,null,null,null,null,FU,null,null,null,null,null,null,61.00,KSBA 060853Z AUTO 05008KT 9SM FU CLR 16/14 A2995 RMK AO2 SLP143 T01610139 58009 $,null
SBA,2025-07-06 02:53,-119.8436,34.4261,3.00,60.00,57.00,89.81,80.00,4.00,0.00,29.95,1014.20,8.00,null,CLR,null,null,null,null,null,null,null,FU,null,null,null,null,null,null,60.00,KSBA 060953Z AUTO 08004KT 8SM FU CLR 16/14 A2995 RMK AO2 SLP142 T01560139 $,null
SBA,2025-07-06 03:53,-119.8436,34.4261,3.00,59.00,56.00,89.77,0.00,0.00,0.00,29.94,1013.90,8.00,null,CLR,null,null,null,null,null,null,null,FU,null,null,null,null,null,null,59.00,KSBA 061053Z AUTO 00000KT 8SM FU CLR 15/13 A2994 RMK AO2 SLP139 T01500133 $,null
SBA,2025-07-06 04:53,-119.8436,34.4261,3.00,54.00,52.00,92.92,0.00,0.00,0.00,29.94,1013.80,9.00,null,CLR,null,null,null,null,null,null,null,FU,null,null,null,null,null,null,54.00,KSBA 061153Z AUTO 00000KT 9SM FU CLR 12/11 A2994 RMK AO2 SLP138 T01220111 10172 20122 57005 $,null
SBA,2025-07-06 05:53,-119.8436,34.4261,3.00,55.00,54.00,96.42,40.00,5.00,0.00,29.95,1014.10,8.00,null,CLR,null,null,null,null,null,null,null,FU,null,null,null,null,null,null,55.00,KSBA 061253Z 04005KT 8SM FU CLR 13/12 A2995 RMK AO2 SLP141 T01280122 $,null
SBA,2025-07-06 06:53,-119.8436,34.4261,3.00,59.00,57.00,93.07,50.00,5.00,0.00,29.96,1014.50,7.00,null,BKN,null,null,null,700.00,null,null,null,FU,null,null,null,null,null,null,59.00,KSBA 061353Z 05005KT 7SM FU BKN007 15/14 A2996 RMK AO2 SLP145 T01500139 $,null
SBA,2025-07-06 07:53,-119.8436,34.4261,3.00,61.00,58.00,89.85,90.00,7.00,0.00,29.98,1015.30,7.00,null,OVC,null,null,null,700.00,null,null,null,FU,null,null,null,null,null,null,61.00,KSBA 061453Z 09007KT 7SM FU OVC007 16/14 A2998 RMK AO2 SLP153 T01610144 53015 $,null
SBA,2025-07-06 08:53,-119.8436,34.4261,3.00,62.00,58.00,86.73,130.00,7.00,0.00,30.00,1015.80,8.00,null,SCT,null,null,null,700.00,null,null,null,FU,null,null,null,null,null,null,62.00,KSBA 061553Z COR 13007KT 8SM FU SCT007 17/14 A3000 RMK AO2 SLP158 T01670144 $,null
SBA,2025-07-06 09:48,-119.8436,34.4261,3.00,64.40,57.20,77.46,150.00,7.00,0.00,30.00,null,9.00,null,SCT,null,null,null,700.00,null,null,null,FU,null,null,null,null,null,null,64.40,KSBA 061648Z 15007KT 9SM FU SCT007 18/14 A3000 RMK AO2 $,null
SBA,2025-07-06 09:53,-119.8436,34.4261,3.00,64.00,58.00,80.85,160.00,7.00,0.00,30.00,1015.80,9.00,null,SCT,null,null,null,700.00,null,null,null,FU,null,null,null,null,null,null,64.00,KSBA 061653Z 16007KT 9SM FU SCT007 18/14 A3000 RMK AO2 SLP158 T01780144 $,null
SBA,2025-07-06 10:53,-119.8436,34.4261,3.00,66.00,58.00,75.41,210.00,7.00,0.00,29.98,1015.20,9.00,null,CLR,null,null,null,null,null,null,null,FU,null,null,null,null,null,null,66.00,KSBA 061753Z 21007KT 9SM FU CLR 19/14 A2998 RMK AO2 SLP152 T01890144 10194 20117 58006 $,null
SBA,2025-07-06 11:53,-119.8436,34.4261,3.00,67.00,56.00,67.78,240.00,7.00,0.00,29.98,1015.00,10.00,null,CLR,null,null,null,null,null,null,null,FU,null,null,null,null,null,null,67.00,KSBA 061853Z 24007KT 10SM FU CLR 19/13 A2998 RMK AO2 SLP150 T01940133 $,null
SBA,2025-07-06 12:53,-119.8436,34.4261,3.00,70.00,58.00,65.72,250.00,8.00,0.00,29.96,1014.40,9.00,null,CLR,null,null,null,null,null,null,null,FU,null,null,null,null,null,null,70.00,KSBA 061953Z 25008KT 9SM FU CLR 21/14 A2996 RMK AO2 SLP144 T02110144 $,null
SBA,2025-07-06 13:53,-119.8436,34.4261,3.00,68.00,57.00,67.89,260.00,11.00,0.00,29.95,1014.30,10.00,null,CLR,null,null,null,null,null,null,null,FU,null,null,null,null,null,null,68.00,KSBA 062053Z 26011KT 10SM FU CLR 20/14 A2995 RMK AO2 SLP143 T02000139 57009 $,null
SBA,2025-07-06 14:53,-119.8436,34.4261,3.00,70.00,57.00,63.40,260.00,7.00,0.00,29.94,1014.00,10.00,null,CLR,null,null,null,null,null,null,null,null,null,null,null,null,null,null,70.00,KSBA 062153Z 26007KT 10SM CLR 21/14 A2994 RMK AO2 SLP140 T02110139 $,null
SBA,2025-07-06 15:53,-119.8436,34.4261,3.00,70.00,55.00,58.97,240.00,8.00,0.00,29.93,1013.40,10.00,null,CLR,null,null,null,null,null,null,null,null,null,null,null,null,null,null,70.00,KSBA 062253Z 24008KT 10SM CLR 21/13 A2993 RMK AO2 SLP134 T02110128 $,null
SBA,2025-07-06 16:53,-119.8436,34.4261,3.00,70.00,55.00,58.97,240.00,6.00,0.00,29.92,1013.10,10.00,null,CLR,null,null,null,null,null,null,null,null,null,null,null,null,null,null,70.00,KSBA 062353Z 24006KT 10SM CLR 21/13 A2992 RMK AO2 SLP131 T02110128 10217 20189 58011 $,null
SBA,2025-07-06 17:53,-119.8436,34.4261,3.00,68.00,58.00,70.38,220.00,7.00,0.00,29.90,1012.50,10.00,null,CLR,null,null,null,null,null,null,null,null,null,null,null,null,null,null,68.00,KSBA 070053Z 22007KT 10SM CLR 20/14 A2990 RMK AO2 SLP125 T02000144 $,null
SBA,2025-07-06 18:53,-119.8436,34.4261,3.00,69.00,54.00,58.83,260.00,5.00,0.00,29.89,1012.00,10.00,null,CLR,null,null,null,null,null,null,null,null,null,null,null,null,null,null,69.00,KSBA 070153Z 26005KT 10SM CLR 21/12 A2989 RMK AO2 SLP120 T02060122 $,null
SBA,2025-07-06 19:53,-119.8436,34.4261,3.00,64.00,59.00,83.80,170.00,5.00,0.00,29.89,1012.10,9.00,null,CLR,null,null,null,null,null,null,null,null,null,null,null,null,null,null,64.00,KSBA 070253Z 17005KT 9SM CLR 18/15 A2989 RMK AO2 SLP121 T01780150 55010 $,null
SBA,2025-07-06 20:53,-119.8436,34.4261,3.00,62.00,58.00,86.73,110.00,3.00,0.00,29.90,1012.50,9.00,null,CLR,null,null,null,null,null,null,null,null,null,null,null,null,null,null,62.00,KSBA 070353Z AUTO 11003KT 9SM CLR 17/14 A2990 RMK AO2 SLP125 T01670144 $,null
SBA,2025-07-06 21:53,-119.8436,34.4261,3.00,61.00,57.00,86.68,130.00,5.00,0.00,29.91,1012.90,9.00,null,CLR,null,null,null,null,null,null,null,null,null,null,null,null,null,null,61.00,KSBA 070453Z 13005KT 9SM CLR 16/14 A2991 RMK AO2 SLP129 T01610139 $,null
SBA,2025-07-06 22:53,-119.8436,34.4261,3.00,61.00,58.00,89.85,70.00,6.00,0.00,29.92,1013.00,8.00,null,CLR,null,null,null,null,null,null,null,null,null,null,null,null,null,null,61.00,KSBA 070553Z 07006KT 8SM CLR 16/14 A2992 RMK AO2 SLP130 T01610144 10222 20156 51009 $,null
SBA,2025-07-06 23:53,-119.8436,34.4261,3.00,60.00,57.00,89.81,90.00,4.00,0.00,29.91,1012.80,9.00,null,CLR,null,null,null,null,null,null,null,null,null,null,null,null,null,null,60.00,KSBA 070653Z AUTO 09004KT 9SM CLR 16/14 A2991 RMK AO2 SLP128 T01560139 $,null
SBA,2025-07-07 00:53,-119.8436,34.4261,3.00,59.00,56.00,89.77,80.00,5.00,0.00,29.91,1013.00,9.00,null,CLR,null,null,null,null,null,null,null,null,null,null,null,null,null,null,59.00,KSBA 070753Z AUTO 08005KT 9SM CLR 15/13 A2991 RMK AO2 SLP130 T01500133 402220117 $,null
SBA,2025-07-07 01:29,-119.8436,34.4261,3.00,59.00,56.00,89.77,80.00,6.00,0.00,29.91,null,9.00,null,FEW,null,null,null,900.00,null,null,null,null,null,null,null,null,null,null,59.00,KSBA 070829Z AUTO 08006KT 9SM FEW009 15/13 A2991 RMK AO2 T01500133 $,null
SBA,2025-07-07 01:53,-119.8436,34.4261,3.00,59.00,57.00,93.07,80.00,6.00,0.00,29.91,1012.70,8.00,null,SCT,null,null,null,900.00,null,null,null,null,null,null,null,null,null,null,59.00,KSBA 070853Z AUTO 08006KT 8SM SCT009 15/14 A2991 RMK AO2 SLP127 T01500139 56003 $,null
SBA,2025-07-07 02:14,-119.8436,34.4261,3.00,60.00,57.00,89.81,90.00,8.00,0.00,29.91,null,7.00,null,BKN,null,null,null,800.00,null,null,null,null,null,null,null,null,null,null,60.00,KSBA 070914Z AUTO 09008KT 7SM BKN008 16/14 A2991 RMK AO2 T01560139 $,null
SBA,2025-07-07 02:53,-119.8436,34.4261,3.00,60.00,57.00,89.81,90.00,8.00,0.00,29.91,1012.90,9.00,null,OVC,null,null,null,800.00,null,null,null,null,null,null,null,null,null,null,60.00,KSBA 070953Z AUTO 09008KT 9SM OVC008 16/14 A2991 RMK AO2 SLP129 T01560139 $,null
SBA,2025-07-07 03:53,-119.8436,34.4261,3.00,60.00,57.00,89.81,120.00,5.00,0.00,29.92,1013.10,10.00,null,OVC,null,null,null,900.00,null,null,null,null,null,null,null,null,null,null,60.00,KSBA 071053Z AUTO 12005KT 10SM OVC009 16/14 A2992 RMK AO2 SLP131 T01560139 $,null
SBA,2025-07-07 04:53,-119.8436,34.4261,3.00,59.00,56.00,89.77,130.00,5.00,0.00,29.93,1013.40,10.00,null,OVC,null,null,null,800.00,null,null,null,null,null,null,null,null,null,null,59.00,KSBA 071153Z AUTO 13005KT 10SM OVC008 15/13 A2993 RMK AO2 SLP134 T01500133 10161 20150 52006 $,null
SBA,2025-07-07 05:46,-119.8436,34.4261,3.00,59.00,55.00,86.57,140.00,6.00,0.00,29.94,null,10.00,null,OVC,null,null,null,1000.00,null,null,null,null,null,null,null,null,null,null,59.00,KSBA 071246Z AUTO 14006KT 10SM OVC010 15/13 A2994 RMK AO2 T01500128 $,null
SBA,2025-07-07 05:53,-119.8436,34.4261,3.00,59.00,55.00,86.57,150.00,5.00,0.00,29.94,1013.90,10.00,null,OVC,null,null,null,1000.00,null,null,null,null,null,null,null,null,null,null,59.00,KSBA 071253Z 15005KT 10SM OVC010 15/13 A2994 RMK AO2 SLP139 T01500128 $,null
SBA,2025-07-07 06:53,-119.8436,34.4261,3.00,60.00,55.00,83.54,130.00,6.00,0.00,29.95,1014.20,10.00,null,OVC,null,null,null,1000.00,null,null,null,null,null,null,null,null,null,null,60.00,KSBA 071353Z 13006KT 10SM OVC010 16/13 A2995 RMK AO2 SLP142 T01560128 $,null
SBA,2025-07-07 07:53,-119.8436,34.4261,3.00,60.00,55.00,83.54,150.00,3.00,0.00,29.97,1014.80,10.00,null,OVC,null,null,null,1100.00,null,null,null,null,null,null,null,null,null,null,60.00,KSBA 071453Z 15003KT 10SM OVC011 16/13 A2997 RMK AO2 SLP148 T01560128 53015,null
SBA,2025-07-07 08:53,-119.8436,34.4261,3.00,61.00,55.00,80.62,200.00,5.00,0.00,29.98,1015.30,10.00,null,OVC,null,null,null,1300.00,null,null,null,null,null,null,null,null,null,null,61.00,KSBA 071553Z 20005KT 10SM OVC013 16/13 A2998 RMK AO2 SLP153 T01610128,null
SBA,2025-07-07 09:53,-119.8436,34.4261,3.00,62.00,55.00,77.82,190.00,4.00,0.00,30.00,1015.80,10.00,null,OVC,null,null,null,1100.00,null,null,null,null,null,null,null,null,null,null,62.00,KSBA 071653Z 19004KT 10SM OVC011 17/13 A3000 RMK AO2 SLP158 T01670128,null
SBA,2025-07-07 10:53,-119.8436,34.4261,3.00,64.00,55.00,72.54,200.00,6.00,0.00,30.00,1015.80,10.00,null,BKN,null,null,null,1200.00,null,null,null,null,null,null,null,null,null,null,64.00,KSBA 071753Z 20006KT 10SM BKN012 18/13 A3000 RMK AO2 SLP158 T01780128 10178 20150 51010,null
SBA,2025-07-07 11:53,-119.8436,34.4261,3.00,65.00,56.00,72.64,230.00,6.00,0.00,30.01,1016.10,10.00,null,SCT,null,null,null,1500.00,null,null,null,null,null,null,null,null,null,null,65.00,KSBA 071853Z 23006KT 10SM SCT015 18/13 A3001 RMK AO2 SLP161 T01830133,null
SBA,2025-07-07 12:53,-119.8436,34.4261,3.00,66.00,56.00,70.16,220.00,8.00,0.00,30.01,1016.20,10.00,16.00,SCT,null,null,null,1500.00,null,null,null,null,null,null,null,null,null,null,66.00,KSBA 071953Z 22008G16KT 10SM SCT015 19/13 A3001 RMK AO2 SLP162 T01890133,null
SBA,2025-07-07 13:53,-119.8436,34.4261,3.00,67.00,56.00,67.78,250.00,11.00,0.00,30.00,1015.80,10.00,null,FEW,null,null,null,1500.00,null,null,null,null,null,null,null,null,null,null,67.00,KSBA 072053Z 25011KT 10SM FEW015 19/13 A3000 RMK AO2 SLP158 T01940133 58000,null
SBA,2025-07-07 14:53,-119.8436,34.4261,3.00,67.00,56.00,67.78,240.00,10.00,0.00,29.99,1015.60,10.00,null,CLR,null,null,null,null,null,null,null,null,null,null,null,null,null,null,67.00,KSBA 072153Z 24010KT 10SM CLR 19/13 A2999 RMK AO2 SLP156 T01940133,null
SBA,2025-07-07 15:53,-119.8436,34.4261,3.00,67.00,56.00,67.78,260.00,11.00,0.00,29.99,1015.50,10.00,19.00,CLR,null,null,null,null,null,null,null,null,null,null,null,null,null,null,67.00,KSBA 072253Z 26011G19KT 10SM CLR 19/13 A2999 RMK AO2 SLP155 T01940133,null
SBA,2025-07-07 16:53,-119.8436,34.4261,3.00,66.00,56.00,70.16,250.00,12.00,0.00,29.98,1015.20,10.00,null,CLR,null,null,null,null,null,null,null,null,null,null,null,null,null,null,66.00,KSBA 072353Z 25012KT 10SM CLR 19/13 A2998 RMK AO2 SLP152 T01890133 10200 20178 58006,null
SBA,2025-07-07 17:53,-119.8436,34.4261,3.00,65.00,55.00,70.05,260.00,12.00,0.00,29.97,1014.90,10.00,null,CLR,null,null,null,null,null,null,null,null,null,null,null,null,null,null,65.00,KSBA 080053Z 26012KT 10SM CLR 18/13 A2997 RMK AO2 SLP149 T01830128,null
SBA,2025-07-07 18:53,-119.8436,34.4261,3.00,64.00,55.00,72.54,270.00,10.00,0.00,29.97,1014.90,10.00,null,CLR,null,null,null,null,null,null,null,null,null,null,null,null,null,null,64.00,KSBA 080153Z 27010KT 10SM CLR 18/13 A2997 RMK AO2 SLP149 T01780128,null
SBA,2025-07-07 19:53,-119.8436,34.4261,3.00,63.00,55.00,75.13,270.00,6.00,0.00,29.97,1015.00,10.00,null,CLR,null,null,null,null,null,null,null,null,null,null,null,null,null,null,63.00,KSBA 080253Z 27006KT 10SM CLR 17/13 A2997 RMK AO2 SLP150 T01720128 55002,null
SBA,2025-07-07 20:53,-119.8436,34.4261,3.00,61.00,57.00,86.68,250.00,4.00,0.00,29.98,1015.30,10.00,null,CLR,null,null,null,null,null,null,null,null,null,null,null,null,null,null,61.00,KSBA 080353Z 25004KT 10SM CLR 16/14 A2998 RMK AO2 SLP153 T01610139,null
SBA,2025-07-07 21:53,-119.8436,34.4261,3.00,61.00,57.00,86.68,0.00,0.00,0.00,30.01,1016.10,10.00,null,CLR,null,null,null,null,null,null,null,null,null,null,null,null,null,null,61.00,KSBA 080453Z 00000KT 10SM CLR 16/14 A3001 RMK AO2 SLP161 T01610139,null
SBA,2025-07-07 22:53,-119.8436,34.4261,3.00,58.00,55.00,89.73,70.00,3.00,0.00,30.02,1016.50,10.00,null,CLR,null,null,null,null,null,null,null,null,null,null,null,null,null,null,58.00,KSBA 080553Z AUTO 07003KT 10SM CLR 14/13 A3002 RMK AO2 SLP165 T01440128 10189 20144 53016,null
SBA,2025-07-07 23:53,-119.8436,34.4261,3.00,59.00,55.00,86.57,50.00,5.00,0.00,30.03,1016.70,10.00,null,CLR,null,null,null,null,null,null,null,null,null,null,null,null,null,null,59.00,KSBA 080653Z AUTO 05005KT 10SM CLR 15/13 A3003 RMK AO2 SLP167 T01500128,null
SBA,2025-07-08 00:53,-119.8436,34.4261,3.00,58.00,54.00,86.51,50.00,5.00,0.00,30.03,1017.00,10.00,null,CLR,null,null,null,null,null,null,null,null,null,null,null,null,null,null,58.00,KSBA 080753Z AUTO 05005KT 10SM CLR 14/12 A3003 RMK AO2 SLP170 T01440122 402000139,null
SBA,2025-07-08 01:45,-119.8436,34.4261,3.00,59.00,56.00,89.77,50.00,4.00,0.00,30.03,null,10.00,null,BKN,null,null,null,1000.00,null,null,null,null,null,null,null,null,null,null,59.00,KSBA 080845Z AUTO 05004KT 10SM BKN010 15/13 A3003 RMK AO2 T01500133,null
SBA,2025-07-08 01:53,-119.8436,34.4261,3.00,59.00,56.00,89.77,60.00,3.00,0.00,30.03,1016.70,10.00,null,BKN,null,null,null,900.00,null,null,null,null,null,null,null,null,null,null,59.00,KSBA 080853Z AUTO 06003KT 10SM BKN009 15/13 A3003 RMK AO2 SLP167 T01500133 50000,null
SBA,2025-07-08 02:40,-119.8436,34.4261,3.00,58.00,55.00,89.73,30.00,5.00,0.00,30.02,null,10.00,null,SCT,null,null,null,800.00,null,null,null,null,null,null,null,null,null,null,58.00,KSBA 080940Z AUTO 03005KT 10SM SCT008 14/13 A3002 RMK AO2 T01440128,null
SBA,2025-07-08 02:53,-119.8436,34.4261,3.00,57.00,55.00,93.01,30.00,4.00,0.00,30.02,1016.50,10.00,null,CLR,null,null,null,null,null,null,null,null,null,null,null,null,null,null,57.00,KSBA 080953Z AUTO 03004KT 10SM CLR 14/13 A3002 RMK AO2 SLP165 T01390128,null
SBA,2025-07-08 03:53,-119.8436,34.4261,3.00,56.00,54.00,92.98,40.00,5.00,0.00,30.02,1016.50,9.00,null,CLR,null,null,null,null,null,null,null,null,null,null,null,null,null,null,56.00,KSBA 081053Z AUTO 04005KT 9SM CLR 13/12 A3002 RMK AO2 SLP165 T01330122,null
SBA,2025-07-08 04:53,-119.8436,34.4261,3.00,55.00,54.00,96.42,20.00,4.00,0.00,30.03,1016.70,8.00,null,CLR,null,null,null,null,null,null,null,null,null,null,null,null,null,null,55.00,KSBA 081153Z AUTO 02004KT 8SM CLR 13/12 A3003 RMK AO2 SLP167 T01280122 10156 20128 53000,null
SBA,2025-07-08 05:06,-119.8436,34.4261,3.00,55.00,54.00,96.42,20.00,5.00,0.00,30.02,null,4.00,null,SCT,null,null,null,700.00,null,null,null,BR,null,null,null,null,null,null,55.00,KSBA 081206Z AUTO 02005KT 4SM BR SCT007 13/12 A3002 RMK AO2 T01280122,null
SBA,2025-07-08 05:18,-119.8436,34.4261,3.00,55.00,54.00,96.42,40.00,4.00,0.00,30.03,null,3.00,null,FEW,BKN,null,null,200.00,600.00,null,null,BR,null,null,null,null,null,null,55.00,KSBA 081218Z AUTO 04004KT 3SM BR FEW002 BKN006 13/12 A3003 RMK AO2 T01280122,null
SBA,2025-07-08 05:25,-119.8436,34.4261,3.00,55.00,54.00,96.42,30.00,4.00,0.00,30.03,null,2.50,null,OVC,null,null,null,400.00,null,null,null,BR,null,null,null,null,null,null,55.00,KSBA 081225Z AUTO 03004KT 2 1/2SM BR OVC004 13/12 A3003 RMK AO2 VIS 2V3 T01280122,null
SBA,2025-07-08 05:39,-119.8436,34.4261,3.00,55.00,54.00,96.42,30.00,5.00,0.00,30.03,null,1.75,null,OVC,null,null,null,400.00,null,null,null,BR,null,null,null,null,null,null,55.00,KSBA 081239Z AUTO 03005KT 1 3/4SM BR OVC004 13/12 A3003 RMK AO2 T01280122,null
SBA,2025-07-08 05:48,-119.8436,34.4261,3.00,55.40,55.40,100.00,30.00,5.00,0.00,30.04,null,3.00,null,OVC,null,null,null,300.00,null,null,null,BR,null,null,null,null,null,null,55.40,KSBA 081248Z AUTO 03005KT 3SM BR OVC003 13/13 A3004 RMK AO2,null
SBA,2025-07-08 05:53,-119.8436,34.4261,3.00,56.00,55.00,96.44,30.00,5.00,0.00,30.04,1017.20,3.00,null,BKN,null,null,null,300.00,null,null,null,BR,null,null,null,null,null,null,56.00,KSBA 081253Z 03005KT 3SM BR BKN003 13/13 A3004 RMK AO2 SLP172 T01330128,null
SBA,2025-07-08 06:53,-119.8436,34.4261,3.00,56.00,55.00,96.44,340.00,3.00,0.00,30.06,1017.80,3.00,null,FEW,BKN,null,null,100.00,300.00,null,null,BR,null,null,null,null,null,null,56.00,KSBA 081353Z 34003KT 3SM R07/3000VP6000FT BR FEW001 BKN003 13/13 A3006 RMK AO2 SLP178 T01330128,null
SBA,2025-07-08 06:55,-119.8436,34.4261,3.00,56.00,55.00,96.44,350.00,3.00,0.00,30.06,null,0.25,null,OVC,null,null,null,300.00,null,null,null,FG,null,null,null,null,null,null,56.00,KSBA 081355Z 35003KT 1/4SM R07/3000VP6000FT FG OVC003 13/13 A3006 RMK AO2 T01330128,null
SBA,2025-07-08 07:18,-119.8436,34.4261,3.00,57.00,57.00,100.00,40.00,3.00,0.00,30.07,null,1.00,null,VV ,null,null,null,300.00,null,null,null,BR,null,null,null,null,null,null,57.00,KSBA 081418Z 04003KT 1SM R07/2600VP6000FT BR VV003 14/14 A3007 RMK AO2 T01390139,null
SBA,2025-07-08 07:27,-119.8436,34.4261,3.00,58.00,57.00,96.47,70.00,3.00,0.00,30.07,null,5.00,null,SCT,null,null,null,500.00,null,null,null,BR,null,null,null,null,null,null,58.00,KSBA 081427Z 07003KT 5SM R07/5500VP6000FT BR SCT005 14/14 A3007 RMK AO2 FG ALNG SHRL E-W T01440139,null
SBA,2025-07-08 07:53,-119.8436,34.4261,3.00,59.00,56.00,89.77,0.00,0.00,0.00,30.08,1018.50,7.00,null,SCT,null,null,null,500.00,null,null,null,null,null,null,null,null,null,null,59.00,KSBA 081453Z 00000KT 7SM SCT005 15/13 A3008 RMK AO2 SLP185 FG ALNG SHRL E-W T01500133 53014,null
SBA,2025-07-08 08:53,-119.8436,34.4261,3.00,63.00,57.00,80.77,160.00,5.00,0.00,30.09,1018.90,7.00,null,SCT,null,null,null,500.00,null,null,null,null,null,null,null,null,null,null,63.00,KSBA 081553Z 16005KT 7SM SCT005 17/14 A3009 RMK AO2 SLP189 T01720139,null
SBA,2025-07-08 09:53,-119.8436,34.4261,3.00,64.00,57.00,77.99,170.00,5.00,0.00,30.10,1019.20,10.00,null,CLR,null,null,null,500.00,null,null,null,null,null,null,null,null,null,null,64.00,KSBA 081653Z COR 17005KT 10SM CLR 18/14 A3010 RMK AO2 SLP192 T01780139,null
SBA,2025-07-08 10:53,-119.8436,34.4261,3.00,65.00,56.00,72.64,210.00,6.00,0.00,30.10,1019.20,10.00,null,CLR,null,null,null,null,null,null,null,null,null,null,null,null,null,null,65.00,KSBA 081753Z 21006KT 10SM CLR 18/13 A3010 RMK AO2 SLP192 T01830133 10189 20128 51007,null
SBA,2025-07-08 11:53,-119.8436,34.4261,3.00,68.00,56.00,65.48,null,5.00,0.00,30.10,1019.20,10.00,null,CLR,null,null,null,null,null,null,null,null,null,null,null,null,null,null,68.00,KSBA 081853Z VRB05KT 10SM CLR 20/13 A3010 RMK AO2 SLP192 T02000133,null
SBA,2025-07-08 12:53,-119.8436,34.4261,3.00,69.00,58.00,68.01,230.00,9.00,0.00,30.10,1019.30,10.00,null,CLR,null,null,null,null,null,null,null,null,null,null,null,null,null,null,69.00,KSBA 081953Z 23009KT 10SM CLR 21/14 A3010 RMK AO2 SLP193 T02060144,null
SBA,2025-07-08 13:53,-119.8436,34.4261,3.00,70.00,57.00,63.40,250.00,9.00,0.00,30.10,1019.10,10.00,null,CLR,null,null,null,null,null,null,null,null,null,null,null,null,null,null,70.00,KSBA 082053Z 25009KT 10SM CLR 21/14 A3010 RMK AO2 SLP191 T02110139 58001,null
SBA,2025-07-08 14:53,-119.8436,34.4261,3.00,70.00,56.00,61.15,240.00,9.00,0.00,30.09,1018.80,10.00,null,CLR,null,null,null,null,null,null,null,null,null,null,null,null,null,null,70.00,KSBA 082153Z 24009KT 10SM CLR 21/13 A3009 RMK AO2 SLP188 T02110133 $,null
SBA,2025-07-08 15:53,-119.8436,34.4261,3.00,71.00,57.00,61.28,250.00,9.00,0.00,30.06,1018.00,10.00,null,CLR,null,null,null,null,null,null,null,null,null,null,null,null,null,null,71.00,KSBA 082253Z 25009KT 10SM CLR 22/14 A3006 RMK AO2 SLP180 T02170139 $,null
SBA,2025-07-08 16:53,-119.8436,34.4261,3.00,70.00,57.00,63.40,240.00,11.00,0.00,30.04,1017.20,10.00,null,CLR,null,null,null,null,null,null,null,null,null,null,null,null,null,null,70.00,KSBA 082353Z 24011KT 10SM CLR 21/14 A3004 RMK AO2 SLP172 T02110139 10222 20183 58019 $,null
SBA,2025-07-08 17:53,-119.8436,34.4261,3.00,69.00,58.00,68.01,240.00,8.00,0.00,30.03,1016.90,10.00,null,CLR,null,null,null,null,null,null,null,null,null,null,null,null,null,null,69.00,KSBA 090053Z 24008KT 10SM CLR 21/14 A3003 RMK AO2 SLP169 T02060144 $,null
SBA,2025-07-08 18:53,-119.8436,34.4261,3.00,70.00,57.00,63.40,250.00,4.00,0.00,30.01,1016.30,10.00,null,CLR,null,null,null,null,null,null,null,null,null,null,null,null,null,null,70.00,KSBA 090153Z 25004KT 10SM CLR 21/14 A3001 RMK AO2 SLP163 T02110139 $,null
SBA,2025-07-08 19:53,-119.8436,34.4261,3.00,67.00,57.00,70.27,150.00,3.00,0.00,30.01,1016.20,10.00,null,CLR,null,null,null,null,null,null,null,null,null,null,null,null,null,null,67.00,KSBA 090253Z 15003KT 10SM CLR 19/14 A3001 RMK AO2 SLP162 T01940139 56010 $,null
SBA,2025-07-08 20:53,-119.8436,34.4261,3.00,64.00,58.00,80.85,120.00,3.00,0.00,30.01,1016.20,10.00,null,CLR,null,null,null,null,null,null,null,null,null,null,null,null,null,null,64.00,KSBA 090353Z 12003KT 10SM CLR 18/14 A3001 RMK AO2 SLP162 T01780144 $,null
SBA,2025-07-08 21:53,-119.8436,34.4261,3.00,63.00,58.00,83.73,110.00,4.00,0.00,30.02,1016.40,10.00,null,CLR,null,null,null,null,null,null,null,null,null,null,null,null,null,null,63.00,KSBA 090453Z 11004KT 10SM CLR 17/14 A3002 RMK AO2 SLP164 T01720144 $,null
SBA,2025-07-08 22:53,-119.8436,34.4261,3.00,63.00,58.00,83.73,90.00,3.00,0.00,30.01,1016.30,10.00,null,CLR,null,null,null,null,null,null,null,null,null,null,null,null,null,null,63.00,KSBA 090553Z AUTO 09003KT 10SM CLR 17/14 A3001 RMK AO2 SLP163 T01720144 10217 20172 50001 $,null
SBA,2025-07-08 23:53,-119.8436,34.4261,3.00,62.00,58.00,86.73,80.00,4.00,0.00,30.01,1016.10,10.00,null,CLR,null,null,null,null,null,null,null,null,null,null,null,null,null,null,62.00,KSBA 090653Z AUTO 08004KT 10SM CLR 17/14 A3001 RMK AO2 SLP161 T01670144 $,null
SBA,2025-07-09 00:53,-119.8436,34.4261,3.00,60.00,57.00,89.81,60.00,5.00,0.00,30.01,1016.20,10.00,null,CLR,null,null,null,null,null,null,null,null,null,null,null,null,null,null,60.00,KSBA 090753Z AUTO 06005KT 10SM CLR 16/14 A3001 RMK AO2 SLP162 T01560139 402220128 $,null
SBA,2025-07-09 01:53,-119.8436,34.4261,3.00,60.00,56.00,86.62,40.00,3.00,0.00,29.99,1015.60,10.00,null,CLR,null,null,null,null,null,null,null,null,null,null,null,null,null,null,60.00,KSBA 090853Z AUTO 04003KT 10SM CLR 16/13 A2999 RMK AO2 SLP156 T01560133 58008 $,null
SBA,2025-07-09 02:53,-119.8436,34.4261,3.00,57.00,54.00,89.68,290.00,3.00,0.00,29.99,1015.50,10.00,null,CLR,null,null,null,null,null,null,null,null,null,null,null,null,null,null,57.00,KSBA 090953Z AUTO 29003KT 10SM CLR 14/12 A2999 RMK AO2 SLP155 T01390122 $,null
SBA,2025-07-09 03:53,-119.8436,34.4261,3.00,56.00,54.00,92.98,0.00,0.00,0.00,30.00,1015.70,10.00,null,CLR,null,null,null,null,null,null,null,null,null,null,null,null,null,null,56.00,KSBA 091053Z AUTO 00000KT 10SM CLR 13/12 A3000 RMK AO2 SLP157 T01330122 $,null
SBA,2025-07-09 04:53,-119.8436,34.4261,3.00,56.00,54.00,92.98,0.00,0.00,0.00,30.00,1015.90,10.00,null,CLR,null,null,null,null,null,null,null,null,null,null,null,null,null,null,56.00,KSBA 091153Z AUTO 00000KT 10SM CLR 13/12 A3000 RMK AO2 SLP159 T01330122 10172 20128 53003 $,null
SBA,2025-07-09 05:53,-119.8436,34.4261,3.00,54.00,52.00,92.92,270.00,4.00,0.00,30.02,1016.40,10.00,null,CLR,null,null,null,null,null,null,null,null,null,null,null,null,null,null,54.00,KSBA 091253Z AUTO 27004KT 10SM CLR 12/11 A3002 RMK AO2 SLP164 T01220111 $,null
SBA,2025-07-09 06:53,-119.8436,34.4261,3.00,58.00,55.00,89.73,300.00,3.00,0.00,30.02,1016.60,10.00,null,CLR,null,null,null,null,null,null,null,null,null,null,null,null,null,null,58.00,KSBA 091353Z 30003KT 10SM CLR 14/13 A3002 RMK AO2 SLP166 T01440128 $,null
SBA,2025-07-09 07:53,-119.8436,34.4261,3.00,64.00,58.00,80.85,0.00,0.00,0.00,30.03,1016.90,10.00,null,CLR,null,null,null,null,null,null,null,null,null,null,null,null,null,null,64.00,KSBA 091453Z 00000KT 10SM CLR 18/14 A3003 RMK AO2 SLP169 T01780144 51010 $,null
SBA,2025-07-09 08:53,-119.8436,34.4261,3.00,65.00,58.00,78.08,150.00,5.00,0.00,30.04,1017.30,10.00,null,CLR,null,null,null,null,null,null,null,null,null,null,null,null,null,null,65.00,KSBA 091553Z 15005KT 10SM CLR 18/14 A3004 RMK AO2 SLP173 T01830144 $,null
SBA,2025-07-09 09:53,-119.8436,34.4261,3.00,66.00,57.00,72.74,160.00,8.00,0.00,30.05,1017.40,10.00,null,CLR,null,null,null,null,null,null,null,null,null,null,null,null,null,null,66.00,KSBA 091653Z 16008KT 10SM CLR 19/14 A3005 RMK AO2 SLP174 T01890139 $,null
SBA,2025-07-09 10:53,-119.8436,34.4261,3.00,67.00,58.00,72.85,null,5.00,0.00,30.04,1017.30,10.00,null,CLR,null,null,null,null,null,null,null,null,null,null,null,null,null,null,67.00,KSBA 091753Z VRB05KT 10SM CLR 19/14 A3004 RMK AO2 SLP173 T01940144 10194 20122 50004 $,null
SBA,2025-07-09 11:53,-119.8436,34.4261,3.00,70.00,59.00,68.12,220.00,5.00,0.00,30.03,1016.90,10.00,null,CLR,null,null,null,null,null,null,null,null,null,null,null,null,null,null,70.00,KSBA 091853Z 22005KT 10SM CLR 21/15 A3003 RMK AO2 SLP169 T02110150 $,null
SBA,2025-07-09 12:53,-119.8436,34.4261,3.00,72.00,59.00,63.65,220.00,6.00,0.00,30.03,1016.90,10.00,null,CLR,null,null,null,null,null,null,null,null,null,null,null,null,null,null,72.00,KSBA 091953Z 22006KT 10SM CLR 22/15 A3003 RMK AO2 SLP169 T02220150 $,null
SBA,2025-07-09 13:53,-119.8436,34.4261,3.00,74.00,58.00,57.42,220.00,7.00,0.00,30.01,1016.20,10.00,null,CLR,null,null,null,null,null,null,null,null,null,null,null,null,null,null,74.00,KSBA 092053Z 22007KT 10SM CLR 23/14 A3001 RMK AO2 SLP162 T02330144 58011 $,null
SBA,2025-07-09 14:53,-119.8436,34.4261,3.00,74.00,56.00,53.42,250.00,7.00,0.00,29.99,1015.40,10.00,null,CLR,null,null,null,null,null,null,null,null,null,null,null,null,null,null,74.00,KSBA 092153Z 25007KT 10SM CLR 23/13 A2999 RMK AO2 SLP154 T02330133 $,null
SBA,2025-07-09 15:53,-119.8436,34.4261,3.00,68.00,58.00,70.38,160.00,8.00,0.00,29.98,1015.10,10.00,null,CLR,null,null,null,null,null,null,null,null,null,null,null,null,null,null,68.00,KSBA 092253Z 16008KT 10SM CLR 20/14 A2998 RMK AO2 SLP151 T02000144 $,null
SBA,2025-07-09 16:53,-119.8436,34.4261,3.00,67.00,58.00,72.85,150.00,4.00,0.00,29.95,1014.10,10.00,null,CLR,null,null,null,null,null,null,null,null,null,null,null,null,null,null,67.00,KSBA 092353Z 15004KT 10SM CLR 19/14 A2995 RMK AO2 SLP141 T01940144 10239 20189 58021 $,null
SBA,2025-07-09 17:53,-119.8436,34.4261,3.00,67.00,58.00,72.85,140.00,6.00,0.00,29.92,1013.10,10.00,null,CLR,null,null,null,null,null,null,null,null,null,null,null,null,null,null,67.00,KSBA 100053Z 14006KT 10SM CLR 19/14 A2992 RMK AO2 SLP131 T01940144 $,null
SBA,2025-07-09 18:53,-119.8436,34.4261,3.00,66.00,58.00,75.41,140.00,8.00,0.00,29.93,1013.40,10.00,null,CLR,null,null,null,null,null,null,null,null,null,null,null,null,null,null,66.00,KSBA 100153Z 14008KT 10SM CLR 19/14 A2993 RMK AO2 SLP134 T01890144 $,null
SBA,2025-07-09 19:53,-119.8436,34.4261,3.00,64.00,58.00,80.85,120.00,4.00,0.00,29.93,1013.40,9.00,null,CLR,null,null,null,null,null,null,null,null,null,null,null,null,null,null,64.00,KSBA 100253Z 12004KT 9SM CLR 18/14 A2993 RMK AO2 SLP134 T01780144 56007 $,null
SBA,2025-07-09 20:53,-119.8436,34.4261,3.00,64.00,58.00,80.85,120.00,4.00,0.00,29.93,1013.60,10.00,null,CLR,null,null,null,null,null,null,null,null,null,null,null,null,null,null,64.00,KSBA 100353Z 12004KT 10SM CLR 18/14 A2993 RMK AO2 SLP136 T01780144 $,null
SBA,2025-07-09 21:53,-119.8436,34.4261,3.00,63.00,58.00,83.73,120.00,5.00,0.00,29.93,1013.60,9.00,null,CLR,null,null,null,null,null,null,null,null,null,null,null,null,null,null,63.00,KSBA 100453Z 12005KT 9SM CLR 17/14 A2993 RMK AO2 SLP136 T01720144 $,null
SBA,2025-07-09 22:53,-119.8436,34.4261,3.00,62.00,58.00,86.73,100.00,4.00,0.00,29.93,1013.50,8.00,null,CLR,null,null,null,null,null,null,null,null,null,null,null,null,null,null,62.00,KSBA 100553Z AUTO 10004KT 8SM CLR 17/14 A2993 RMK AO2 SLP135 T01670144 10200 20167 50001 $,null
SBA,2025-07-09 23:53,-119.8436,34.4261,3.00,61.00,57.00,86.68,0.00,0.00,0.00,29.91,1012.90,9.00,null,CLR,null,null,null,null,null,null,null,null,null,null,null,null,null,null,61.00,KSBA 100653Z AUTO 00000KT 9SM CLR 16/14 A2991 RMK AO2 SLP129 T01610139 $,null
SBA,2025-07-10 00:53,-119.8436,34.4261,3.00,59.00,56.00,89.77,0.00,0.00,0.00,29.91,1012.90,9.00,null,CLR,null,null,null,null,null,null,null,null,null,null,null,null,null,null,59.00,KSBA 100753Z AUTO 00000KT 9SM CLR 15/13 A2991 RMK AO2 SLP129 T01500133 402390122 $,null
SBA,2025-07-10 01:53,-119.8436,34.4261,3.00,59.00,56.00,89.77,20.00,4.00,0.00,29.90,1012.60,9.00,null,CLR,null,null,null,null,null,null,null,null,null,null,null,null,null,null,59.00,KSBA 100853Z AUTO 02004KT 9SM CLR 15/13 A2990 RMK AO2 SLP126 T01500133 56008 $,null
SBA,2025-07-10 02:53,-119.8436,34.4261,3.00,57.00,55.00,93.01,0.00,0.00,0.00,29.90,1012.50,9.00,null,CLR,null,null,null,null,null,null,null,null,null,null,null,null,null,null,57.00,KSBA 100953Z AUTO 00000KT 9SM CLR 14/13 A2990 RMK AO2 SLP125 T01390128 $,null
SBA,2025-07-10 03:53,-119.8436,34.4261,3.00,56.00,54.00,92.98,20.00,3.00,0.00,29.90,1012.30,9.00,null,CLR,null,null,null,null,null,null,null,null,null,null,null,null,null,null,56.00,KSBA 101053Z AUTO 02003KT 9SM CLR 13/12 A2990 RMK AO2 SLP123 T01330122 $,null
SBA,2025-07-10 04:53,-119.8436,34.4261,3.00,57.00,54.00,89.68,0.00,0.00,0.00,29.91,1012.60,9.00,null,CLR,null,null,null,null,null,null,null,null,null,null,null,null,null,null,57.00,KSBA 101153Z AUTO 00000KT 9SM CLR 14/12 A2991 RMK AO2 SLP126 T01390122 10167 20133 53000 $,null
SBA,2025-07-10 05:53,-119.8436,34.4261,3.00,55.00,54.00,96.42,0.00,0.00,0.00,29.91,1012.90,8.00,null,CLR,null,null,null,null,null,null,null,null,null,null,null,null,null,null,55.00,KSBA 101253Z AUTO 00000KT 8SM CLR 13/12 A2991 RMK AO2 SLP129 T01280122 $,null
SBA,2025-07-10 06:53,-119.8436,34.4261,3.00,59.00,56.00,89.77,40.00,3.00,0.00,29.91,1012.90,8.00,null,CLR,null,null,null,null,null,null,null,null,null,null,null,null,null,null,59.00,KSBA 101353Z 04003KT 8SM CLR 15/13 A2991 RMK AO2 SLP129 T01500133 $,null
SBA,2025-07-10 07:53,-119.8436,34.4261,3.00,63.00,58.00,83.73,0.00,0.00,0.00,29.93,1013.30,8.00,null,CLR,null,null,null,null,null,null,null,null,null,null,null,null,null,null,63.00,KSBA 101453Z 00000KT 8SM CLR 17/14 A2993 RMK AO2 SLP133 T01720144 53007 $,null
SBA,2025-07-10 08:53,-119.8436,34.4261,3.00,66.00,60.00,81.00,160.00,5.00,0.00,29.93,1013.40,8.00,null,CLR,null,null,null,null,null,null,null,null,null,null,null,null,null,null,66.00,KSBA 101553Z 16005KT 8SM CLR 19/16 A2993 RMK AO2 SLP134 T01890156 $,null
SBA,2025-07-10 09:53,-119.8436,34.4261,3.00,68.00,59.00,72.95,130.00,7.00,0.00,29.93,1013.40,8.00,null,CLR,null,null,null,null,null,null,null,null,null,null,null,null,null,null,68.00,KSBA 101653Z 13007KT 8SM CLR 20/15 A2993 RMK AO2 SLP134 T02000150 $,null
SBA,2025-07-10 10:53,-119.8436,34.4261,3.00,67.00,59.00,75.50,150.00,7.00,0.00,29.93,1013.50,10.00,null,CLR,null,null,null,null,null,null,null,null,null,null,null,null,null,null,67.00,KSBA 101753Z 15007KT 10SM CLR 19/15 A2993 RMK AO2 SLP135 T01940150 10200 20122 52001 $,null
SBA,2025-07-10 11:53,-119.8436,34.4261,3.00,70.00,59.00,68.12,160.00,7.00,0.00,29.92,1013.30,10.00,null,CLR,null,null,null,null,null,null,null,null,null,null,null,null,null,null,70.00,KSBA 101853Z 16007KT 10SM CLR 21/15 A2992 RMK AO2 SLP133 T02110150 $,null
SBA,2025-07-10 12:53,-119.8436,34.4261,3.00,73.00,60.00,63.78,210.00,6.00,0.00,29.92,1013.00,10.00,null,CLR,null,null,null,null,null,null,null,null,null,null,null,null,null,null,73.00,KSBA 101953Z 21006KT 10SM CLR 23/16 A2992 RMK AO2 SLP130 T02280156 $,null
SBA,2025-07-10 13:53,-119.8436,34.4261,3.00,75.00,58.00,55.53,140.00,6.00,0.00,29.91,1012.80,10.00,null,CLR,null,null,null,null,null,null,null,null,null,null,null,null,null,null,75.00,KSBA 102053Z 14006KT 10SM CLR 24/14 A2991 RMK AO2 SLP128 T02390144 57007 $,null
SBA,2025-07-10 14:53,-119.8436,34.4261,3.00,73.00,57.00,57.28,150.00,5.00,0.00,29.89,1012.30,10.00,null,CLR,null,null,null,null,null,null,null,null,null,null,null,null,null,null,73.00,KSBA 102153Z 15005KT 10SM CLR 23/14 A2989 RMK AO2 SLP123 T02280139 $,null
SBA,2025-07-10 15:53,-119.8436,34.4261,3.00,73.00,58.00,59.38,null,5.00,0.00,29.89,1012.10,10.00,null,CLR,null,null,null,null,null,null,null,null,null,null,null,null,null,null,73.00,KSBA 102253Z VRB05KT 10SM CLR 23/14 A2989 RMK AO2 SLP121 T02280144 $,null
SBA,2025-07-10 16:53,-119.8436,34.4261,3.00,73.00,57.00,57.28,140.00,5.00,0.00,29.87,1011.40,10.00,null,CLR,null,null,null,null,null,null,null,null,null,null,null,null,null,null,73.00,KSBA 102353Z 14005KT 10SM CLR 23/14 A2987 RMK AO2 SLP114 T02280139 10244 20194 58014 $,null
SBA,2025-07-10 17:53,-119.8436,34.4261,3.00,67.00,59.00,75.50,150.00,6.00,0.00,29.86,1011.20,10.00,null,CLR,null,null,null,null,null,null,null,null,null,null,null,null,null,null,67.00,KSBA 110053Z 15006KT 10SM CLR 19/15 A2986 RMK AO2 SLP112 T01940150 $,null
SBA,2025-07-10 18:53,-119.8436,34.4261,3.00,65.00,58.00,78.08,150.00,6.00,0.00,29.86,1011.20,9.00,null,CLR,null,null,null,null,null,null,null,null,null,null,null,null,null,null,65.00,KSBA 110153Z 15006KT 9SM CLR 18/14 A2986 RMK AO2 SLP112 T01830144 $,null
SBA,2025-07-10 19:53,-119.8436,34.4261,3.00,63.00,58.00,83.73,130.00,5.00,0.00,29.86,1010.90,9.00,null,CLR,null,null,null,null,null,null,null,null,null,null,null,null,null,null,63.00,KSBA 110253Z 13005KT 9SM CLR 17/14 A2986 RMK AO2 SLP109 T01720144 58005 $,null
SBA,2025-07-10 20:53,-119.8436,34.4261,3.00,62.00,57.00,83.67,130.00,6.00,0.00,29.85,1010.70,9.00,null,CLR,null,null,null,null,null,null,null,null,null,null,null,null,null,null,62.00,KSBA 110353Z 13006KT 9SM CLR 17/14 A2985 RMK AO2 SLP107 T01670139 $,null
SBA,2025-07-10 21:53,-119.8436,34.4261,3.00,62.00,58.00,86.73,90.00,4.00,0.00,29.87,1011.50,9.00,null,CLR,null,null,null,null,null,null,null,null,null,null,null,null,null,null,62.00,KSBA 110453Z 09004KT 9SM CLR 17/14 A2987 RMK AO2 SLP115 T01670144 $,null
SBA,2025-07-10 22:53,-119.8436,34.4261,3.00,62.00,58.00,86.73,90.00,4.00,0.00,29.87,1011.30,8.00,null,CLR,null,null,null,null,null,null,null,null,null,null,null,null,null,null,62.00,KSBA 110553Z AUTO 09004KT 8SM CLR 17/14 A2987 RMK AO2 SLP113 T01670144 10228 20167 53004 $,null
SBA,2025-07-10 23:53,-119.8436,34.4261,3.00,61.00,58.00,89.85,90.00,3.00,0.00,29.87,1011.40,8.00,null,CLR,null,null,null,null,null,null,null,null,null,null,null,null,null,null,61.00,KSBA 110653Z AUTO 09003KT 8SM CLR 16/14 A2987 RMK AO2 SLP114 T01610144 $,null
SBA,2025-07-11 00:53,-119.8436,34.4261,3.00,60.00,57.00,89.81,90.00,3.00,0.00,29.87,1011.30,8.00,null,CLR,null,null,null,null,null,null,null,null,null,null,null,null,null,null,60.00,KSBA 110753Z AUTO 09003KT 8SM CLR 16/14 A2987 RMK AO2 SLP113 T01560139 402440122 $,null
SBA,2025-07-11 01:53,-119.8436,34.4261,3.00,59.00,56.00,89.77,20.00,3.00,0.00,29.86,1011.20,9.00,null,CLR,null,null,null,null,null,null,null,null,null,null,null,null,null,null,59.00,KSBA 110853Z AUTO 02003KT 9SM CLR 15/13 A2986 RMK AO2 SLP112 T01500133 58001 $,null
SBA,2025-07-11 02:53,-119.8436,34.4261,3.00,59.00,57.00,93.07,60.00,5.00,0.00,29.87,1011.50,7.00,null,CLR,null,null,null,null,null,null,null,null,null,null,null,null,null,null,59.00,KSBA 110953Z AUTO 06005KT 7SM CLR 15/14 A2987 RMK AO2 SLP115 T01500139 $,null
SBA,2025-07-11 03:45,-119.8436,34.4261,3.00,59.00,57.00,93.07,80.00,5.00,0.00,29.88,null,7.00,null,FEW,null,null,null,500.00,null,null,null,null,null,null,null,null,null,null,59.00,KSBA 111045Z AUTO 08005KT 7SM FEW005 15/14 A2988 RMK AO2 T01500139 $,null
SBA,2025-07-11 03:53,-119.8436,34.4261,3.00,60.00,57.00,89.81,70.00,6.00,0.00,29.88,1011.80,7.00,null,FEW,null,null,null,500.00,null,null,null,null,null,null,null,null,null,null,60.00,KSBA 111053Z AUTO 07006KT 7SM FEW005 16/14 A2988 RMK AO2 SLP118 T01560139 $,null
SBA,2025-07-11 04:19,-119.8436,34.4261,3.00,60.00,58.00,93.10,100.00,6.00,0.00,29.89,null,7.00,null,BKN,null,null,null,700.00,null,null,null,null,null,null,null,null,null,null,60.00,KSBA 111119Z AUTO 10006KT 7SM BKN007 16/14 A2989 RMK AO2 T01560144 $,null
SBA,2025-07-11 04:53,-119.8436,34.4261,3.00,60.00,57.00,89.81,100.00,7.00,0.00,29.89,1012.20,9.00,null,OVC,null,null,null,600.00,null,null,null,null,null,null,null,null,null,null,60.00,KSBA 111153Z AUTO 10007KT 9SM OVC006 16/14 A2989 RMK AO2 SLP122 T01560139 10167 20139 53010 $,null
SBA,2025-07-11 05:53,-119.8436,34.4261,3.00,59.00,57.00,93.07,90.00,8.00,0.00,29.92,1013.00,9.00,null,OVC,null,null,null,500.00,null,null,null,null,null,null,null,null,null,null,59.00,KSBA 111253Z AUTO 09008KT 9SM OVC005 15/14 A2992 RMK AO2 SLP130 T01500139 $,null
SBA,2025-07-11 06:53,-119.8436,34.4261,3.00,59.00,57.00,93.07,130.00,8.00,0.00,29.93,1013.60,7.00,null,OVC,null,null,null,400.00,null,null,null,null,null,null,null,null,null,null,59.00,KSBA 111353Z 13008KT 7SM OVC004 15/14 A2993 RMK AO2 SLP136 T01500139 $,null
SBA,2025-07-11 07:53,-119.8436,34.4261,3.00,59.00,57.00,93.07,130.00,5.00,0.00,29.94,1013.90,7.00,null,OVC,null,null,null,400.00,null,null,null,null,null,null,null,null,null,null,59.00,KSBA 111453Z 13005KT 7SM OVC004 15/14 A2994 RMK AO2 SLP139 T01500139 51017 $,null
SBA,2025-07-11 08:53,-119.8436,34.4261,3.00,58.00,56.00,93.04,200.00,4.00,0.00,29.96,1014.50,6.00,null,OVC,null,null,null,300.00,null,null,null,BR,null,null,null,null,null,null,58.00,KSBA 111553Z 20004KT 6SM BR OVC003 14/13 A2996 RMK AO2 SLP145 T01440133 $,null
SBA,2025-07-11 09:53,-119.8436,34.4261,3.00,60.00,56.00,86.62,140.00,6.00,0.00,29.96,1014.40,10.00,null,OVC,null,null,null,600.00,null,null,null,null,null,null,null,null,null,null,60.00,KSBA 111653Z 14006KT 10SM OVC006 16/13 A2996 RMK AO2 CIG 004V008 SLP144 T01560133 $,null
SBA,2025-07-11 10:53,-119.8436,34.4261,3.00,63.00,57.00,80.77,180.00,6.00,0.00,29.96,1014.40,10.00,null,OVC,null,null,null,900.00,null,null,null,null,null,null,null,null,null,null,63.00,KSBA 111753Z 18006KT 10SM OVC009 17/14 A2996 RMK AO2 SLP144 T01720139 10178 20144 51005 $,null
SBA,2025-07-11 11:15,-119.8436,34.4261,3.00,65.00,58.00,78.08,150.00,7.00,0.00,29.96,null,10.00,null,SCT,BKN,null,null,600.00,1000.00,null,null,null,null,null,null,null,null,null,65.00,KSBA 111815Z 15007KT 10SM SCT006 BKN010 18/14 A2996 RMK AO2 T01830144 $,null
SBA,2025-07-11 11:39,-119.8436,34.4261,3.00,65.00,58.00,78.08,150.00,8.00,0.00,29.96,null,10.00,null,SCT,SCT,null,null,600.00,1200.00,null,null,null,null,null,null,null,null,null,65.00,KSBA 111839Z 15008KT 10SM SCT006 SCT012 18/14 A2996 RMK AO2 FG BNK ALONG SHORE E-W T01830144 $,null
SBA,2025-07-11 11:53,-119.8436,34.4261,3.00,65.00,58.00,78.08,180.00,7.00,0.00,29.96,1014.30,10.00,null,SCT,SCT,null,null,600.00,1200.00,null,null,null,null,null,null,null,null,null,65.00,KSBA 111853Z 18007KT 10SM SCT006 SCT012 18/14 A2996 RMK AO2 SLP143 FG BNK ALONG SHORE E-W T01830144 $,null
SBA,2025-07-11 12:48,-119.8436,34.4261,3.00,66.20,57.20,72.76,140.00,8.00,0.00,29.96,null,10.00,null,BKN,null,null,null,1000.00,null,null,null,null,null,null,null,null,null,null,66.20,KSBA 111948Z 14008KT 10SM BKN010 19/14 A2996 RMK AO2 CIG 008V013 $,null
SBA,2025-07-11 12:53,-119.8436,34.4261,3.00,66.00,58.00,75.41,160.00,8.00,0.00,29.96,1014.60,10.00,null,BKN,null,null,null,1000.00,null,null,null,null,null,null,null,null,null,null,66.00,KSBA 111953Z 16008KT 10SM BKN010 19/14 A2996 RMK AO2 CIG 008V013 SLP146 T01890144 $,null
SBA,2025-07-11 13:53,-119.8436,34.4261,3.00,66.00,58.00,75.41,190.00,6.00,0.00,29.95,1014.20,10.00,null,BKN,null,null,null,1100.00,null,null,null,null,null,null,null,null,null,null,66.00,KSBA 112053Z 19006KT 10SM BKN011 19/14 A2995 RMK AO2 SLP142 T01890144 58001 $,null
SBA,2025-07-11 14:21,-119.8436,34.4261,3.00,67.00,59.00,75.50,240.00,7.00,0.00,29.95,null,10.00,null,SCT,null,null,null,1100.00,null,null,null,null,null,null,null,null,null,null,67.00,KSBA 112121Z 24007KT 10SM SCT011 19/15 A2995 RMK AO2 FG BNK SHRLNE E-W T01940150,null
SBA,2025-07-11 14:53,-119.8436,34.4261,3.00,68.00,58.00,70.38,240.00,7.00,0.00,29.95,1014.10,10.00,null,CLR,null,null,null,null,null,null,null,null,null,null,null,null,null,null,68.00,KSBA 112153Z 24007KT 10SM CLR 20/14 A2995 RMK AO2 SLP141 FG BNK SHRLNE E-W T02000144,null
SBA,2025-07-11 15:53,-119.8436,34.4261,3.00,69.00,59.00,70.49,230.00,8.00,0.00,29.93,1013.30,10.00,null,CLR,null,null,null,null,null,null,null,null,null,null,null,null,null,null,69.00,KSBA 112253Z 23008KT 10SM CLR 21/15 A2993 RMK AO2 SLP133 FG BNK SHORELINE E-W T02060150,null
SBA,2025-07-11 16:53,-119.8436,34.4261,3.00,67.00,58.00,72.85,280.00,6.00,0.00,29.93,1013.30,10.00,null,CLR,null,null,null,null,null,null,null,null,null,null,null,null,null,null,67.00,KSBA 112353Z 28006KT 10SM CLR 19/14 A2993 RMK AO2 SLP133 T01940144 10206 20172 56009,null
SBA,2025-07-11 17:53,-119.8436,34.4261,3.00,65.00,58.00,78.08,null,5.00,0.00,29.93,1013.40,10.00,null,CLR,null,null,null,null,null,null,null,null,null,null,null,null,null,null,65.00,KSBA 120053Z VRB05KT 10SM CLR 18/14 A2993 RMK AO2 SLP134 FG BNK ALONG SHORELINE E-W T01830144,null
SBA,2025-07-11 18:53,-119.8436,34.4261,3.00,62.00,58.00,86.73,240.00,6.00,0.00,29.92,1013.30,8.00,null,SCT,null,null,null,600.00,null,null,null,null,null,null,null,null,null,null,62.00,KSBA 120153Z 24006KT 8SM SCT006 17/14 A2992 RMK AO2 SLP133 T01670144,null
SBA,2025-07-11 19:28,-119.8436,34.4261,3.00,61.00,57.00,86.68,270.00,7.00,0.00,29.93,null,8.00,null,BKN,null,null,null,500.00,null,null,null,null,null,null,null,null,null,null,61.00,KSBA 120228Z 27007KT 8SM BKN005 16/14 A2993 RMK AO2 T01610139,null
SBA,2025-07-11 19:53,-119.8436,34.4261,3.00,60.00,57.00,89.81,250.00,6.00,0.00,29.93,1013.50,8.00,null,OVC,null,null,null,500.00,null,null,null,null,null,null,null,null,null,null,60.00,KSBA 120253Z 25006KT 8SM OVC005 16/14 A2993 RMK AO2 SLP135 T01560139 53001,null
SBA,2025-07-11 20:53,-119.8436,34.4261,3.00,59.00,57.00,93.07,260.00,4.00,0.00,29.94,1013.70,8.00,null,OVC,null,null,null,300.00,null,null,null,null,null,null,null,null,null,null,59.00,KSBA 120353Z 26004KT 8SM OVC003 15/14 A2994 RMK AO2 SLP137 T01500139,null
SBA,2025-07-11 21:53,-119.8436,34.4261,3.00,60.00,57.00,89.81,0.00,0.00,0.00,29.95,1014.00,8.00,null,OVC,null,null,null,300.00,null,null,null,null,null,null,null,null,null,null,60.00,KSBA 120453Z 00000KT 8SM OVC003 16/14 A2995 RMK AO2 SLP140 T01560139,null
SBA,2025-07-11 22:53,-119.8436,34.4261,3.00,60.00,57.00,89.81,250.00,3.00,0.00,29.95,1014.00,8.00,null,OVC,null,null,null,300.00,null,null,null,null,null,null,null,null,null,null,60.00,KSBA 120553Z 25003KT 8SM OVC003 16/14 A2995 RMK AO2 SLP140 T01560139 10194 20150 51006,null
SBA,2025-07-11 23:00,-119.8436,34.4261,3.00,60.00,57.00,89.81,0.00,0.00,0.00,29.95,null,8.00,null,OVC,null,null,null,500.00,null,null,null,null,null,null,null,null,null,null,60.00,KSBA 120600Z AUTO 00000KT 8SM OVC005 16/14 A2995 RMK AO2 T01560139,null
SBA,2025-07-11 23:53,-119.8436,34.4261,3.00,60.00,58.00,93.10,0.00,0.00,0.00,29.96,1014.40,6.00,null,OVC,null,null,null,400.00,null,null,null,BR,null,null,null,null,null,null,60.00,KSBA 120653Z AUTO 00000KT 6SM BR OVC004 16/14 A2996 RMK AO2 SLP144 T01560144,null
SBA,2025-07-12 00:33,-119.8436,34.4261,3.00,60.00,58.00,93.10,0.00,0.00,0.00,29.95,null,7.00,null,OVC,null,null,null,500.00,null,null,null,null,null,null,null,null,null,null,60.00,KSBA 120733Z AUTO 00000KT 7SM OVC005 16/14 A2995 RMK AO2 T01560144,null
SBA,2025-07-12 00:53,-119.8436,34.4261,3.00,60.00,58.00,93.10,260.00,3.00,0.00,29.95,1014.20,7.00,null,OVC,null,null,null,500.00,null,null,null,null,null,null,null,null,null,null,60.00,KSBA 120753Z AUTO 26003KT 7SM OVC005 16/14 A2995 RMK AO2 SLP142 T01560144 402060139,null
SBA,2025-07-12 01:21,-119.8436,34.4261,3.00,59.00,58.00,96.48,0.00,0.00,0.00,29.95,null,5.00,null,OVC,null,null,null,400.00,null,null,null,BR,null,null,null,null,null,null,59.00,KSBA 120821Z AUTO 00000KT 5SM BR OVC004 15/14 A2995 RMK AO2 T01500144,null
SBA,2025-07-12 01:53,-119.8436,34.4261,3.00,59.00,58.00,96.48,0.00,0.00,0.00,29.95,1014.10,4.00,null,OVC,null,null,null,300.00,null,null,null,BR,null,null,null,null,null,null,59.00,KSBA 120853Z AUTO 00000KT 4SM BR OVC003 15/14 A2995 RMK AO2 SLP141 T01500144 50001,null
SBA,2025-07-12 02:17,-119.8436,34.4261,3.00,59.00,58.00,96.48,190.00,3.00,0.00,29.95,null,1.75,null,OVC,null,null,null,300.00,null,null,null,BR,null,null,null,null,null,null,59.00,KSBA 120917Z AUTO 19003KT 1 3/4SM BR OVC003 15/14 A2995 RMK AO2 T01500144,null
SBA,2025-07-12 02:53,-119.8436,34.4261,3.00,58.00,57.00,96.47,200.00,3.00,0.00,29.94,1013.90,2.00,null,OVC,null,null,null,200.00,null,null,null,BR,null,null,null,null,null,null,58.00,KSBA 120953Z AUTO 20003KT 2SM BR OVC002 14/14 A2994 RMK AO2 SLP139 T01440139,null
SBA,2025-07-12 03:42,-119.8436,34.4261,3.00,58.00,57.00,96.47,210.00,3.00,0.00,29.94,null,3.00,null,OVC,null,null,null,200.00,null,null,null,BR,null,null,null,null,null,null,58.00,KSBA 121042Z AUTO 21003KT 3SM BR OVC002 14/14 A2994 RMK AO2 T01440139,null
SBA,2025-07-12 03:53,-119.8436,34.4261,3.00,58.00,57.00,96.47,0.00,0.00,0.00,29.94,1013.60,3.00,null,OVC,null,null,null,200.00,null,null,null,BR,null,null,null,null,null,null,58.00,KSBA 121053Z AUTO 00000KT 3SM BR OVC002 14/14 A2994 RMK AO2 SLP136 T01440139,null
SBA,2025-07-12 04:13,-119.8436,34.4261,3.00,58.00,57.00,96.47,0.00,0.00,0.00,29.94,null,2.50,null,OVC,null,null,null,200.00,null,null,null,BR,null,null,null,null,null,null,58.00,KSBA 121113Z AUTO 00000KT 2 1/2SM BR OVC002 14/14 A2994 RMK AO2 VIS 2V3 T01440139,null
SBA,2025-07-12 04:22,-119.8436,34.4261,3.00,58.00,57.00,96.47,210.00,3.00,0.00,29.94,null,3.00,null,OVC,null,null,null,200.00,null,null,null,BR,null,null,null,null,null,null,58.00,KSBA 121122Z AUTO 21003KT 3SM BR OVC002 14/14 A2994 RMK AO2 T01440139,null
SBA,2025-07-12 04:53,-119.8436,34.4261,3.00,58.00,57.00,96.47,0.00,0.00,0.00,29.95,1014.20,4.00,null,OVC,null,null,null,200.00,null,null,null,BR,null,null,null,null,null,null,58.00,KSBA 121153Z AUTO 00000KT 4SM BR OVC002 14/14 A2995 RMK AO2 SLP142 T01440139 10156 20144 53000,null
SBA,2025-07-12 05:22,-119.8436,34.4261,3.00,58.00,57.00,96.47,null,3.00,0.00,29.96,null,2.50,null,OVC,null,null,null,200.00,null,null,null,BR,null,null,null,null,null,null,58.00,KSBA 121222Z AUTO VRB03KT 2 1/2SM BR OVC002 14/14 A2996 RMK AO2 T01440139,null
SBA,2025-07-12 05:29,-119.8436,34.4261,3.00,58.00,57.00,96.47,0.00,0.00,0.00,29.96,null,4.00,null,OVC,null,null,null,200.00,null,null,null,BR,null,null,null,null,null,null,58.00,KSBA 121229Z AUTO 00000KT 4SM BR OVC002 14/14 A2996 RMK AO2 T01440139,null
SBA,2025-07-12 05:49,-119.8436,34.4261,3.00,57.20,57.20,100.00,230.00,3.00,0.00,29.97,null,2.50,null,OVC,null,null,null,300.00,null,null,null,BR,null,null,null,null,null,null,57.20,KSBA 121249Z AUTO 23003KT 2 1/2SM BR OVC003 14/14 A2997 RMK AO2,null
SBA,2025-07-12 05:53,-119.8436,34.4261,3.00,58.00,57.00,96.47,210.00,4.00,0.00,29.97,1014.80,2.50,null,OVC,null,null,null,300.00,null,null,null,BR,null,null,null,null,null,null,58.00,KSBA 121253Z 21004KT 2 1/2SM BR OVC003 14/14 A2997 RMK AO2 SLP148 T01440139,null
SBA,2025-07-12 06:53,-119.8436,34.4261,3.00,58.00,57.00,96.47,150.00,3.00,0.00,29.98,1015.20,3.00,null,OVC,null,null,null,300.00,null,null,null,BR,null,null,null,null,null,null,58.00,KSBA 121353Z 15003KT 3SM BR OVC003 14/14 A2998 RMK AO2 SLP152 T01440139,null
SBA,2025-07-12 07:53,-119.8436,34.4261,3.00,59.00,58.00,96.48,120.00,5.00,0.00,30.00,1015.80,3.00,null,OVC,null,null,null,400.00,null,null,null,BR,null,null,null,null,null,null,59.00,KSBA 121453Z 12005KT 3SM BR OVC004 15/14 A3000 RMK AO2 SLP158 T01500144 53010 $,null
SBA,2025-07-12 08:53,-119.8436,34.4261,3.00,59.00,58.00,96.48,150.00,6.00,0.00,30.01,1016.20,9.00,null,OVC,null,null,null,400.00,null,null,null,null,null,null,null,null,null,null,59.00,KSBA 121553Z 15006KT 9SM OVC004 15/14 A3001 RMK AO2 SLP162 T01500144 $,null
SBA,2025-07-12 09:53,-119.8436,34.4261,3.00,60.00,58.00,93.10,130.00,4.00,0.00,30.02,1016.60,9.00,null,OVC,null,null,null,400.00,null,null,null,null,null,null,null,null,null,null,60.00,KSBA 121653Z 13004KT 9SM OVC004 16/14 A3002 RMK AO2 SLP166 T01560144 $,null
SBA,2025-07-12 10:53,-119.8436,34.4261,3.00,61.00,58.00,89.85,140.00,5.00,0.00,30.02,1016.60,10.00,null,OVC,null,null,null,700.00,null,null,null,null,null,null,null,null,null,null,61.00,KSBA 121753Z COR 14005KT 10SM OVC007 16/14 A3002 RMK AO2 SLP166 T01610144 10161 20144 51008 $,null
SBA,2025-07-12 11:53,-119.8436,34.4261,3.00,63.00,59.00,86.79,130.00,8.00,0.00,30.03,1016.70,9.00,null,OVC,null,null,null,800.00,null,null,null,null,null,null,null,null,null,null,63.00,KSBA 121853Z 13008KT 9SM OVC008 17/15 A3003 RMK AO2 SLP167 T01720150 $,null
SBA,2025-07-12 12:50,-119.8436,34.4261,3.00,68.00,60.80,77.77,160.00,8.00,0.00,30.02,null,10.00,null,OVC,null,null,null,1300.00,null,null,null,null,null,null,null,null,null,null,68.00,KSBA 121950Z 16008KT 10SM OVC013 20/16 A3002 RMK AO2 $,null
SBA,2025-07-12 12:53,-119.8436,34.4261,3.00,68.00,60.00,75.59,150.00,7.00,0.00,30.02,1016.60,10.00,null,OVC,null,null,null,1300.00,null,null,null,null,null,null,null,null,null,null,68.00,KSBA 121953Z 15007KT 10SM OVC013 20/16 A3002 RMK AO2 SLP166 T02000156 $,null
SBA,2025-07-12 13:33,-119.8436,34.4261,3.00,70.00,60.00,70.59,160.00,10.00,0.00,30.01,null,10.00,null,SCT,null,null,null,2000.00,null,null,null,null,null,null,null,null,null,null,70.00,KSBA 122033Z 16010KT 10SM SCT020 21/16 A3001 RMK AO2 T02110156 $,null
SBA,2025-07-12 13:53,-119.8436,34.4261,3.00,70.00,60.00,70.59,160.00,10.00,0.00,30.00,1016.00,10.00,null,CLR,null,null,null,null,null,null,null,null,null,null,null,null,null,null,70.00,KSBA 122053Z 16010KT 10SM CLR 21/16 A3000 RMK AO2 SLP160 T02110156 58007 $,null
SBA,2025-07-12 14:53,-119.8436,34.4261,3.00,70.00,60.00,70.59,160.00,7.00,0.00,30.00,1015.70,10.00,null,CLR,null,null,null,null,null,null,null,null,null,null,null,null,null,null,70.00,KSBA 122153Z 16007KT 10SM CLR 21/16 A3000 RMK AO2 SLP157 T02110156 $,null
SBA,2025-07-12 15:53,-119.8436,34.4261,3.00,70.00,60.00,70.59,220.00,6.00,0.00,29.98,1015.20,10.00,null,CLR,null,null,null,null,null,null,null,null,null,null,null,null,null,null,70.00,KSBA 122253Z 22006KT 10SM CLR 21/16 A2998 RMK AO2 SLP152 T02110156 $,null
SBA,2025-07-12 16:53,-119.8436,34.4261,3.00,69.00,60.00,73.05,240.00,9.00,0.00,29.96,1014.60,10.00,null,CLR,null,null,null,null,null,null,null,null,null,null,null,null,null,null,69.00,KSBA 122353Z 24009KT 10SM CLR 21/16 A2996 RMK AO2 SLP146 T02060156 10217 20161 58013 $,null
SBA,2025-07-12 17:53,-119.8436,34.4261,3.00,66.00,59.00,78.16,260.00,10.00,0.00,29.96,1014.40,10.00,null,SCT,null,null,null,600.00,null,null,null,null,null,null,null,null,null,null,66.00,KSBA 130053Z 26010KT 10SM SCT006 19/15 A2996 RMK AO2 SLP144 T01890150 $,null
SBA,2025-07-12 18:38,-119.8436,34.4261,3.00,63.00,58.00,83.73,270.00,9.00,0.00,29.96,null,10.00,null,BKN,null,null,null,700.00,null,null,null,null,null,null,null,null,null,null,63.00,KSBA 130138Z 27009KT 10SM BKN007 17/14 A2996 RMK AO2 T01720144 $,null
SBA,2025-07-12 18:53,-119.8436,34.4261,3.00,63.00,58.00,83.73,270.00,10.00,0.00,29.96,1014.50,10.00,null,BKN,null,null,null,700.00,null,null,null,null,null,null,null,null,null,null,63.00,KSBA 130153Z 27010KT 10SM BKN007 17/14 A2996 RMK AO2 SLP145 T01720144 $,null
SBA,2025-07-12 19:53,-119.8436,34.4261,3.00,61.00,58.00,89.85,260.00,6.00,0.00,29.97,null,10.00,null,BKN,null,null,null,600.00,null,null,null,null,null,null,null,null,null,null,61.00,KSBA 130253Z COR 26006KT 10SM BKN006 16/14 A2997 RMK AO2 T01610144 $,null
SBA,2025-07-12 20:18,-119.8436,34.4261,3.00,61.00,58.00,89.85,260.00,6.00,0.00,29.97,null,10.00,null,BKN,null,null,null,600.00,null,null,null,null,null,null,null,null,null,null,61.00,KSBA 130318Z COR 26006KT 10SM BKN006 16/14 A2997 RMK AO2 T01610144 $,null
SBA,2025-07-12 20:34,-119.8436,34.4261,3.00,61.00,58.00,89.85,260.00,9.00,0.00,29.97,null,10.00,null,BKN,null,null,null,600.00,null,null,null,null,null,null,null,null,null,null,61.00,KSBA 130334Z 26009KT 10SM BKN006 16/14 A2997 RMK AO2 T01610144 $,null
SBA,2025-07-12 20:53,-119.8436,34.4261,3.00,61.00,58.00,89.85,260.00,7.00,0.00,29.97,1015.00,10.00,null,BKN,null,null,null,600.00,null,null,null,null,null,null,null,null,null,null,61.00,KSBA 130353Z 26007KT 10SM BKN006 16/14 A2997 RMK AO2 SLP150 T01610144 $,null
SBA,2025-07-12 21:53,-119.8436,34.4261,3.00,61.00,58.00,89.85,270.00,7.00,0.00,29.99,1015.50,6.00,null,OVC,null,null,null,600.00,null,null,null,BR,null,null,null,null,null,null,61.00,KSBA 130453Z 27007KT 6SM BR OVC006 16/14 A2999 RMK AO2 SLP155 T01610144 $,null
SBA,2025-07-12 22:53,-119.8436,34.4261,3.00,60.00,58.00,93.10,250.00,5.00,0.00,29.99,1015.50,9.00,null,OVC,null,null,null,500.00,null,null,null,null,null,null,null,null,null,null,60.00,KSBA 130553Z AUTO 25005KT 9SM OVC005 16/14 A2999 RMK AO2 SLP155 T01560144 10206 20156 51009 $,null
SBA,2025-07-12 23:12,-119.8436,34.4261,3.00,60.00,58.00,93.10,260.00,6.00,0.00,29.99,null,8.00,null,OVC,null,null,null,400.00,null,null,null,null,null,null,null,null,null,null,60.00,KSBA 130612Z AUTO 26006KT 8SM OVC004 16/14 A2999 RMK AO2 T01560144 $,null
SBA,2025-07-12 23:53,-119.8436,34.4261,3.00,59.00,58.00,96.48,250.00,5.00,0.00,29.99,1015.30,3.00,null,OVC,null,null,null,200.00,null,null,null,BR,null,null,null,null,null,null,59.00,KSBA 130653Z AUTO 25005KT 3SM BR OVC002 15/14 A2999 RMK AO2 SLP153 T01500144 $,null
SBA,2025-07-13 00:20,-119.8436,34.4261,3.00,59.00,58.00,96.48,250.00,5.00,0.00,29.98,null,2.50,null,OVC,null,null,null,200.00,null,null,null,BR,null,null,null,null,null,null,59.00,KSBA 130720Z AUTO 25005KT 2 1/2SM BR OVC002 15/14 A2998 RMK AO2 VIS 1 1/2V4 T01500144 $,null
SBA,2025-07-13 00:53,-119.8436,34.4261,3.00,59.00,57.00,93.07,230.00,3.00,0.00,29.98,1015.20,2.00,null,OVC,null,null,null,200.00,null,null,null,BR,null,null,null,null,null,null,59.00,KSBA 130753Z AUTO 23003KT 2SM BR OVC002 15/14 A2998 RMK AO2 VIS 1 1/4V4 SLP152 T01500139 402170144 $,null
SBA,2025-07-13 01:09,-119.8436,34.4261,3.00,59.00,58.00,96.48,290.00,3.00,0.00,29.98,null,3.00,null,OVC,null,null,null,200.00,null,null,null,BR,null,null,null,null,null,null,59.00,KSBA 130809Z AUTO 29003KT 3SM BR OVC002 15/14 A2998 RMK AO2 T01500144 $,null
SBA,2025-07-13 01:24,-119.8436,34.4261,3.00,59.00,57.00,93.07,230.00,3.00,0.00,29.97,null,1.75,null,OVC,null,null,null,200.00,null,null,null,BR,null,null,null,null,null,null,59.00,KSBA 130824Z AUTO 23003KT 1 3/4SM BR OVC002 15/14 A2997 RMK AO2 T01500139 $,null
SBA,2025-07-13 01:45,-119.8436,34.4261,3.00,58.00,57.00,96.47,240.00,4.00,0.00,29.97,null,2.00,null,OVC,null,null,null,200.00,null,null,null,BR,null,null,null,null,null,null,58.00,KSBA 130845Z AUTO 24004KT 2SM BR OVC002 14/14 A2997 RMK AO2 T01440139 $,null
SBA,2025-07-13 01:53,-119.8436,34.4261,3.00,58.00,57.00,96.47,230.00,3.00,0.00,29.97,1014.90,1.50,null,OVC,null,null,null,200.00,null,null,null,BR,null,null,null,null,null,null,58.00,KSBA 130853Z AUTO 23003KT 1 1/2SM BR OVC002 14/14 A2997 RMK AO2 SLP149 T01440139 58006 $,null
SBA,2025-07-13 02:53,-119.8436,34.4261,3.00,58.00,57.00,96.47,250.00,3.00,0.00,29.97,1014.80,1.25,null,OVC,null,null,null,200.00,null,null,null,BR,null,null,null,null,null,null,58.00,KSBA 130953Z AUTO 25003KT 1 1/4SM BR OVC002 14/14 A2997 RMK AO2 VIS 3/4V2 SLP148 T01440139 $,null
SBA,2025-07-13 03:13,-119.8436,34.4261,3.00,58.00,57.00,96.47,0.00,0.00,0.00,29.97,null,2.00,null,OVC,null,null,null,200.00,null,null,null,BR,null,null,null,null,null,null,58.00,KSBA 131013Z AUTO 00000KT 2SM BR OVC002 14/14 A2997 RMK AO2 T01440139 $,null
SBA,2025-07-13 03:20,-119.8436,34.4261,3.00,58.00,58.00,100.00,0.00,0.00,0.00,29.97,null,1.75,null,OVC,null,null,null,200.00,null,null,null,BR,null,null,null,null,null,null,58.00,KSBA 131020Z AUTO 00000KT 1 3/4SM BR OVC002 14/14 A2997 RMK AO2 T01440144 $,null
SBA,2025-07-13 03:29,-119.8436,34.4261,3.00,58.00,57.00,96.47,0.00,0.00,0.00,29.97,null,2.00,null,OVC,null,null,null,200.00,null,null,null,BR,null,null,null,null,null,null,58.00,KSBA 131029Z AUTO 00000KT 2SM BR OVC002 14/14 A2997 RMK AO2 T01440139 $,null
SBA,2025-07-13 03:53,-119.8436,34.4261,3.00,58.00,57.00,96.47,0.00,0.00,0.00,29.96,1014.60,4.00,null,OVC,null,null,null,200.00,null,null,null,BR,null,null,null,null,null,null,58.00,KSBA 131053Z AUTO 00000KT 4SM BR OVC002 14/14 A2996 RMK AO2 SLP146 T01440139 $,null
SBA,2025-07-13 04:53,-119.8436,34.4261,3.00,58.00,57.00,96.47,170.00,3.00,0.00,29.97,1014.90,2.00,null,OVC,null,null,null,300.00,null,null,null,BR,null,null,null,null,null,null,58.00,KSBA 131153Z AUTO 17003KT 2SM BR OVC003 14/14 A2997 RMK AO2 SLP149 T01440139 10156 20144 52002 $,null
SBA,2025-07-13 05:53,-119.8436,34.4261,3.00,57.00,57.00,100.00,220.00,4.00,0.00,29.99,1015.50,3.00,null,OVC,null,null,null,300.00,null,null,null,BR,null,null,null,null,null,null,57.00,KSBA 131253Z 22004KT 3SM BR OVC003 14/14 A2999 RMK AO2 SLP155 T01390139 $,null
SBA,2025-07-13 06:22,-119.8436,34.4261,3.00,57.00,57.00,100.00,210.00,3.00,0.00,29.99,null,2.00,null,OVC,null,null,null,300.00,null,null,null,BR,null,null,null,null,null,null,57.00,KSBA 131322Z 21003KT 2SM BR OVC003 14/14 A2999 RMK AO2 T01390139 $,null
SBA,2025-07-13 06:53,-119.8436,34.4261,3.00,58.00,57.00,96.47,180.00,3.00,0.00,30.00,1015.90,2.00,null,OVC,null,null,null,300.00,null,null,null,BR,null,null,null,null,null,null,58.00,KSBA 131353Z 18003KT 2SM BR OVC003 14/14 A3000 RMK AO2 SLP159 T01440139 $,null
SBA,2025-07-13 07:53,-119.8436,34.4261,3.00,58.00,57.00,96.47,160.00,4.00,0.00,30.01,1016.20,2.00,null,OVC,null,null,null,400.00,null,null,null,BR,null,null,null,null,null,null,58.00,KSBA 131453Z 16004KT 2SM BR OVC004 14/14 A3001 RMK AO2 SLP162 T01440139 51014 $,null
SBA,2025-07-13 08:53,-119.8436,34.4261,3.00,58.00,57.00,96.47,150.00,5.00,0.00,30.02,1016.40,2.00,null,OVC,null,null,null,400.00,null,null,null,BR,null,null,null,null,null,null,58.00,KSBA 131553Z 15005KT 2SM BR OVC004 14/14 A3002 RMK AO2 SLP164 T01440139 $,null
SBA,2025-07-13 09:53,-119.8436,34.4261,3.00,59.00,57.00,93.07,160.00,4.00,0.00,30.03,1016.70,4.00,null,OVC,null,null,null,500.00,null,null,null,BR,null,null,null,null,null,null,59.00,KSBA 131653Z 16004KT 4SM BR OVC005 15/14 A3003 RMK AO2 SLP167 T01500139 $,null
SBA,2025-07-13 10:53,-119.8436,34.4261,3.00,60.00,56.00,86.62,150.00,5.00,0.00,30.03,1016.90,8.00,null,OVC,null,null,null,600.00,null,null,null,null,null,null,null,null,null,null,60.00,KSBA 131753Z 15005KT 8SM OVC006 16/13 A3003 RMK AO2 SLP169 T01560133 10156 20139 53007 $,null
SBA,2025-07-13 11:53,-119.8436,34.4261,3.00,61.00,57.00,86.68,210.00,3.00,0.00,30.03,1016.90,10.00,null,OVC,null,null,null,700.00,null,null,null,null,null,null,null,null,null,null,61.00,KSBA 131853Z 21003KT 10SM OVC007 16/14 A3003 RMK AO2 SLP169 T01610139 $,null
SBA,2025-07-13 12:53,-119.8436,34.4261,3.00,64.00,57.00,77.99,200.00,5.00,0.00,30.02,1016.60,10.00,null,FEW,SCT,null,null,700.00,1000.00,null,null,null,null,null,null,null,null,null,64.00,KSBA 131953Z 20005KT 10SM FEW007 SCT010 18/14 A3002 RMK AO2 SLP166 T01780139 $,null
SBA,2025-07-13 13:53,-119.8436,34.4261,3.00,65.00,57.00,75.32,230.00,7.00,0.00,30.01,1016.30,10.00,null,CLR,null,null,null,null,null,null,null,null,null,null,null,null,null,null,65.00,KSBA 132053Z 23007KT 10SM CLR 18/14 A3001 RMK AO2 SLP163 T01830139 58006 $,null
SBA,2025-07-13 14:53,-119.8436,34.4261,3.00,66.00,57.00,72.74,260.00,9.00,0.00,30.00,1015.80,10.00,null,FEW,null,null,null,800.00,null,null,null,null,null,null,null,null,null,null,66.00,KSBA 132153Z 26009KT 10SM FEW008 19/14 A3000 RMK AO2 SLP158 T01890139 $,null
SBA,2025-07-13 15:53,-119.8436,34.4261,3.00,65.00,56.00,72.64,250.00,11.00,0.00,29.98,1015.20,10.00,null,FEW,null,null,null,500.00,null,null,null,null,null,null,null,null,null,null,65.00,KSBA 132253Z 25011KT 10SM FEW005 18/13 A2998 RMK AO2 SLP152 T01830133 $,null
SBA,2025-07-13 16:53,-119.8436,34.4261,3.00,65.00,57.00,75.32,260.00,12.00,0.00,29.96,1014.50,10.00,null,FEW,null,null,null,800.00,null,null,null,null,null,null,null,null,null,null,65.00,KSBA 132353Z 26012KT 10SM FEW008 18/14 A2996 RMK AO2 SLP145 T01830139 10200 20156 58018 $,null
SBA,2025-07-13 17:53,-119.8436,34.4261,3.00,64.00,57.00,77.99,270.00,13.00,0.00,29.95,1014.10,10.00,17.00,SCT,null,null,null,800.00,null,null,null,null,null,null,null,null,null,null,64.00,KSBA 140053Z 27013G17KT 10SM SCT008 18/14 A2995 RMK AO2 SLP141 T01780139 $,null
SBA,2025-07-13 18:53,-119.8436,34.4261,3.00,62.00,57.00,83.67,260.00,11.00,0.00,29.94,1013.90,10.00,null,SCT,null,null,null,600.00,null,null,null,null,null,null,null,null,null,null,62.00,KSBA 140153Z 26011KT 10SM SCT006 17/14 A2994 RMK AO2 SLP139 T01670139 $,null
SBA,2025-07-13 19:53,-119.8436,34.4261,3.00,60.00,57.00,89.81,260.00,9.00,0.00,29.94,1013.90,10.00,null,SCT,null,null,null,700.00,null,null,null,null,null,null,null,null,null,null,60.00,KSBA 140253Z 26009KT 10SM SCT007 16/14 A2994 RMK AO2 SLP139 T01560139 55006 $,null
SBA,2025-07-13 20:01,-119.8436,34.4261,3.00,60.00,57.00,89.81,270.00,9.00,0.00,29.94,null,10.00,null,BKN,null,null,null,600.00,null,null,null,null,null,null,null,null,null,null,60.00,KSBA 140301Z 27009KT 10SM BKN006 16/14 A2994 RMK AO2 T01560139 $,null
SBA,2025-07-13 20:53,-119.8436,34.4261,3.00,59.00,57.00,93.07,250.00,8.00,0.00,29.95,1014.10,6.00,null,OVC,null,null,null,500.00,null,null,null,BR,null,null,null,null,null,null,59.00,KSBA 140353Z 25008KT 6SM BR OVC005 15/14 A2995 RMK AO2 SLP141 T01500139 $,null
SBA,2025-07-13 21:53,-119.8436,34.4261,3.00,59.00,57.00,93.07,240.00,4.00,0.00,29.95,1014.10,5.00,null,OVC,null,null,null,300.00,null,null,null,BR,null,null,null,null,null,null,59.00,KSBA 140453Z 24004KT 5SM BR OVC003 15/14 A2995 RMK AO2 SLP141 T01500139 $,null
SBA,2025-07-13 22:53,-119.8436,34.4261,3.00,59.00,57.00,93.07,0.00,0.00,0.00,29.96,1014.60,10.00,null,OVC,null,null,null,500.00,null,null,null,null,null,null,null,null,null,null,59.00,KSBA 140553Z AUTO 00000KT 10SM OVC005 15/14 A2996 RMK AO2 SLP146 T01500139 10183 20150 53008 $,null
SBA,2025-07-13 23:18,-119.8436,34.4261,3.00,58.00,57.00,96.47,150.00,3.00,0.00,29.96,null,9.00,null,OVC,null,null,null,400.00,null,null,null,null,null,null,null,null,null,null,58.00,KSBA 140618Z AUTO 15003KT 9SM OVC004 14/14 A2996 RMK AO2 T01440139 $,null
SBA,2025-07-13 23:53,-119.8436,34.4261,3.00,58.00,57.00,96.47,140.00,6.00,0.00,29.96,1014.40,6.00,null,OVC,null,null,null,300.00,null,null,null,BR,null,null,null,null,null,null,58.00,KSBA 140653Z AUTO 14006KT 6SM BR OVC003 14/14 A2996 RMK AO2 SLP144 T01440139 $,null
SBA,2025-07-14 00:53,-119.8436,34.4261,3.00,58.00,57.00,96.47,130.00,7.00,0.00,29.94,1013.80,6.00,null,OVC,null,null,null,300.00,null,null,null,BR,null,null,null,null,null,null,58.00,KSBA 140753Z AUTO 13007KT 6SM BR OVC003 14/14 A2994 RMK AO2 SLP138 T01440139 402000139 $,null
SBA,2025-07-14 01:53,-119.8436,34.4261,3.00,58.00,57.00,96.47,110.00,9.00,0.00,29.94,1013.70,5.00,null,OVC,null,null,null,300.00,null,null,null,BR,null,null,null,null,null,null,58.00,KSBA 140853Z AUTO 11009KT 5SM BR OVC003 14/14 A2994 RMK AO2 SLP137 T01440139 56010 $,null
SBA,2025-07-14 02:53,-119.8436,34.4261,3.00,58.00,57.00,96.47,100.00,7.00,0.00,29.94,1013.70,4.00,null,OVC,null,null,null,300.00,null,null,null,BR,null,null,null,null,null,null,58.00,KSBA 140953Z AUTO 10007KT 4SM BR OVC003 14/14 A2994 RMK AO2 SLP137 T01440139 $,null
SBA,2025-07-14 03:53,-119.8436,34.4261,3.00,58.00,57.00,96.47,110.00,7.00,0.00,29.94,1013.70,3.00,null,OVC,null,null,null,300.00,null,null,null,BR,null,null,null,null,null,null,58.00,KSBA 141053Z AUTO 11007KT 3SM BR OVC003 14/14 A2994 RMK AO2 SLP137 T01440139 $,null
SBA,2025-07-14 04:53,-119.8436,34.4261,3.00,58.00,57.00,96.47,90.00,8.00,0.00,29.95,1014.20,7.00,null,OVC,null,null,null,300.00,null,null,null,null,null,null,null,null,null,null,58.00,KSBA 141153Z AUTO 09008KT 7SM OVC003 14/14 A2995 RMK AO2 SLP142 T01440139 10150 20144 53005 $,null
SBA,2025-07-14 05:53,-119.8436,34.4261,3.00,58.00,57.00,96.47,90.00,3.00,0.00,29.96,1014.30,8.00,null,OVC,null,null,null,500.00,null,null,null,null,null,null,null,null,null,null,58.00,KSBA 141253Z AUTO 09003KT 8SM OVC005 14/14 A2996 RMK AO2 SLP143 T01440139 $,null
SBA,2025-07-14 06:53,-119.8436,34.4261,3.00,59.00,57.00,93.07,140.00,5.00,0.00,29.97,1014.80,9.00,null,OVC,null,null,null,600.00,null,null,null,null,null,null,null,null,null,null,59.00,KSBA 141353Z 14005KT 9SM OVC006 15/14 A2997 RMK AO2 SLP148 T01500139 $,null
SBA,2025-07-14 07:53,-119.8436,34.4261,3.00,59.00,57.00,93.07,110.00,3.00,0.00,29.98,1015.30,5.00,null,OVC,null,null,null,600.00,null,null,null,BR,null,null,null,null,null,null,59.00,KSBA 141453Z 11003KT 5SM BR OVC006 15/14 A2998 RMK AO2 CIG 004V008 SLP153 T01500139 53011 $,null
SBA,2025-07-14 08:53,-119.8436,34.4261,3.00,61.00,57.00,86.68,80.00,7.00,0.00,30.00,1015.70,10.00,null,OVC,null,null,null,900.00,null,null,null,null,null,null,null,null,null,null,61.00,KSBA 141553Z 08007KT 10SM OVC009 16/14 A3000 RMK AO2 SLP157 T01610139 $,null
SBA,2025-07-14 09:53,-119.8436,34.4261,3.00,62.00,58.00,86.73,110.00,8.00,0.00,30.00,1015.90,8.00,null,OVC,null,null,null,700.00,null,null,null,null,null,null,null,null,null,null,62.00,KSBA 141653Z 11008KT 8SM OVC007 17/14 A3000 RMK AO2 CIG 006V010 SLP159 T01670144 $,null
SBA,2025-07-14 10:53,-119.8436,34.4261,3.00,63.00,58.00,83.73,160.00,6.00,0.00,29.98,1015.30,7.00,null,OVC,null,null,null,700.00,null,null,null,null,null,null,null,null,null,null,63.00,KSBA 141753Z 16006KT 7SM OVC007 17/14 A2998 RMK AO2 SLP153 T01720144 10172 20144 50000 $,null
SBA,2025-07-14 11:53,-119.8436,34.4261,3.00,66.00,58.00,75.41,150.00,8.00,0.00,29.97,1014.80,8.00,null,BKN,null,null,null,700.00,null,null,null,null,null,null,null,null,null,null,66.00,KSBA 141853Z 15008KT 8SM BKN007 19/14 A2997 RMK AO2 SLP148 T01890144 $,null
SBA,2025-07-14 12:30,-119.8436,34.4261,3.00,67.00,58.00,72.85,160.00,7.00,0.00,29.97,null,10.00,null,SCT,null,null,null,1200.00,null,null,null,null,null,null,null,null,null,null,67.00,KSBA 141930Z 16007KT 10SM SCT012 19/14 A2997 RMK AO2 T01940144 $,null
SBA,2025-07-14 12:53,-119.8436,34.4261,3.00,67.00,58.00,72.85,170.00,8.00,0.00,29.97,1014.70,10.00,null,SCT,null,null,null,1200.00,null,null,null,null,null,null,null,null,null,null,67.00,KSBA 141953Z 17008KT 10SM SCT012 19/14 A2997 RMK AO2 SLP147 T01940144 $,null
SBA,2025-07-14 13:53,-119.8436,34.4261,3.00,67.00,58.00,72.85,null,6.00,0.00,29.96,1014.40,10.00,null,SCT,null,null,null,1200.00,null,null,null,null,null,null,null,null,null,null,67.00,KSBA 142053Z VRB06KT 10SM SCT012 19/14 A2996 RMK AO2 SLP144 T01940144 56009 $,null
SBA,2025-07-14 14:53,-119.8436,34.4261,3.00,67.00,59.00,75.50,230.00,8.00,0.00,29.93,1013.60,10.00,null,FEW,null,null,null,1200.00,null,null,null,null,null,null,null,null,null,null,67.00,KSBA 142153Z 23008KT 10SM FEW012 19/15 A2993 RMK AO2 SLP136 T01940150 $,null
SBA,2025-07-14 15:53,-119.8436,34.4261,3.00,67.00,58.00,72.85,230.00,8.00,0.00,29.93,1013.40,10.00,null,FEW,null,null,null,1300.00,null,null,null,null,null,null,null,null,null,null,67.00,KSBA 142253Z 23008KT 10SM FEW013 19/14 A2993 RMK AO2 SLP134 T01940144 $,null
SBA,2025-07-14 16:53,-119.8436,34.4261,3.00,66.00,58.00,75.41,230.00,11.00,0.00,29.91,1012.60,10.00,null,SCT,null,null,null,1300.00,null,null,null,null,null,null,null,null,null,null,66.00,KSBA 142353Z 23011KT 10SM SCT013 19/14 A2991 RMK AO2 SLP126 T01890144 10206 20167 56017 $,null
SBA,2025-07-14 17:53,-119.8436,34.4261,3.00,63.00,57.00,80.77,240.00,9.00,0.00,29.89,1012.20,10.00,16.00,SCT,null,null,null,800.00,null,null,null,null,null,null,null,null,null,null,63.00,KSBA 150053Z COR 24009KT 10SM SCT008 17/14 A2989 RMK AO2 SLP122 T01720139 $,null
SBA,2025-07-14 18:26,-119.8436,34.4261,3.00,62.00,57.00,83.67,250.00,9.00,0.00,29.89,null,10.00,null,BKN,null,null,null,500.00,null,null,null,null,null,null,null,null,null,null,62.00,KSBA 150126Z 25009KT 10SM BKN005 17/14 A2989 RMK AO2 T01670139 $,null
SBA,2025-07-14 18:53,-119.8436,34.4261,3.00,61.00,57.00,86.68,260.00,9.00,0.00,29.89,1012.20,10.00,null,BKN,null,null,null,500.00,null,null,null,null,null,null,null,null,null,null,61.00,KSBA 150153Z 26009KT 10SM BKN005 16/14 A2989 RMK AO2 SLP122 T01610139 $,null
SBA,2025-07-14 19:53,-119.8436,34.4261,3.00,59.00,57.00,93.07,250.00,7.00,0.00,29.90,1012.30,4.00,null,BKN,null,null,null,500.00,null,null,null,BR,null,null,null,null,null,null,59.00,KSBA 150253Z 25007KT 4SM BR BKN005 15/14 A2990 RMK AO2 SLP123 T01500139 55003 $,null
SBA,2025-07-14 20:53,-119.8436,34.4261,3.00,59.00,57.00,93.07,240.00,5.00,0.00,29.91,1012.70,3.00,null,OVC,null,null,null,300.00,null,null,null,BR,null,null,null,null,null,null,59.00,KSBA 150353Z 24005KT 3SM BR OVC003 15/14 A2991 RMK AO2 SLP127 T01500139 $,null
SBA,2025-07-14 21:53,-119.8436,34.4261,3.00,58.00,57.00,96.47,230.00,4.00,0.00,29.93,1013.40,2.50,null,OVC,null,null,null,300.00,null,null,null,BR,null,null,null,null,null,null,58.00,KSBA 150453Z 23004KT 2 1/2SM BR OVC003 14/14 A2993 RMK AO2 SLP134 T01440139 $,null
SBA,2025-07-14 22:53,-119.8436,34.4261,3.00,58.00,57.00,96.47,0.00,0.00,0.00,29.94,1013.70,2.50,null,OVC,null,null,null,300.00,null,null,null,BR,null,null,null,null,null,null,58.00,KSBA 150553Z 00000KT 2 1/2SM BR OVC003 14/14 A2994 RMK AO2 SLP137 T01440139 10189 20144 51014 $,null
SBA,2025-07-14 23:53,-119.8436,34.4261,3.00,58.00,56.00,93.04,200.00,3.00,0.00,29.94,1013.70,2.50,null,OVC,null,null,null,200.00,null,null,null,BR,null,null,null,null,null,null,58.00,KSBA 150653Z AUTO 20003KT 2 1/2SM BR OVC002 14/13 A2994 RMK AO2 SLP137 T01440133 $,null
SBA,2025-07-15 00:08,-119.8436,34.4261,3.00,58.00,56.00,93.04,200.00,3.00,0.00,29.94,null,3.00,null,OVC,null,null,null,200.00,null,null,null,BR,null,null,null,null,null,null,58.00,KSBA 150708Z AUTO 20003KT 3SM BR OVC002 14/13 A2994 RMK AO2 T01440133 $,null
SBA,2025-07-15 00:53,-119.8436,34.4261,3.00,57.00,56.00,96.45,210.00,4.00,0.00,29.94,1013.70,7.00,null,OVC,null,null,null,300.00,null,null,null,null,null,null,null,null,null,null,57.00,KSBA 150753Z AUTO 21004KT 7SM OVC003 14/13 A2994 RMK AO2 SLP137 T01390133 402060139 $,null
SBA,2025-07-15 01:53,-119.8436,34.4261,3.00,57.00,56.00,96.45,220.00,3.00,0.00,29.93,1013.40,5.00,null,OVC,null,null,null,300.00,null,null,null,BR,null,null,null,null,null,null,57.00,KSBA 150853Z AUTO 22003KT 5SM BR OVC003 14/13 A2993 RMK AO2 SLP134 T01390133 58003 $,null
SBA,2025-07-15 02:20,-119.8436,34.4261,3.00,57.00,56.00,96.45,0.00,0.00,0.00,29.92,null,2.50,null,OVC,null,null,null,300.00,null,null,null,BR,null,null,null,null,null,null,57.00,KSBA 150920Z AUTO 00000KT 2 1/2SM BR OVC003 14/13 A2992 RMK AO2 T01390133 $,null
SBA,2025-07-15 02:51,-119.8436,34.4261,3.00,57.20,55.40,93.70,0.00,0.00,0.00,29.92,null,3.00,null,OVC,null,null,null,300.00,null,null,null,BR,null,null,null,null,null,null,57.20,KSBA 150951Z AUTO 00000KT 3SM BR OVC003 14/13 A2992 RMK AO2 $,null
SBA,2025-07-15 02:53,-119.8436,34.4261,3.00,57.00,56.00,96.45,0.00,0.00,0.00,29.92,1013.10,3.00,null,OVC,null,null,null,300.00,null,null,null,BR,null,null,null,null,null,null,57.00,KSBA 150953Z AUTO 00000KT 3SM BR OVC003 14/13 A2992 RMK AO2 SLP131 T01390133 $,null
SBA,2025-07-15 03:40,-119.8436,34.4261,3.00,57.00,56.00,96.45,160.00,3.00,0.00,29.93,null,2.50,null,OVC,null,null,null,400.00,null,null,null,BR,null,null,null,null,null,null,57.00,KSBA 151040Z AUTO 16003KT 2 1/2SM BR OVC004 14/13 A2993 RMK AO2 T01390133 $,null
SBA,2025-07-15 03:53,-119.8436,34.4261,3.00,57.00,56.00,96.45,170.00,3.00,0.00,29.93,1013.50,2.00,null,OVC,null,null,null,400.00,null,null,null,BR,null,null,null,null,null,null,57.00,KSBA 151053Z AUTO 17003KT 2SM BR OVC004 14/13 A2993 RMK AO2 SLP135 T01390133 $,null
SBA,2025-07-15 04:26,-119.8436,34.4261,3.00,57.00,56.00,96.45,160.00,3.00,0.00,29.93,null,4.00,null,OVC,null,null,null,400.00,null,null,null,BR,null,null,null,null,null,null,57.00,KSBA 151126Z AUTO 16003KT 4SM BR OVC004 14/13 A2993 RMK AO2 T01390133 $,null
SBA,2025-07-15 04:40,-119.8436,34.4261,3.00,58.00,57.00,96.47,0.00,0.00,0.00,29.93,null,2.00,null,OVC,null,null,null,500.00,null,null,null,BR,null,null,null,null,null,null,58.00,KSBA 151140Z AUTO 00000KT 2SM BR OVC005 14/14 A2993 RMK AO2 T01440139 $,null
SBA,2025-07-15 04:53,-119.8436,34.4261,3.00,58.00,57.00,96.47,140.00,3.00,0.00,29.93,1013.40,3.00,null,OVC,null,null,null,500.00,null,null,null,BR,null,null,null,null,null,null,58.00,KSBA 151153Z AUTO 14003KT 3SM BR OVC005 14/14 A2993 RMK AO2 SLP134 T01440139 10144 20139 52003 $,null
SBA,2025-07-15 05:53,-119.8436,34.4261,3.00,58.00,56.00,93.04,140.00,4.00,0.00,29.94,1013.70,9.00,null,OVC,null,null,null,600.00,null,null,null,null,null,null,null,null,null,null,58.00,KSBA 151253Z AUTO 14004KT 9SM OVC006 14/13 A2994 RMK AO2 SLP137 T01440133 $,null
SBA,2025-07-15 06:53,-119.8436,34.4261,3.00,59.00,56.00,89.77,120.00,3.00,0.00,29.95,1014.20,10.00,null,OVC,null,null,null,800.00,null,null,null,null,null,null,null,null,null,null,59.00,KSBA 151353Z 12003KT 10SM OVC008 15/13 A2995 RMK AO2 SLP142 T01500133 $,null
SBA,2025-07-15 07:53,-119.8436,34.4261,3.00,59.00,57.00,93.07,140.00,4.00,0.00,29.96,1014.40,10.00,null,OVC,null,null,null,800.00,null,null,null,null,null,null,null,null,null,null,59.00,KSBA 151453Z 14004KT 10SM OVC008 15/14 A2996 RMK AO2 SLP144 T01500139 51007 $,null
SBA,2025-07-15 08:53,-119.8436,34.4261,3.00,61.00,57.00,86.68,50.00,3.00,0.00,29.98,1015.00,10.00,null,OVC,null,null,null,800.00,null,null,null,null,null,null,null,null,null,null,61.00,KSBA 151553Z 05003KT 10SM OVC008 16/14 A2998 RMK AO2 SLP150 T01610139 $,null
SBA,2025-07-15 09:53,-119.8436,34.4261,3.00,63.00,57.00,80.77,null,3.00,0.00,29.97,1015.00,10.00,null,OVC,null,null,null,1100.00,null,null,null,null,null,null,null,null,null,null,63.00,KSBA 151653Z VRB03KT 10SM OVC011 17/14 A2997 RMK AO2 SLP150 T01720139 $,null
SBA,2025-07-15 10:53,-119.8436,34.4261,3.00,65.00,58.00,78.08,130.00,4.00,0.00,29.98,1015.10,10.00,null,OVC,null,null,null,1200.00,null,null,null,null,null,null,null,null,null,null,65.00,KSBA 151753Z 13004KT 10SM OVC012 18/14 A2998 RMK AO2 SLP151 T01830144 10183 20144 51006 $,null
SBA,2025-07-15 11:53,-119.8436,34.4261,3.00,66.00,58.00,75.41,140.00,7.00,0.00,29.98,1015.30,10.00,null,OVC,null,null,null,1400.00,null,null,null,null,null,null,null,null,null,null,66.00,KSBA 151853Z 14007KT 10SM OVC014 19/14 A2998 RMK AO2 SLP153 T01890144 $,null
SBA,2025-07-15 12:53,-119.8436,34.4261,3.00,67.00,58.00,72.85,160.00,8.00,0.00,29.98,1015.20,10.00,null,OVC,null,null,null,1800.00,null,null,null,null,null,null,null,null,null,null,67.00,KSBA 151953Z 16008KT 10SM OVC018 19/14 A2998 RMK AO2 SLP152 T01940144 $,null
SBA,2025-07-15 13:53,-119.8436,34.4261,3.00,69.00,59.00,70.49,160.00,7.00,0.00,29.97,1014.80,10.00,null,BKN,null,null,null,1900.00,null,null,null,null,null,null,null,null,null,null,69.00,KSBA 152053Z 16007KT 10SM BKN019 21/15 A2997 RMK AO2 SLP148 T02060150 58003 $,null
SBA,2025-07-15 14:29,-119.8436,34.4261,3.00,69.00,58.00,68.01,160.00,8.00,0.00,29.96,null,10.00,null,SCT,null,null,null,2300.00,null,null,null,null,null,null,null,null,null,null,69.00,KSBA 152129Z 16008KT 10SM SCT023 21/14 A2996 RMK AO2 T02060144 $,null
SBA,2025-07-15 14:53,-119.8436,34.4261,3.00,70.00,59.00,68.12,170.00,7.00,0.00,29.95,1014.00,10.00,null,SCT,null,null,null,2300.00,null,null,null,null,null,null,null,null,null,null,70.00,KSBA 152153Z 17007KT 10SM SCT023 21/15 A2995 RMK AO2 SLP140 T02110150 $,null
SBA,2025-07-15 15:53,-119.8436,34.4261,3.00,70.00,59.00,68.12,null,6.00,0.00,29.93,1013.60,10.00,null,FEW,null,null,null,2300.00,null,null,null,null,null,null,null,null,null,null,70.00,KSBA 152253Z VRB06KT 10SM FEW023 21/15 A2993 RMK AO2 SLP136 VIS 5 E HZ T02110150 $,null
SBA,2025-07-15 16:53,-119.8436,34.4261,3.00,69.00,59.00,70.49,260.00,8.00,0.00,29.91,1012.90,10.00,null,FEW,null,null,null,1800.00,null,null,null,null,null,null,null,null,null,null,69.00,KSBA 152353Z 26008KT 10SM FEW018 21/15 A2991 RMK AO2 SLP129 T02060150 10217 20178 56019 $,null
SBA,2025-07-15 17:53,-119.8436,34.4261,3.00,66.00,59.00,78.16,260.00,10.00,0.00,29.90,1012.50,10.00,null,SCT,null,null,null,1000.00,null,null,null,null,null,null,null,null,null,null,66.00,KSBA 160053Z 26010KT 10SM SCT010 19/15 A2990 RMK AO2 SLP125 T01890150 $,null
SBA,2025-07-15 18:53,-119.8436,34.4261,3.00,63.00,58.00,83.73,260.00,7.00,0.00,29.91,1012.70,10.00,null,CLR,null,null,null,null,null,null,null,null,null,null,null,null,null,null,63.00,KSBA 160153Z 26007KT 10SM CLR 17/14 A2991 RMK AO2 SLP127 T01720144 $,null
SBA,2025-07-15 19:53,-119.8436,34.4261,3.00,61.00,57.00,86.68,270.00,8.00,0.00,29.91,1012.80,10.00,null,SCT,null,null,null,1000.00,null,null,null,null,null,null,null,null,null,null,61.00,KSBA 160253Z 27008KT 10SM SCT010 16/14 A2991 RMK AO2 SLP128 T01610139 55000 $,null
SBA,2025-07-15 20:49,-119.8436,34.4261,3.00,60.80,57.20,87.93,260.00,8.00,0.00,29.92,null,10.00,null,SCT,null,null,null,600.00,null,null,null,null,null,null,null,null,null,null,60.80,KSBA 160349Z 26008KT 10SM SCT006 16/14 A2992 RMK AO2 $,null
SBA,2025-07-15 20:53,-119.8436,34.4261,3.00,60.00,57.00,89.81,270.00,9.00,0.00,29.92,1013.20,10.00,null,BKN,null,null,null,600.00,null,null,null,null,null,null,null,null,null,null,60.00,KSBA 160353Z 27009KT 10SM BKN006 16/14 A2992 RMK AO2 SLP132 T01560139 $,null
SBA,2025-07-15 21:53,-119.8436,34.4261,3.00,60.00,57.00,89.81,260.00,7.00,0.00,29.93,1013.60,10.00,null,OVC,null,null,null,600.00,null,null,null,null,null,null,null,null,null,null,60.00,KSBA 160453Z 26007KT 10SM OVC006 16/14 A2993 RMK AO2 SLP136 T01560139 $,null
SBA,2025-07-15 22:53,-119.8436,34.4261,3.00,60.00,57.00,89.81,260.00,4.00,0.00,29.93,1013.50,10.00,null,OVC,null,null,null,700.00,null,null,null,null,null,null,null,null,null,null,60.00,KSBA 160553Z AUTO 26004KT 10SM OVC007 16/14 A2993 RMK AO2 SLP135 T01560139 10206 20156 50004 $,null
SBA,2025-07-15 23:53,-119.8436,34.4261,3.00,59.00,57.00,93.07,260.00,5.00,0.00,29.92,1013.30,7.00,null,OVC,null,null,null,600.00,null,null,null,null,null,null,null,null,null,null,59.00,KSBA 160653Z AUTO 26005KT 7SM OVC006 15/14 A2992 RMK AO2 SLP133 T01500139 $,null
SBA,2025-07-16 00:53,-119.8436,34.4261,3.00,59.00,57.00,93.07,250.00,5.00,0.00,29.93,1013.30,3.00,null,OVC,null,null,null,500.00,null,null,null,BR,null,null,null,null,null,null,59.00,KSBA 160753Z AUTO 25005KT 3SM BR OVC005 15/14 A2993 RMK AO2 SLP133 T01500139 402170139 $,null
SBA,2025-07-16 01:16,-119.8436,34.4261,3.00,59.00,58.00,96.48,260.00,4.00,0.00,29.93,null,2.50,null,OVC,null,null,null,400.00,null,null,null,BR,null,null,null,null,null,null,59.00,KSBA 160816Z AUTO 26004KT 2 1/2SM BR OVC004 15/14 A2993 RMK AO2 CIG 003V006 T01500144 $,null
SBA,2025-07-16 01:33,-119.8436,34.4261,3.00,59.00,58.00,96.48,270.00,3.00,0.00,29.93,null,3.00,null,OVC,null,null,null,600.00,null,null,null,BR,null,null,null,null,null,null,59.00,KSBA 160833Z AUTO 27003KT 3SM BR OVC006 15/14 A2993 RMK AO2 CIG 003V007 T01500144 $,null
SBA,2025-07-16 01:53,-119.8436,34.4261,3.00,59.00,58.00,96.48,260.00,3.00,0.00,29.94,1013.70,3.00,null,OVC,null,null,null,600.00,null,null,null,BR,null,null,null,null,null,null,59.00,KSBA 160853Z AUTO 26003KT 3SM BR OVC006 15/14 A2994 RMK AO2 SLP137 T01500144 53002 $,null
SBA,2025-07-16 02:48,-119.8436,34.4261,3.00,59.00,57.20,93.74,0.00,0.00,0.00,29.94,null,2.50,null,BKN,OVC,null,null,800.00,1200.00,null,null,BR,null,null,null,null,null,null,59.00,KSBA 160948Z AUTO 00000KT 2 1/2SM BR BKN008 OVC012 15/14 A2994 RMK AO2 $,null
SBA,2025-07-16 02:53,-119.8436,34.4261,3.00,59.00,58.00,96.48,0.00,0.00,0.00,29.94,1013.90,3.00,null,BKN,OVC,null,null,800.00,1200.00,null,null,BR,null,null,null,null,null,null,59.00,KSBA 160953Z AUTO 00000KT 3SM BR BKN008 OVC012 15/14 A2994 RMK AO2 SLP139 T01500144 $,null
SBA,2025-07-16 03:02,-119.8436,34.4261,3.00,59.00,58.00,96.48,0.00,0.00,0.00,29.94,null,3.00,null,OVC,null,null,null,1000.00,null,null,null,BR,null,null,null,null,null,null,59.00,KSBA 161002Z AUTO 00000KT 3SM BR OVC010 15/14 A2994 RMK AO2 T01500144 $,null
SBA,2025-07-16 03:12,-119.8436,34.4261,3.00,59.00,58.00,96.48,0.00,0.00,0.00,29.94,null,3.00,null,OVC,null,null,null,900.00,null,null,null,BR,null,null,null,null,null,null,59.00,KSBA 161012Z AUTO 00000KT 3SM BR OVC009 15/14 A2994 RMK AO2 T01500144 $,null
SBA,2025-07-16 03:27,-119.8436,34.4261,3.00,59.00,58.00,96.48,0.00,0.00,0.00,29.94,null,4.00,null,OVC,null,null,null,1100.00,null,null,null,BR,null,null,null,null,null,null,59.00,KSBA 161027Z AUTO 00000KT 4SM BR OVC011 15/14 A2994 RMK AO2 T01500144 $,null
SBA,2025-07-16 03:34,-119.8436,34.4261,3.00,59.00,59.00,100.00,0.00,0.00,0.00,29.94,null,3.00,null,FEW,OVC,null,null,500.00,1100.00,null,null,BR,null,null,null,null,null,null,59.00,KSBA 161034Z AUTO 00000KT 3SM BR FEW005 OVC011 15/15 A2994 RMK AO2 T01500150 $,null
SBA,2025-07-16 03:53,-119.8436,34.4261,3.00,59.00,58.00,96.48,0.00,0.00,0.00,29.94,1013.80,4.00,null,BKN,OVC,null,null,500.00,1200.00,null,null,BR,null,null,null,null,null,null,59.00,KSBA 161053Z AUTO 00000KT 4SM BR BKN005 OVC012 15/14 A2994 RMK AO2 SLP138 T01500144 $,null
SBA,2025-07-16 04:12,-119.8436,34.4261,3.00,59.00,58.00,96.48,0.00,0.00,0.00,29.94,null,5.00,null,SCT,OVC,null,null,500.00,1300.00,null,null,BR,null,null,null,null,null,null,59.00,KSBA 161112Z AUTO 00000KT 5SM BR SCT005 OVC013 15/14 A2994 RMK AO2 T01500144 $,null
SBA,2025-07-16 04:50,-119.8436,34.4261,3.00,60.80,59.00,93.79,0.00,0.00,0.00,29.93,null,5.00,null,BKN,OVC,null,null,600.00,1200.00,null,null,BR,null,null,null,null,null,null,60.80,KSBA 161150Z AUTO 00000KT 5SM BR BKN006 OVC012 16/15 A2993 RMK AO2 CIG 004V008 $,null
SBA,2025-07-16 04:53,-119.8436,34.4261,3.00,60.00,59.00,96.50,0.00,0.00,0.00,29.93,1013.60,5.00,null,BKN,OVC,null,null,600.00,1200.00,null,null,BR,null,null,null,null,null,null,60.00,KSBA 161153Z AUTO 00000KT 5SM BR BKN006 OVC012 16/15 A2993 RMK AO2 CIG 004V009 SLP136 T01560150 10156 20150 55003 $,null
SBA,2025-07-16 05:39,-119.8436,34.4261,3.00,60.00,59.00,96.50,0.00,0.00,0.00,29.94,null,9.00,null,FEW,OVC,null,null,800.00,1400.00,null,null,null,null,null,null,null,null,null,60.00,KSBA 161239Z AUTO 00000KT 9SM FEW008 OVC014 16/15 A2994 RMK AO2 T01560150 $,null
SBA,2025-07-16 05:53,-119.8436,34.4261,3.00,60.00,59.00,96.50,0.00,0.00,0.00,29.95,1014.00,8.00,null,OVC,null,null,null,1400.00,null,null,null,null,null,null,null,null,null,null,60.00,KSBA 161253Z AUTO 00000KT 8SM OVC014 16/15 A2995 RMK AO2 SLP140 T01560150 $,null
SBA,2025-07-16 05:57,-119.8436,34.4261,3.00,60.00,59.00,96.50,0.00,0.00,0.00,29.95,null,7.00,null,OVC,null,null,null,900.00,null,null,null,null,null,null,null,null,null,null,60.00,KSBA 161257Z 00000KT 7SM OVC009 16/15 A2995 RMK AO2 T01560150 $,null
SBA,2025-07-16 06:53,-119.8436,34.4261,3.00,61.00,59.00,93.13,0.00,0.00,0.00,29.95,1014.30,3.00,null,OVC,null,null,null,800.00,null,null,null,BR,null,null,null,null,null,null,61.00,KSBA 161353Z 00000KT 3SM BR OVC008 16/15 A2995 RMK AO2 SLP143 T01610150 $,null
SBA,2025-07-16 07:53,-119.8436,34.4261,3.00,61.00,60.00,96.51,0.00,0.00,0.00,29.97,1014.70,9.00,null,BKN,OVC,null,null,500.00,1000.00,null,null,null,null,null,null,null,null,null,61.00,KSBA 161453Z 00000KT 9SM BKN005 OVC010 16/16 A2997 RMK AO2 SLP147 T01610156 53011 $,null
SBA,2025-07-16 08:53,-119.8436,34.4261,3.00,62.00,59.00,89.89,0.00,0.00,0.00,29.97,1015.00,10.00,null,BKN,OVC,null,null,800.00,1400.00,null,null,null,null,null,null,null,null,null,62.00,KSBA 161553Z 00000KT 10SM BKN008 OVC014 17/15 A2997 RMK AO2 SLP150 T01670150 $,null
SBA,2025-07-16 09:53,-119.8436,34.4261,3.00,66.00,58.00,75.41,140.00,4.00,0.00,29.97,1014.90,10.00,null,BKN,OVC,null,null,800.00,1400.00,null,null,null,null,null,null,null,null,null,66.00,KSBA 161653Z 14004KT 10SM BKN008 OVC014 19/14 A2997 RMK AO2 SLP149 T01890144,null
SBA,2025-07-16 10:53,-119.8436,34.4261,3.00,67.00,57.00,70.27,180.00,5.00,0.00,29.97,1015.00,10.00,null,OVC,null,null,null,2300.00,null,null,null,null,null,null,null,null,null,null,67.00,KSBA 161753Z 18005KT 10SM OVC023 19/14 A2997 RMK AO2 SLP150 T01940139 10194 20156 51003,null
SBA,2025-07-16 11:53,-119.8436,34.4261,3.00,68.00,58.00,70.38,null,4.00,0.00,29.98,1015.10,10.00,null,OVC,null,null,null,2100.00,null,null,null,null,null,null,null,null,null,null,68.00,KSBA 161853Z VRB04KT 10SM OVC021 20/14 A2998 RMK AO2 SLP151 T02000144,null
SBA,2025-07-16 12:53,-119.8436,34.4261,3.00,70.00,58.00,65.72,190.00,8.00,0.00,29.97,1014.80,10.00,null,OVC,null,null,null,2400.00,null,null,null,null,null,null,null,null,null,null,70.00,KSBA 161953Z 19008KT 10SM OVC024 21/14 A2997 RMK AO2 SLP148 T02110144,null
SBA,2025-07-16 13:04,-119.8436,34.4261,3.00,70.00,58.00,65.72,190.00,8.00,0.00,29.97,1014.80,10.00,null,SCT,null,null,null,2400.00,null,null,null,null,null,null,null,null,null,null,70.00,KSBA 162004Z COR 19008KT 10SM SCT024 21/14 A2997 RMK AO2 SLP148 T02110144,null
SBA,2025-07-16 13:53,-119.8436,34.4261,3.00,69.00,58.00,68.01,180.00,8.00,0.00,29.95,1014.20,10.00,null,SCT,null,null,null,2400.00,null,null,null,null,null,null,null,null,null,null,69.00,KSBA 162053Z 18008KT 10SM SCT024 21/14 A2995 RMK AO2 SLP142 T02060144 58007,null
SBA,2025-07-16 14:53,-119.8436,34.4261,3.00,71.00,58.00,63.53,150.00,7.00,0.00,29.94,1013.70,10.00,null,CLR,null,null,null,null,null,null,null,null,null,null,null,null,null,null,71.00,KSBA 162153Z 15007KT 130V220 10SM CLR 22/14 A2994 RMK AO2 SLP137 T02170144,null
SBA,2025-07-16 15:53,-119.8436,34.4261,3.00,71.00,58.00,63.53,230.00,7.00,0.00,29.92,1013.00,10.00,null,CLR,null,null,null,null,null,null,null,null,null,null,null,null,null,null,71.00,KSBA 162253Z 23007KT 10SM CLR 22/14 A2992 RMK AO2 SLP130 T02170144,null
SBA,2025-07-16 16:53,-119.8436,34.4261,3.00,69.00,59.00,70.49,250.00,10.00,0.00,29.90,1012.60,10.00,null,CLR,null,null,null,null,null,null,null,null,null,null,null,null,null,null,69.00,KSBA 162353Z 25010KT 10SM CLR 21/15 A2990 RMK AO2 SLP126 T02060150 10228 20194 56017,null
SBA,2025-07-16 17:53,-119.8436,34.4261,3.00,67.00,58.00,72.85,260.00,10.00,0.00,29.89,1012.20,10.00,null,CLR,null,null,null,null,null,null,null,null,null,null,null,null,null,null,67.00,KSBA 170053Z 26010KT 10SM CLR 19/14 A2989 RMK AO2 SLP122 T01940144,null
SBA,2025-07-16 18:53,-119.8436,34.4261,3.00,66.00,57.00,72.74,250.00,8.00,0.00,29.90,1012.60,10.00,null,CLR,null,null,null,null,null,null,null,null,null,null,null,null,null,null,66.00,KSBA 170153Z 25008KT 10SM CLR 19/14 A2990 RMK AO2 SLP126 T01890139,null
SBA,2025-07-16 19:53,-119.8436,34.4261,3.00,64.00,56.00,75.22,260.00,7.00,0.00,29.91,1012.90,10.00,null,CLR,null,null,null,null,null,null,null,null,null,null,null,null,null,null,64.00,KSBA 170253Z 26007KT 10SM CLR 18/13 A2991 RMK AO2 SLP129 T01780133 53003,null
SBA,2025-07-16 20:53,-119.8436,34.4261,3.00,62.00,57.00,83.67,260.00,6.00,0.00,29.91,1012.90,10.00,null,CLR,null,null,null,null,null,null,null,null,null,null,null,null,null,null,62.00,KSBA 170353Z 26006KT 10SM CLR 17/14 A2991 RMK AO2 SLP129 T01670139,null
SBA,2025-07-16 21:53,-119.8436,34.4261,3.00,60.00,56.00,86.62,270.00,4.00,0.00,29.93,1013.50,10.00,null,CLR,null,null,null,null,null,null,null,null,null,null,null,null,null,null,60.00,KSBA 170453Z 27004KT 10SM CLR 16/13 A2993 RMK AO2 SLP135 T01560133,null
SBA,2025-07-16 22:53,-119.8436,34.4261,3.00,61.00,57.00,86.68,0.00,0.00,0.00,29.93,1013.50,10.00,null,CLR,null,null,null,null,null,null,null,null,null,null,null,null,null,null,61.00,KSBA 170553Z 00000KT 10SM CLR 16/14 A2993 RMK AO2 SLP135 T01610139 10206 20156 50005 $,null
SBA,2025-07-16 23:53,-119.8436,34.4261,3.00,57.00,54.00,89.68,0.00,0.00,0.00,29.93,1013.50,10.00,null,CLR,null,null,null,null,null,null,null,null,null,null,null,null,null,null,57.00,KSBA 170653Z 00000KT 10SM CLR 14/12 A2993 RMK AO2 SLP135 T01390122 $,null
